{
"type": "FeatureCollection",
"name": "Jawa-16-roi",
"crs": { "type": "name", "properties": { "name": "urn:ogc:def:crs:OGC:1.3:CRS84" } },
"features": [
{ "type": "Feature", "properties": { "id": "Jawa-16" }, "geometry": { "type": "MultiPolygon", "coordinates": [ [ [ [ 110.692220476797999, -6.54967045534852 ], [ 110.643743447185997, -6.5393986738698 ], [ 110.656431774837003, -6.47977593415854 ], [ 110.706709773376005, -6.49064964073634 ], [ 110.692220476797999, -6.54967045534852 ] ] ] ] } }
]
}
