{
"type": "FeatureCollection",
"name": "shoreline",
"crs": { "type": "name", "properties": { "name": "urn:ogc:def:crs:OGC:1.3:CRS84" } },
"features": [
{ "type": "Feature", "properties": { "MEAN_SIG_WAVEHEIGHT": 0.327026, "TIDAL_RANGE": 0.972026, "ERODIBILITY": "Medium", "river_label": "moderate river discharge", "sinuosity_label": "sinuous", "slope_label": "sloping", "turbid_label": "moderately turbid", "CSU_ID": 64242, "id": "fqc1" }, "geometry": { "type": "LineString", "coordinates": [ [ 110.663062301104773, -6.543492139320577 ], [ 110.663275142000089, -6.543301025999938 ], [ 110.66334283100008, -6.543233967999981 ], [ 110.664353456000072, -6.542223376999971 ], [ 110.664420526000072, -6.542155696999941 ], [ 110.664611853000054, -6.541942756999958 ], [ 110.664642327000081, -6.541905849999978 ], [ 110.665234940000062, -6.540994333999947 ], [ 110.665459355000053, -6.540559670999926 ], [ 110.665484334000041, -6.540504190999968 ], [ 110.665501435000067, -6.54044171399994 ], [ 110.665512354000043, -6.540374411999949 ], [ 110.665518251000037, -6.540304105999951 ], [ 110.665519805000088, -6.540232380999953 ], [ 110.665517241000089, -6.540160707999974 ], [ 110.66551035100008, -6.540090543999952 ], [ 110.665498488000082, -6.540023447999943 ], [ 110.665480535000086, -6.539961192999954 ], [ 110.665454870000076, -6.539905866999959 ], [ 110.665426866000075, -6.539866015999962 ], [ 110.665364048000072, -6.539792640999963 ], [ 110.665335882000079, -6.539752625999938 ], [ 110.665310043000034, -6.539697519999947 ], [ 110.665291425000078, -6.539635250999936 ], [ 110.665278230000069, -6.539567640999962 ], [ 110.665269058000035, -6.539496097999972 ], [ 110.665262828000039, -6.539421706999974 ], [ 110.665258719000065, -6.539345284999968 ], [ 110.665254565000055, -6.539188606999971 ], [ 110.665254094000034, -6.539097239999933 ] ] } },
{ "type": "Feature", "properties": { "MEAN_SIG_WAVEHEIGHT": 0.327026, "TIDAL_RANGE": 0.972026, "ERODIBILITY": "Medium", "river_label": "moderate river discharge", "sinuosity_label": "sinuous", "slope_label": "sloping", "turbid_label": "moderately turbid", "CSU_ID": 64242, "id": "fqc2" }, "geometry": { "type": "LineString", "coordinates": [ [ 110.665254094000034, -6.539097239999933 ], [ 110.665253328000063, -6.53894904699996 ], [ 110.665257362000034, -6.536383950999948 ], [ 110.665261039000086, -6.535420172999977 ], [ 110.665259496000033, -6.535261683999977 ], [ 110.665253894000045, -6.53510724299997 ], [ 110.665248312000074, -6.53503279499995 ], [ 110.665239831000065, -6.534961242999941 ], [ 110.665227340000058, -6.534893693999948 ], [ 110.665209377000053, -6.534831605999955 ], [ 110.665184060000058, -6.53477686399998 ], [ 110.664958395000042, -6.534346639999967 ], [ 110.664815637000061, -6.534130845999925 ], [ 110.664787389000082, -6.534091020999938 ], [ 110.664761829000042, -6.534036380999964 ], [ 110.664743441000041, -6.533974446999935 ], [ 110.664730392000081, -6.533907061999969 ], [ 110.664721271000076, -6.533835666999948 ], [ 110.66471501500007, -6.533761381999966 ], [ 110.664708221000069, -6.533607432999929 ], [ 110.664706441000078, -6.533450329999937 ], [ 110.664707127000042, -6.533371836999947 ], [ 110.664709042000084, -6.533294048999949 ], [ 110.664712549000058, -6.533217549999961 ], [ 110.664718217000086, -6.53314306599998 ], [ 110.664726888000075, -6.533071530999962 ], [ 110.664739704000056, -6.533004152999979 ], [ 110.664758202000087, -6.532942502999958 ], [ 110.664784399000041, -6.532888611999965 ], [ 110.664813791000086, -6.532849974999976 ], [ 110.665036519000068, -6.53259731199995 ], [ 110.665289528000073, -6.532374274999938 ], [ 110.665328220000049, -6.532344836999926 ], [ 110.665380482000046, -6.532319255999937 ], [ 110.665440056000079, -6.53230106999996 ], [ 110.665505016000054, -6.532288458999972 ], [ 110.665573833000053, -6.53228005099993 ], [ 110.66564528300006, -6.532274848999975 ], [ 110.665718363000053, -6.532272175999935 ], [ 110.66579222200005, -6.532271635999962 ], [ 110.665866085000062, -6.532273081999961 ], [ 110.665939192000053, -6.532276604999936 ], [ 110.666010733000064, -6.532282541999962 ], [ 110.666079782000054, -6.532291482999938 ], [ 110.666145229000051, -6.532304310999962 ], [ 110.666205718000072, -6.532322231999956 ], [ 110.667024445000038, -6.532595727999933 ], [ 110.667079403000059, -6.532622493999952 ], [ 110.667082443000083, -6.532624815999952 ] ] } },
{ "type": "Feature", "properties": { "MEAN_SIG_WAVEHEIGHT": 0.327026, "TIDAL_RANGE": 0.972026, "ERODIBILITY": "Medium", "river_label": "moderate river discharge", "sinuosity_label": "sinuous", "slope_label": "sloping", "turbid_label": "moderately turbid", "CSU_ID": 64242, "id": "fqc3" }, "geometry": { "type": "LineString", "coordinates": [ [ 110.667082443000083, -6.532624815999952 ], [ 110.667117803000053, -6.53265181699993 ], [ 110.667310416000078, -6.532841291999944 ], [ 110.667333312000039, -6.532872649999945 ], [ 110.667346694000059, -6.532908121999981 ], [ 110.667350562000081, -6.53294602699998 ], [ 110.667345225000076, -6.532983953999974 ], [ 110.667330466000067, -6.53301950499997 ], [ 110.667306383000039, -6.533051058999945 ], [ 110.667121089000034, -6.533253791999925 ], [ 110.666983056000049, -6.533390347999955 ], [ 110.666952364000053, -6.533428509999965 ], [ 110.666924951000055, -6.533481404999975 ], [ 110.666905278000058, -6.533541992999972 ], [ 110.666891372000066, -6.533608307999941 ], [ 110.666881702000069, -6.533678828999939 ], [ 110.666875092000055, -6.533752402999937 ], [ 110.666867708000041, -6.533905474999926 ], [ 110.666863646000081, -6.534142618999965 ], [ 110.666862094000066, -6.534462800999961 ], [ 110.666862784000045, -6.534621845999936 ], [ 110.666866584000047, -6.534777664999979 ], [ 110.66687081200007, -6.534853211999973 ], [ 110.666877594000084, -6.534926195999958 ], [ 110.666888020000044, -6.534995541999933 ], [ 110.666903550000086, -6.535059797999963 ], [ 110.666926103000037, -6.535117043999946 ], [ 110.666958179000062, -6.535164767999959 ], [ 110.667000655000038, -6.535200428999929 ], [ 110.667051523000055, -6.535227605999978 ], [ 110.667466340000033, -6.535435359999951 ], [ 110.66750408200005, -6.535447740999928 ], [ 110.667543935000083, -6.535451485999943 ], [ 110.667583746000048, -6.535446830999945 ], [ 110.667621362000034, -6.535433548999947 ], [ 110.668095156000049, -6.535203057999979 ], [ 110.668144385000062, -6.535174114999961 ], [ 110.668181195000045, -6.535142532999942 ], [ 110.668428498000083, -6.534912091999956 ], [ 110.668459990000088, -6.534875402999944 ], [ 110.668518089000088, -6.534797074999972 ], [ 110.668549589000065, -6.534760302999928 ], [ 110.668799279000041, -6.534531079999965 ], [ 110.668837489000055, -6.534501084999931 ], [ 110.668891873000064, -6.534474042999932 ], [ 110.668953945000055, -6.534455463999961 ], [ 110.669021322000049, -6.534443454999973 ], [ 110.669092022000086, -6.534436725999967 ], [ 110.669164321000039, -6.534434529999942 ], [ 110.669236628000078, -6.534436618999962 ], [ 110.669307348000075, -6.534443237999938 ], [ 110.66937475800006, -6.534455126999944 ], [ 110.669436877000066, -6.534473573999946 ], [ 110.669491324000035, -6.534500469999955 ], [ 110.669529595000085, -6.534530328999949 ], [ 110.669779783000081, -6.534758160999957 ], [ 110.669811287000073, -6.534794702999932 ], [ 110.669935555000052, -6.534941870999944 ], [ 110.670134803000053, -6.535148226999979 ], [ 110.670201814000052, -6.535216182999932 ], [ 110.67041247800006, -6.535410106999961 ], [ 110.670448963000069, -6.535441031999937 ], [ 110.670497785000066, -6.535469241999976 ], [ 110.670986073000051, -6.535712933999946 ], [ 110.671041124000055, -6.535737849999975 ], [ 110.67110346000004, -6.535755509999944 ], [ 110.671171212000047, -6.535767786999941 ], [ 110.671242937000045, -6.535776127999952 ], [ 110.67131753700005, -6.535781638999936 ], [ 110.671394187000033, -6.535785154999928 ], [ 110.671551354000087, -6.53578850599996 ], [ 110.67219424700005, -6.535789032999958 ] ] } },
{ "type": "Feature", "properties": { "MEAN_SIG_WAVEHEIGHT": 0.327026, "TIDAL_RANGE": 0.972026, "ERODIBILITY": "Medium", "river_label": "moderate river discharge", "sinuosity_label": "straight", "slope_label": "flat", "turbid_label": "moderately turbid", "CSU_ID": 65682, "id": "fqc4" }, "geometry": { "type": "LineString", "coordinates": [ [ 110.668173975000059, -6.532812622999927 ], [ 110.668240682000089, -6.532818831999975 ], [ 110.66830421700007, -6.53282964999994 ], [ 110.668362727000044, -6.532846358999961 ], [ 110.668413914000041, -6.532870866999929 ], [ 110.668452939000076, -6.532901421999952 ], [ 110.668628341000044, -6.533081188999972 ], [ 110.668667719000041, -6.533126825999943 ], [ 110.668701808000037, -6.533182619999934 ], [ 110.668727123000053, -6.533248784999955 ], [ 110.668744307000054, -6.533321422999961 ], [ 110.668754941000088, -6.533395691999942 ], [ 110.668760528000064, -6.533466834999956 ], [ 110.668762473000072, -6.533530170999938 ], [ 110.668762127000036, -6.533581056999935 ], [ 110.668759911000052, -6.53362672399993 ], [ 110.668714364000039, -6.533628820999979 ], [ 110.668664473000035, -6.533628170999975 ], [ 110.668602337000038, -6.533625026999971 ], [ 110.668532344000084, -6.533618290999925 ], [ 110.668458935000046, -6.533606795999958 ], [ 110.66838662300006, -6.533589285999938 ], [ 110.66831998300006, -6.533564443999978 ], [ 110.667824210000049, -6.533322144999943 ], [ 110.667779809000081, -6.533298183999932 ], [ 110.667743543000086, -6.533267154999976 ], [ 110.667717544000084, -6.53322749299997 ], [ 110.667700624000076, -6.53318115899998 ], [ 110.667691310000066, -6.533130678999953 ], [ 110.667688769000051, -6.533078295999928 ], [ 110.667692765000083, -6.533026120999978 ], [ 110.667703642000049, -6.532976279999957 ], [ 110.667722332000039, -6.532931054999949 ], [ 110.667750398000067, -6.532893040999966 ], [ 110.667793076000066, -6.53286210899995 ], [ 110.667845766000084, -6.532840420999946 ], [ 110.667905489000077, -6.532825738999975 ], [ 110.667969912000046, -6.532816454999931 ], [ 110.668037161000086, -6.532811497999944 ], [ 110.668105659000048, -6.532810271999949 ], [ 110.668173975000059, -6.532812622999927 ] ] } },
{ "type": "Feature", "properties": { "MEAN_SIG_WAVEHEIGHT": 0.327026, "TIDAL_RANGE": 0.972026, "ERODIBILITY": "Medium", "river_label": "moderate river discharge", "sinuosity_label": "sinuous", "slope_label": "sloping", "turbid_label": "moderately turbid", "CSU_ID": 64242, "id": "fqc5" }, "geometry": { "type": "LineString", "coordinates": [ [ 110.678251441000043, -6.512061192999965 ], [ 110.677941377000082, -6.512068924999937 ], [ 110.677788699000075, -6.512075133999929 ], [ 110.677714995000088, -6.512080825999931 ], [ 110.677644130000033, -6.51208933199996 ], [ 110.677577192000058, -6.512101744999939 ], [ 110.677515580000033, -6.51211946199993 ], [ 110.677461057000073, -6.512144261999936 ], [ 110.677421098000082, -6.512171713999976 ], [ 110.677347781000037, -6.512233203999926 ], [ 110.677307848000055, -6.512260667999954 ], [ 110.677252212000042, -6.512285898999949 ], [ 110.677189248000047, -6.512303800999973 ], [ 110.677120811000066, -6.512316225999939 ], [ 110.677048340000056, -6.512324612999976 ], [ 110.676972941000088, -6.512330071999941 ], [ 110.676895456000068, -6.512333440999953 ], [ 110.67673661200007, -6.512336304999963 ], [ 110.676334248000046, -6.512338206999971 ], [ 110.676177919000054, -6.512343590999933 ], [ 110.676102594000042, -6.512349122999979 ], [ 110.676030215000083, -6.512357603999931 ], [ 110.675961891000043, -6.512370143999931 ], [ 110.675899067000046, -6.512388186999942 ], [ 110.675843597000039, -6.512413589999937 ], [ 110.675803826000049, -6.512441217999935 ], [ 110.675730908000048, -6.51250311299998 ], [ 110.675691181000047, -6.512530805999972 ], [ 110.675635802000045, -6.512556341999925 ], [ 110.675573109000084, -6.512574579999978 ], [ 110.675504955000065, -6.512587379999957 ], [ 110.675432780000051, -6.512596180999935 ], [ 110.675357681000037, -6.512602091999952 ], [ 110.675201814000047, -6.512608360999934 ], [ 110.675041701000055, -6.512610601999938 ], [ 110.673983475000057, -6.512612025999942 ], [ 110.673824467000088, -6.512608901999954 ], [ 110.673747005000052, -6.512605354999948 ], [ 110.673671743000057, -6.512599636999937 ], [ 110.673599602000081, -6.512590824999961 ], [ 110.673531808000064, -6.51257768499994 ], [ 110.673469992000037, -6.512558583999976 ], [ 110.673416272000054, -6.512531400999933 ], [ 110.673378789000083, -6.512501472999929 ], [ 110.673244452000063, -6.512366220999979 ], [ 110.673032631000069, -6.512173746999963 ], [ 110.672994964000054, -6.512144035999938 ], [ 110.67294213100007, -6.512117601999933 ], [ 110.672881441000072, -6.51209902599993 ], [ 110.672814918000086, -6.512086282999974 ], [ 110.672744142000056, -6.512077793999936 ], [ 110.672670331000063, -6.512072340999964 ], [ 110.672594427000035, -6.512068979999981 ], [ 110.672282909000046, -6.512063441999942 ], [ 110.672129688000041, -6.512058135999951 ], [ 110.672055716000045, -6.51205284699995 ], [ 110.671984576000057, -6.512044721999928 ], [ 110.671917362000045, -6.512032673999954 ], [ 110.670968344000073, -6.511783686999934 ], [ 110.670682007000039, -6.511694653999939 ], [ 110.670383539000056, -6.511548456999947 ], [ 110.669707737000067, -6.51131182599994 ], [ 110.669689219000077, -6.511306591999926 ] ] } },
{ "type": "Feature", "properties": { "MEAN_SIG_WAVEHEIGHT": 0.327026, "TIDAL_RANGE": 0.97765, "ERODIBILITY": "Medium", "river_label": "moderate river discharge", "sinuosity_label": "sinuous", "slope_label": "sloping", "turbid_label": "moderately turbid", "CSU_ID": 64242, "id": "fqc6" }, "geometry": { "type": "LineString", "coordinates": [ [ 110.669689219000077, -6.511306591999926 ], [ 110.66964770900006, -6.511294857999928 ], [ 110.669582681000065, -6.511282886999936 ], [ 110.669514032000052, -6.511274537999952 ], [ 110.669442883000045, -6.511268687999973 ], [ 110.669150723000087, -6.511252853999963 ], [ 110.669079817000068, -6.511246761999928 ], [ 110.669011606000083, -6.511237973999926 ], [ 110.668947320000086, -6.511225260999936 ], [ 110.668888489000039, -6.511207092999939 ], [ 110.668837033000045, -6.511181550999936 ], [ 110.668799084000057, -6.511152127999935 ], [ 110.668584831000089, -6.510962136999979 ], [ 110.668448727000055, -6.510828747999938 ], [ 110.668410967000057, -6.510799134999957 ], [ 110.668357146000062, -6.51077210699998 ], [ 110.668295631000035, -6.510752771999933 ], [ 110.66822877900006, -6.510738776999972 ], [ 110.668158543000061, -6.510728164999932 ], [ 110.668014524000057, -6.510710486999926 ], [ 110.667943808000075, -6.510700351999958 ], [ 110.667876088000071, -6.51068722499997 ], [ 110.667813204000083, -6.510669261999965 ], [ 110.667757336000079, -6.51064428199993 ], [ 110.667265177000047, -6.510404953999966 ], [ 110.667216100000076, -6.510377032999941 ], [ 110.667179422000061, -6.510346337999977 ], [ 110.66693226700005, -6.510121878999939 ], [ 110.666900729000076, -6.510086042999944 ], [ 110.666209619000085, -6.509420054999964 ], [ 110.665699528000061, -6.509131285999956 ], [ 110.665058284000054, -6.508761924999931 ], [ 110.665021423000042, -6.508731413999953 ], [ 110.664820494000082, -6.508528098999932 ], [ 110.66479101200008, -6.508490206999966 ], [ 110.664764331000072, -6.508436040999925 ], [ 110.664745438000068, -6.508374084999957 ], [ 110.664731905000053, -6.508306771999969 ], [ 110.664721721000035, -6.50823610599997 ], [ 110.664704687000039, -6.508091442999955 ], [ 110.664694733000033, -6.508020546999944 ], [ 110.664681684000072, -6.507952749999959 ], [ 110.66466369300008, -6.50788989199998 ], [ 110.664638580000087, -6.507834155999944 ], [ 110.664418341000044, -6.507399907999968 ], [ 110.664277944000048, -6.507184188999929 ], [ 110.664250172000038, -6.507144584999935 ], [ 110.66422478800007, -6.507089122999957 ], [ 110.664206862000071, -6.507026198999938 ], [ 110.664194465000037, -6.506957746999944 ], [ 110.664186106000045, -6.506885257999954 ], [ 110.664180653000074, -6.506809863999933 ], [ 110.664175281000041, -6.506653537999966 ], [ 110.664173964000042, -6.506412308999927 ], [ 110.664178846000084, -6.505488113999945 ] ] } },
{ "type": "Feature", "properties": { "MEAN_SIG_WAVEHEIGHT": 0.327026, "TIDAL_RANGE": 0.97765, "ERODIBILITY": "Medium", "river_label": "moderate river discharge", "sinuosity_label": "sinuous", "slope_label": "sloping", "turbid_label": "moderately turbid", "CSU_ID": 64242, "id": "fqc7" }, "geometry": { "type": "LineString", "coordinates": [ [ 110.664178846000084, -6.505488113999945 ], [ 110.664181263000046, -6.505030565999959 ], [ 110.664181834000033, -6.504706559999931 ], [ 110.664179897000054, -6.504546757999947 ], [ 110.664177573000075, -6.504468204999966 ], [ 110.664173777000087, -6.50439111299994 ], [ 110.664167891000034, -6.50431610499993 ], [ 110.664159081000037, -6.504244007999944 ], [ 110.664146240000036, -6.504175925999959 ], [ 110.664127925000059, -6.504113298999926 ], [ 110.664102274000072, -6.504057984999974 ], [ 110.664074455000048, -6.504018310999925 ], [ 110.664012206000052, -6.503945500999976 ], [ 110.663984344000085, -6.503905786999951 ], [ 110.663959211000076, -6.503852035999955 ], [ 110.663941021000085, -6.503791276999948 ], [ 110.66392804600008, -6.503725233999944 ], [ 110.663918930000079, -6.503655250999941 ], [ 110.66391262500008, -6.503582363999953 ], [ 110.663908335000087, -6.503507358999968 ], [ 110.663903548000064, -6.503353215999937 ], [ 110.663900453000053, -6.503037337999956 ], [ 110.663900817000069, -6.502720608999937 ], [ 110.663904143000082, -6.502565502999971 ], [ 110.663907724000069, -6.502489956999966 ], [ 110.663913387000036, -6.502416552999932 ], [ 110.663922010000078, -6.502346159999945 ], [ 110.663934759000085, -6.502279939999937 ], [ 110.663953166000056, -6.502219411999931 ], [ 110.663979213000061, -6.50216654999997 ], [ 110.664008677000083, -6.502128394999943 ], [ 110.664200530000073, -6.501914432999968 ], [ 110.664504957000077, -6.501608105999935 ], [ 110.664756188000069, -6.501388927999926 ], [ 110.664793375000045, -6.501361544999952 ], [ 110.664842982000039, -6.501339328999961 ], [ 110.665718763000086, -6.501058741999941 ], [ 110.665782828000033, -6.501042894999955 ], [ 110.665852100000052, -6.501032184999929 ], [ 110.665925067000046, -6.501025159999926 ], [ 110.666000568000072, -6.501020696999944 ], [ 110.666077708000046, -6.501017917999945 ], [ 110.66638985700007, -6.501010920999931 ], [ 110.666466014000036, -6.501007387999948 ], [ 110.666540160000068, -6.501001864999978 ], [ 110.66661143500005, -6.500993475999962 ], [ 110.666678746000059, -6.500981119999949 ], [ 110.666740705000052, -6.500963388999935 ], [ 110.666795541000056, -6.500938504999965 ], [ 110.666835749000086, -6.500910919999967 ], [ 110.666909518000068, -6.500848990999941 ], [ 110.666949658000078, -6.500821218999931 ], [ 110.667004357000053, -6.500795963999963 ], [ 110.667066111000054, -6.500777716999949 ], [ 110.667133159000059, -6.500764728999968 ], [ 110.667204105000053, -6.500755649999974 ], [ 110.667277862000049, -6.500749456999927 ], [ 110.667353581000043, -6.500745399999971 ], [ 110.667430582000065, -6.500742959999968 ], [ 110.667586268000036, -6.500741780999931 ], [ 110.667741011000089, -6.500745266999957 ], [ 110.667816747000074, -6.500749266999946 ], [ 110.667890526000065, -6.500755399999946 ], [ 110.667961496000089, -6.500764413999946 ], [ 110.668028569000057, -6.500777333999963 ], [ 110.668976945000054, -6.501031607999948 ], [ 110.669057387000066, -6.501056674999973 ] ] } },
{ "type": "Feature", "properties": { "MEAN_SIG_WAVEHEIGHT": 0.327026, "TIDAL_RANGE": 0.97765, "ERODIBILITY": "Medium", "river_label": "moderate river discharge", "sinuosity_label": "sinuous", "slope_label": "sloping", "turbid_label": "moderately turbid", "CSU_ID": 64242, "id": "fqc8" }, "geometry": { "type": "LineString", "coordinates": [ [ 110.669057387000066, -6.501056674999973 ], [ 110.669263251000075, -6.501120823999941 ], [ 110.669561657000088, -6.501267143999939 ], [ 110.670236650000049, -6.501504605999969 ], [ 110.670296514000086, -6.501521743999945 ], [ 110.670361355000068, -6.501533903999928 ], [ 110.670429802000058, -6.501542459999939 ], [ 110.670500734000086, -6.501548527999944 ], [ 110.670792224000081, -6.501565058999972 ], [ 110.670863181000072, -6.501571112999954 ], [ 110.670931663000033, -6.501579645999925 ], [ 110.670996552000076, -6.501591774999952 ], [ 110.671056476000047, -6.501608872999952 ], [ 110.67173391700004, -6.501845413999945 ], [ 110.671959145000073, -6.501932215999943 ], [ 110.672177718000057, -6.502074689999972 ], [ 110.672612917000038, -6.502301356999965 ], [ 110.672663503000081, -6.502323628999932 ], [ 110.672719200000074, -6.502337261999969 ], [ 110.672777533000044, -6.502343174999965 ], [ 110.67283612500006, -6.502341645999934 ], [ 110.672892557000068, -6.502332300999967 ], [ 110.672944222000069, -6.502314086999945 ], [ 110.672988157000077, -6.502285213999926 ], [ 110.673022152000044, -6.502244340999937 ], [ 110.673048418000064, -6.502194313999951 ], [ 110.673276301000044, -6.501757797999971 ], [ 110.673300786000084, -6.501701105999928 ], [ 110.673317380000071, -6.501637481999978 ], [ 110.673327788000051, -6.501569097999948 ], [ 110.673333182000079, -6.501497768999968 ], [ 110.673334242000067, -6.501425078999944 ], [ 110.673331211000061, -6.501352494999935 ], [ 110.673323899000081, -6.501281478999942 ], [ 110.673311691000038, -6.501213609999979 ], [ 110.673293523000041, -6.501150693999932 ], [ 110.673267844000065, -6.501094888999944 ], [ 110.673151239000049, -6.500552653999932 ], [ 110.67308821000006, -6.499606841999935 ], [ 110.673086396000087, -6.499534594999943 ], [ 110.673088821000078, -6.499462302999973 ], [ 110.673095701000079, -6.499391429999946 ], [ 110.673107667000068, -6.499323562999962 ], [ 110.673125789000039, -6.499260510999932 ], [ 110.673151621000045, -6.499204429999963 ], [ 110.673179674000039, -6.499164051999969 ], [ 110.673241911000048, -6.499090322999962 ], [ 110.673269136000044, -6.499050771999975 ], [ 110.673292164000088, -6.498999298999934 ], [ 110.673307004000037, -6.498942521999936 ], [ 110.673314633000075, -6.498882722999952 ], [ 110.673315465000087, -6.49882205199998 ], [ 110.673309354000082, -6.498762657999976 ], [ 110.673295568000071, -6.498706809999931 ], [ 110.673272753000049, -6.49865704299998 ], [ 110.673244650000072, -6.498619940999959 ], [ 110.673076516000037, -6.498453318999964 ], [ 110.673043197000084, -6.498420327999952 ], [ 110.673005742000043, -6.498392529999933 ], [ 110.672955546000082, -6.498370074999968 ], [ 110.672899233000066, -6.498356659999956 ], [ 110.672839336000038, -6.498350928999969 ], [ 110.67277813700008, -6.498352141999931 ], [ 110.67271779500004, -6.498360133999938 ], [ 110.672660483000072, -6.498375284999952 ], [ 110.672608528000069, -6.498398528999928 ], [ 110.672568651000063, -6.498425808999968 ], [ 110.672494819000065, -6.498487480999927 ], [ 110.672473057000047, -6.498502310999925 ] ] } },
{ "type": "Feature", "properties": { "MEAN_SIG_WAVEHEIGHT": 0.327026, "TIDAL_RANGE": 0.972026, "ERODIBILITY": "Medium", "river_label": "moderate river discharge", "sinuosity_label": "sinuous", "slope_label": "sloping", "turbid_label": "moderately turbid", "CSU_ID": 64242, "id": "fqc9" }, "geometry": { "type": "LineString", "coordinates": [ [ 110.67219424700005, -6.535789032999958 ], [ 110.67219510700005, -6.535789033999947 ], [ 110.672514041000056, -6.535786085999973 ], [ 110.672668314000077, -6.535779908999928 ], [ 110.672742653000057, -6.535774112999945 ], [ 110.672814114000062, -6.53576549099995 ], [ 110.67288162400007, -6.535752960999957 ], [ 110.672943778000047, -6.535735107999926 ], [ 110.67299876800007, -6.535710122999944 ], [ 110.673038762000033, -6.535682655999949 ], [ 110.673336070000062, -6.535534998999935 ], [ 110.673958190000064, -6.535321581999938 ], [ 110.674358243000086, -6.535236538999925 ], [ 110.674654331000056, -6.535141856999928 ], [ 110.675049423000075, -6.534949837999932 ], [ 110.675324542000055, -6.534734089999972 ], [ 110.675678865000066, -6.534462799999972 ], [ 110.676131920000046, -6.534193995999942 ], [ 110.676720129000046, -6.533848596999974 ], [ 110.676769447000083, -6.533820918999936 ], [ 110.676806371000055, -6.53379046699996 ], [ 110.677019357000063, -6.533599210999967 ], [ 110.677087039000071, -6.533532147999949 ], [ 110.678367035000065, -6.532251946999963 ], [ 110.678434056000071, -6.532184217999941 ], [ 110.678625048000072, -6.531970967999939 ], [ 110.678655429000059, -6.531933975999948 ], [ 110.67937248700008, -6.530945927999937 ] ] } },
{ "type": "Feature", "properties": { "MEAN_SIG_WAVEHEIGHT": 0.327026, "TIDAL_RANGE": 0.972026, "ERODIBILITY": "Medium", "river_label": "moderate river discharge", "sinuosity_label": "sinuous", "slope_label": "sloping", "turbid_label": "moderately turbid", "CSU_ID": 64242, "id": "fqc10" }, "geometry": { "type": "LineString", "coordinates": [ [ 110.67937248700008, -6.530945927999937 ], [ 110.679513516000043, -6.530751601999953 ], [ 110.679972388000067, -6.530084373999955 ], [ 110.68024642000006, -6.529549906999932 ], [ 110.680591538000044, -6.528864848999945 ], [ 110.68080683800008, -6.528424032999965 ], [ 110.680831487000034, -6.528367402999947 ], [ 110.680849119000072, -6.528303682999933 ], [ 110.680861972000059, -6.52823510199994 ], [ 110.680890499000043, -6.528018890999931 ], [ 110.680902569000068, -6.527949298999943 ], [ 110.680919223000046, -6.527884331999928 ], [ 110.680942981000044, -6.527826604999973 ], [ 110.680976964000081, -6.527779388999932 ], [ 110.681023628000048, -6.527745365999976 ], [ 110.681080517000055, -6.52772239899997 ], [ 110.681144509000035, -6.52770783699998 ], [ 110.68121308700006, -6.527699813999959 ], [ 110.681284155000071, -6.527697142999955 ], [ 110.681355893000045, -6.52769922899995 ], [ 110.681426584000064, -6.527706027999955 ], [ 110.68149449200007, -6.527718014999948 ], [ 110.681557724000072, -6.527736197999957 ], [ 110.681614099000058, -6.527762141999972 ], [ 110.681654834000085, -6.527790397999979 ], [ 110.681957690000047, -6.52794417399997 ], [ 110.68264832400007, -6.528194812999971 ], [ 110.68271244500005, -6.528212645999929 ], [ 110.682781228000067, -6.528224390999981 ], [ 110.682852683000078, -6.528231149999954 ], [ 110.682924925000066, -6.528233543999931 ], [ 110.682996025000079, -6.528231729999959 ], [ 110.683063830000037, -6.528225407999969 ], [ 110.683125789000087, -6.528213793999953 ], [ 110.68317873400008, -6.528195576999963 ], [ 110.683218647000047, -6.528168855999979 ], [ 110.683239127000036, -6.528139090999957 ], [ 110.683248388000038, -6.528104821999932 ], [ 110.683247161000054, -6.528068979999944 ], [ 110.683235549000074, -6.528034368999954 ], [ 110.683213905000059, -6.528002933999971 ], [ 110.683034168000063, -6.52779583399996 ], [ 110.683001825000076, -6.52775928799997 ], [ 110.682965007000064, -6.52772695699997 ], [ 110.682743039000059, -6.527534556999967 ], [ 110.682703569000068, -6.527505421999933 ], [ 110.682650442000067, -6.527480317999959 ], [ 110.682590020000077, -6.527462678999939 ], [ 110.682524215000058, -6.527450574999932 ], [ 110.682454545000041, -6.527442466999958 ], [ 110.682382224000037, -6.527437118999956 ], [ 110.682084717000066, -6.527424663999966 ], [ 110.682012383000085, -6.527419594999969 ], [ 110.681942725000056, -6.527411857999937 ], [ 110.681876995000039, -6.527400184999976 ], [ 110.681816757000036, -6.527382992999947 ], [ 110.681764004000058, -6.527358281999966 ], [ 110.681725094000058, -6.52732937299993 ], [ 110.681518873000073, -6.527127617999952 ], [ 110.681489054000053, -6.527089287999956 ], [ 110.681463294000082, -6.527037160999953 ], [ 110.68144510500008, -6.526977531999933 ], [ 110.681432596000036, -6.526912398999968 ], [ 110.68142434300006, -6.526843343999928 ], [ 110.681419314000038, -6.526771628999938 ], [ 110.68141681600008, -6.526698281999927 ], [ 110.681416438000042, -6.526624175999928 ], [ 110.681418036000082, -6.526550097999973 ], [ 110.68142170200008, -6.526476827999943 ], [ 110.681427787000075, -6.52640519299996 ], [ 110.681435561000058, -6.526346323999974 ] ] } },
{ "type": "Feature", "properties": { "MEAN_SIG_WAVEHEIGHT": 0.327026, "TIDAL_RANGE": 0.972026, "ERODIBILITY": "Medium", "river_label": "moderate river discharge", "sinuosity_label": "sinuous", "slope_label": "sloping", "turbid_label": "moderately turbid", "CSU_ID": 64242, "id": "fqc11" }, "geometry": { "type": "LineString", "coordinates": [ [ 110.681435561000058, -6.526346323999974 ], [ 110.681436906000044, -6.52633614399997 ], [ 110.68144996500007, -6.526270820999969 ], [ 110.681468220000056, -6.526210628999934 ], [ 110.681493322000051, -6.526157316999956 ], [ 110.681946335000077, -6.525280831999964 ], [ 110.682215513000074, -6.524471742999935 ], [ 110.682496224000033, -6.523532015999933 ], [ 110.68258144400005, -6.52292424999996 ], [ 110.682798287000082, -6.522024615999953 ], [ 110.682941489000086, -6.521734700999957 ], [ 110.682968979000066, -6.521694816999968 ], [ 110.68299427900007, -6.52163926999998 ], [ 110.683012296000072, -6.521576437999954 ], [ 110.683024884000076, -6.521508177999976 ], [ 110.683033485000067, -6.521435929999939 ], [ 110.683039199000063, -6.521360795999954 ], [ 110.683045071000038, -6.521204970999975 ], [ 110.683046861000037, -6.521045064999953 ], [ 110.683043454000085, -6.519748083999957 ], [ 110.683043309000084, -6.517705949999936 ] ] } },
{ "type": "Feature", "properties": { "MEAN_SIG_WAVEHEIGHT": 0.327026, "TIDAL_RANGE": 0.972026, "ERODIBILITY": "Medium", "river_label": "moderate river discharge", "sinuosity_label": "sinuous", "slope_label": "flat", "turbid_label": "moderately turbid", "CSU_ID": 63738, "id": "fqc12" }, "geometry": { "type": "LineString", "coordinates": [ [ 110.683043309000084, -6.517705949999936 ], [ 110.683043253000051, -6.516917930999966 ], [ 110.683044341000084, -6.516108359999976 ], [ 110.683049267000058, -6.515133252999931 ], [ 110.683046815000068, -6.514974007999967 ], [ 110.683043642000086, -6.514896333999957 ], [ 110.683038334000059, -6.514820790999977 ], [ 110.683029975000068, -6.514748300999941 ], [ 110.683017332000077, -6.514680096999939 ], [ 110.682998771000086, -6.514617808999958 ], [ 110.682972160000077, -6.514563572999975 ], [ 110.682942718000049, -6.514525640999977 ], [ 110.682718669000053, -6.514278073999947 ], [ 110.681906153000057, -6.513473622999925 ], [ 110.681656802000077, -6.513251357999934 ], [ 110.681619787000045, -6.513220998999941 ], [ 110.681570349000083, -6.513193437999973 ], [ 110.681514990000039, -6.513171799999952 ], [ 110.681337573000064, -6.513118218999978 ], [ 110.681282237000062, -6.513096554999947 ], [ 110.681232837000039, -6.513068956999973 ], [ 110.681195865000063, -6.51303855499998 ], [ 110.680983075000086, -6.512847091999959 ], [ 110.680915665000043, -6.512779747999957 ], [ 110.68071586700006, -6.512575248999951 ], [ 110.680591625000034, -6.512429900999962 ], [ 110.68056017300006, -6.51239394299995 ], [ 110.680310958000064, -6.512170961999971 ], [ 110.680272929000068, -6.512141462999978 ], [ 110.680218808000063, -6.512114509999947 ], [ 110.679408427000055, -6.511840915999926 ], [ 110.679345913000077, -6.511823784999933 ], [ 110.679278661000069, -6.511812729999974 ], [ 110.679208447000065, -6.511806632999935 ], [ 110.679136827000036, -6.511804845999961 ], [ 110.67906524600005, -6.511807157999954 ], [ 110.678995150000048, -6.511813781999933 ], [ 110.678928089000067, -6.511825373999955 ], [ 110.678865827000038, -6.511843042999942 ], [ 110.67881045200005, -6.511868417999949 ], [ 110.678770519000068, -6.511896167999964 ], [ 110.678696880000075, -6.511958437999965 ], [ 110.678656684000089, -6.511986304999937 ], [ 110.67860187000008, -6.512011571999949 ], [ 110.678539970000088, -6.512029715999972 ], [ 110.678472773000067, -6.512042498999961 ], [ 110.678401686000086, -6.51205131699993 ], [ 110.67832780100008, -6.512057255999935 ], [ 110.67825197500008, -6.512061179999932 ], [ 110.678251441000043, -6.512061192999965 ] ] } },
{ "type": "Feature", "properties": { "MEAN_SIG_WAVEHEIGHT": 0.611489, "TIDAL_RANGE": 0.97765, "ERODIBILITY": "Medium", "river_label": "moderate river discharge", "sinuosity_label": "straight", "slope_label": "sloping", "turbid_label": "clear", "CSU_ID": 66302, "id": "fqc13" }, "geometry": { "type": "LineString", "coordinates": [ [ 110.679134894000072, -6.495900439999957 ], [ 110.680982536000045, -6.495893986999931 ], [ 110.681139790000088, -6.495895979999943 ], [ 110.681217065000055, -6.495898326999964 ], [ 110.681292885000062, -6.495902129999934 ], [ 110.681366647000061, -6.495907993999936 ], [ 110.681437538000068, -6.495916725999962 ], [ 110.68150449500007, -6.495929391999937 ], [ 110.681566127000053, -6.49594738199994 ], [ 110.681620656000064, -6.495972477999942 ], [ 110.681660436000072, -6.496000070999969 ], [ 110.681733497000039, -6.49606175599996 ], [ 110.68177335300004, -6.496089274999974 ], [ 110.681827762000069, -6.496114128999977 ], [ 110.681889276000049, -6.496131877999971 ], [ 110.681956120000052, -6.496144297999933 ], [ 110.682026896000082, -6.496152785999925 ], [ 110.682100508000076, -6.496158434999927 ], [ 110.682176101000039, -6.496162104999939 ], [ 110.682486137000069, -6.496169121999969 ], [ 110.682638713000074, -6.496175072999961 ], [ 110.682712400000071, -6.49618064799995 ], [ 110.682783273000041, -6.496189037999955 ], [ 110.68285024100004, -6.496201333999977 ], [ 110.682911910000087, -6.496218926999973 ], [ 110.68296650700006, -6.496243593999964 ], [ 110.683006552000052, -6.49627092299994 ], [ 110.683080085000086, -6.496332136999968 ], [ 110.683120150000036, -6.496359444999939 ], [ 110.683174792000045, -6.496384066999951 ], [ 110.683236525000041, -6.496401595999941 ], [ 110.683303585000033, -6.496413799999971 ], [ 110.683374576000062, -6.496422071999973 ], [ 110.683448414000054, -6.496427495999967 ], [ 110.683601402000079, -6.496433036999974 ], [ 110.683912853000038, -6.496438636999926 ], [ 110.683988944000077, -6.496441810999954 ], [ 110.684063106000053, -6.496446909999975 ], [ 110.68413447000006, -6.496454808999943 ], [ 110.684201916000063, -6.496466626999961 ], [ 110.684264001000088, -6.496483803999979 ], [ 110.684318882000071, -6.496508184999925 ], [ 110.684808609000072, -6.49674994399993 ], [ 110.684857526000087, -6.496778025999959 ], [ 110.684894093000082, -6.496808833999978 ], [ 110.685141142000077, -6.497033399999964 ], [ 110.686219426000036, -6.498111079999944 ], [ 110.686250923000046, -6.498146958999939 ], [ 110.686439534000044, -6.498362614999962 ], [ 110.686468396000066, -6.498401134999938 ], [ 110.686494474000085, -6.49845591899998 ], [ 110.686512833000052, -6.49851842399994 ], [ 110.686525845000062, -6.498586281999962 ], [ 110.68653548900005, -6.498657510999976 ], [ 110.686551431000055, -6.498803339999938 ], [ 110.686560931000088, -6.498874739999962 ], [ 110.686573732000056, -6.498942851999971 ], [ 110.686591864000036, -6.499005648999969 ], [ 110.686617777000038, -6.499060683999971 ], [ 110.686646637000081, -6.49909930299998 ], [ 110.686672502000079, -6.499125910999965 ] ] } },
{ "type": "Feature", "properties": { "MEAN_SIG_WAVEHEIGHT": 0.611489, "TIDAL_RANGE": 0.97765, "ERODIBILITY": "Medium", "river_label": "moderate river discharge", "sinuosity_label": "straight", "slope_label": "sloping", "turbid_label": "clear", "CSU_ID": 66302, "id": "fqc14" }, "geometry": { "type": "LineString", "coordinates": [ [ 110.672473057000047, -6.498502310999925 ], [ 110.672454875000085, -6.498514701999966 ], [ 110.672402792000071, -6.498537832999943 ], [ 110.672345303000043, -6.498552828999948 ], [ 110.672284737000041, -6.498560629999929 ], [ 110.672223290000034, -6.498561638999945 ], [ 110.672163142000045, -6.498555709999948 ], [ 110.672106605000067, -6.498542139999927 ], [ 110.672056264000048, -6.49851962799994 ], [ 110.67201880600004, -6.498491917999957 ], [ 110.671825656000067, -6.498301655999967 ], [ 110.671802160000084, -6.498269450999942 ], [ 110.671788100000072, -6.49823306299993 ], [ 110.671783492000088, -6.498194192999961 ], [ 110.671788031000062, -6.498155269999927 ], [ 110.671801953000056, -6.498118703999978 ], [ 110.671825172000069, -6.498086139999941 ], [ 110.672007300000075, -6.49787996699996 ], [ 110.672039590000054, -6.497843971999941 ], [ 110.672294602000079, -6.497619181999937 ], [ 110.672332183000037, -6.497588513999972 ], [ 110.672382172000084, -6.497560628999963 ], [ 110.673416506000081, -6.497050702999957 ], [ 110.673472012000047, -6.497025347999966 ], [ 110.673534545000052, -6.497007022999981 ], [ 110.673601942000062, -6.496993564999968 ], [ 110.673672391000082, -6.496983157999978 ], [ 110.674072549000073, -6.496898211999962 ], [ 110.674697521000041, -6.496687744999974 ], [ 110.674922603000084, -6.496602909999979 ], [ 110.675317748000055, -6.496410935999961 ], [ 110.675461929000051, -6.49633374299998 ], [ 110.675676725000073, -6.496192400999973 ], [ 110.676071597000089, -6.49600001899995 ], [ 110.676296257000047, -6.495914513999935 ], [ 110.676973886000042, -6.495673753999938 ], [ 110.677035818000036, -6.49565574899998 ], [ 110.677103038000041, -6.495643005999966 ], [ 110.677174147000073, -6.495634159999952 ], [ 110.677248045000056, -6.495628188999945 ], [ 110.677323878000038, -6.495624339999949 ], [ 110.677400965000061, -6.495622094999931 ], [ 110.677556732000085, -6.495621278999977 ], [ 110.677711428000066, -6.495625129999951 ], [ 110.677787088000059, -6.495629323999935 ], [ 110.677860756000086, -6.495635665999941 ], [ 110.67793157300008, -6.495644912999978 ], [ 110.677998454000033, -6.495658089999949 ], [ 110.678059997000048, -6.495676556999967 ], [ 110.678114428000072, -6.495702066999968 ], [ 110.678154301000063, -6.495730087999959 ], [ 110.678227387000049, -6.495792614999971 ], [ 110.678267176000077, -6.495820554999966 ], [ 110.678321713000059, -6.495846 ], [ 110.678383352000083, -6.495864282999946 ], [ 110.678450315000077, -6.495877193999945 ], [ 110.678521210000042, -6.495886126999949 ], [ 110.678594975000067, -6.495892155999968 ], [ 110.678748075000044, -6.495898548999946 ], [ 110.678984752000076, -6.495900963999929 ], [ 110.679134894000072, -6.495900439999957 ] ] } },
{ "type": "Feature", "properties": { "MEAN_SIG_WAVEHEIGHT": 0.611489, "TIDAL_RANGE": 0.97765, "ERODIBILITY": "Medium", "river_label": "moderate river discharge", "sinuosity_label": "straight", "slope_label": "sloping", "turbid_label": "clear", "CSU_ID": 66302, "id": "fqc15" }, "geometry": { "type": "LineString", "coordinates": [ [ 110.686672502000079, -6.499125910999965 ], [ 110.68684647300006, -6.499304881999933 ], [ 110.686884429000088, -6.499334628999975 ], [ 110.686938975000089, -6.499361394999937 ], [ 110.687001777000035, -6.499379989999966 ], [ 110.687070623000068, -6.499392628999942 ], [ 110.687143832000061, -6.499400996999952 ], [ 110.687220136000064, -6.499406359999966 ], [ 110.687298591000058, -6.499409642999979 ], [ 110.687378499000033, -6.499411516999942 ], [ 110.687540710000064, -6.499412724999956 ], [ 110.687785062000046, -6.499410824999927 ], [ 110.687945238000054, -6.499406440999962 ], [ 110.688023349000048, -6.49940242699995 ], [ 110.688099340000065, -6.499396435999927 ], [ 110.68817236600006, -6.499387622999961 ], [ 110.688241291000054, -6.499374848999935 ], [ 110.688304635000065, -6.499356623999972 ], [ 110.688360469000088, -6.499331006999967 ], [ 110.689927056000045, -6.498546500999964 ], [ 110.689976296000054, -6.498518742999977 ], [ 110.690013126000053, -6.498488197999961 ], [ 110.690261599000053, -6.49826505599998 ], [ 110.690802850000068, -6.497728327999937 ], [ 110.691025051000054, -6.497478909999927 ], [ 110.691054181000084, -6.497440665999932 ], [ 110.691079390000084, -6.497388875999945 ], [ 110.691097255000045, -6.497329739999941 ], [ 110.691367188000072, -6.496244094999952 ], [ 110.69137975700005, -6.496175708999942 ], [ 110.691388369000038, -6.49610333499993 ], [ 110.691394120000041, -6.496028070999955 ], [ 110.691397841000082, -6.495950738999966 ], [ 110.691400155000053, -6.495871948999934 ], [ 110.691402249000078, -6.495711655999969 ], [ 110.691404465000062, -6.494733217999965 ], [ 110.691403320000063, -6.49457212599998 ], [ 110.691401492000068, -6.494492903999969 ], [ 110.691398217000085, -6.494415165999953 ], [ 110.691392819000043, -6.494339581999952 ], [ 110.691384375000041, -6.494267069999978 ], [ 110.691371649000075, -6.494198858999937 ], [ 110.691353006000043, -6.494136584999978 ], [ 110.691326307000054, -6.494082380999942 ], [ 110.691296785000077, -6.494044491999944 ], [ 110.691071759000067, -6.493797769999958 ], [ 110.691050908000079, -6.49377991199998 ] ] } },
{ "type": "Feature", "properties": { "MEAN_SIG_WAVEHEIGHT": 0.611489, "TIDAL_RANGE": 0.97765, "ERODIBILITY": "Medium", "river_label": "moderate river discharge", "sinuosity_label": "straight", "slope_label": "sloping", "turbid_label": "clear", "CSU_ID": 66302, "id": "fqc16" }, "geometry": { "type": "LineString", "coordinates": [ [ 110.691050908000079, -6.49377991199998 ], [ 110.691035462000059, -6.493766684999969 ], [ 110.690888752000035, -6.493643880999969 ], [ 110.690645501000063, -6.493415504999973 ], [ 110.690613426000084, -6.493380204999937 ], [ 110.690421258000072, -6.493168131999937 ], [ 110.690391943000066, -6.493130071999929 ], [ 110.690365542000052, -6.493075623999971 ], [ 110.690347254000073, -6.493013062999978 ], [ 110.690334949000089, -6.49294451999998 ], [ 110.690326995000078, -6.492871625999953 ], [ 110.690322157000082, -6.492795615999967 ], [ 110.690318369000067, -6.492637705999925 ], [ 110.690320328000041, -6.492150656999968 ], [ 110.690316442000039, -6.49199284599996 ], [ 110.690311531000077, -6.49191690899994 ], [ 110.690303483000037, -6.491844106999963 ], [ 110.690291065000054, -6.491775677999954 ], [ 110.690272638000067, -6.491713256999958 ], [ 110.690246067000089, -6.491658978999965 ], [ 110.690216589000045, -6.491621083999974 ], [ 110.690022943000088, -6.491410483999971 ], [ 110.689990569000088, -6.491375483999946 ], [ 110.689954035000085, -6.49134464399998 ], [ 110.689876042000037, -6.491287887999931 ], [ 110.68983948500005, -6.491257068999971 ], [ 110.689807076000079, -6.491222102999927 ], [ 110.689612810000085, -6.491012099999978 ], [ 110.689583141000071, -6.490974386999937 ], [ 110.689556498000059, -6.490920896999967 ], [ 110.689537819000066, -6.490859438999962 ], [ 110.689525016000061, -6.490792101999943 ], [ 110.689516480000066, -6.49072049199998 ], [ 110.68951099800006, -6.490645819999941 ], [ 110.689507663000086, -6.490568993999943 ], [ 110.689504930000055, -6.490411367999968 ], [ 110.689505747000055, -6.488718197999958 ], [ 110.689508490000037, -6.488560570999937 ], [ 110.689511708000055, -6.488483622999979 ], [ 110.689516926000067, -6.488408685999957 ], [ 110.689524983000069, -6.488336592999929 ], [ 110.689536989000032, -6.488268457999936 ], [ 110.689554416000078, -6.488205745999949 ], [ 110.68957916100004, -6.488150356999938 ], [ 110.689833148000048, -6.487672811999971 ], [ 110.689867242000048, -6.487629908999963 ], [ 110.689911291000044, -6.487596957999926 ], [ 110.689963049000085, -6.48757171699998 ], [ 110.690019513000038, -6.487551181999947 ], [ 110.690136019000079, -6.487513689999957 ], [ 110.690191044000073, -6.487491715999965 ], [ 110.690240426000059, -6.487464097999975 ], [ 110.690277537000043, -6.487433836999969 ], [ 110.690492236000068, -6.487244293999936 ], [ 110.690560367000046, -6.487177677999966 ], [ 110.690577372324199, -6.487160659461623 ] ] } }
]
}
