{
"type": "FeatureCollection",
"name": "Shoreff_Jawa-16",
"crs": { "type": "name", "properties": { "name": "urn:ogc:def:crs:EPSG::9489" } },
"features": [
{ "type": "Feature", "properties": { "fid": 1 }, "geometry": { "type": "LineString", "coordinates": [ [ 462798.715637741493993, 9276689.666967667639256 ], [ 462941.238754577119835, 9276832.883927818387747 ], [ 462999.073267536819912, 9276927.245514405891299 ], [ 463017.336796801886521, 9276975.948268074542284 ], [ 463032.556405504699796, 9277000.299645280465484 ], [ 463020.3807149695931, 9277039.870630998164415 ], [ 463023.424632587295491, 9277112.924760032445192 ], [ 463038.644228407880291, 9277350.350679697468877 ], [ 463026.468538240180351, 9277383.833821356296539 ], [ 463026.468530142214149, 9277517.766390904784203 ], [ 463026.468523516145069, 9277627.347584173083305 ], [ 463005.161067795590498, 9277651.698959164321423 ], [ 462989.941456518427003, 9277669.962490456178784 ], [ 462977.765763591218274, 9277749.104462634772062 ], [ 462965.59007471887162, 9277761.280150039121509 ], [ 462935.150852159713395, 9277797.807212622836232 ], [ 462935.150851241021883, 9277813.026822797954082 ], [ 462948.433268080058042, 9277833.591255208477378 ], [ 462967.077933917520568, 9277845.456044144928455 ], [ 462967.07793320104247, 9277857.320831958204508 ], [ 462972.162841851299163, 9277864.100711014121771 ], [ 462999.282357461284846, 9277853.930894527584314 ], [ 463002.672296013799496, 9277867.490652231499553 ], [ 462995.89241685468005, 9277874.270530568435788 ], [ 463012.842111265636049, 9277914.949804088100791 ], [ 463014.537080954469275, 9277914.949804192408919 ], [ 463016.232050436316058, 9277918.339743666350842 ], [ 463031.486778438847978, 9277904.779987094923854 ], [ 463124.710112969682086, 9277875.965508045628667 ], [ 463160.304478038917296, 9277848.845995202660561 ], [ 463348.446114226186182, 9277833.591279394924641 ], [ 463362.005871929926798, 9277830.201340841129422 ], [ 463355.225994612555951, 9277806.47176481038332 ], [ 463355.225994585838635, 9277806.471764819696546 ], [ 463351.836056059633847, 9277792.912007106468081 ], [ 463362.005875310394913, 9277774.267341163009405 ], [ 463362.005876232811715, 9277759.012613978236914 ], [ 463362.005876206094399, 9277759.012613985687494 ], [ 463390.820365526422393, 9277682.738979794085026 ], [ 463395.905275305209216, 9277670.874192293733358 ], [ 463399.29521447425941, 9277674.264131871983409 ], [ 463421.329822352679912, 9277642.059709146618843 ], [ 463453.534247125906404, 9277630.194923285394907 ], [ 463467.094004828541074, 9277626.804984727874398 ], [ 463499.298430725873914, 9277596.295532306656241 ], [ 463497.603462165687233, 9277577.650865644216537 ], [ 463524.722978493664414, 9277555.616261349990964 ], [ 463553.537463786487933, 9277545.446444971486926 ], [ 463555.232434091623873, 9277535.276626948267221 ], [ 463589.131827932200395, 9277533.581659313291311 ], [ 463589.131827905483078, 9277533.581659320741892 ], [ 463617.946312922635116, 9277528.496751995757222 ], [ 463617.946312895859592, 9277528.496752003207803 ], [ 463622.550692018761765, 9277525.578463757410645 ], [ 463629.834642504807562, 9277525.578464200720191 ], [ 463633.996900558529887, 9277515.172820895910263 ], [ 463638.159158544440288, 9277505.807741949334741 ], [ 463743.256158613949083, 9277502.686055241152644 ], [ 463763.026881236000918, 9277504.76718514598906 ], [ 463815.055098746845033, 9277508.929445713758469 ], [ 463846.272028899635188, 9277517.253962446004152 ], [ 463887.894602668646257, 9277524.537915449589491 ], [ 463930.55774041719269, 9277538.065254649147391 ], [ 463982.585957300441805, 9277552.633158769458532 ], [ 464035.654737905482762, 9277577.606706511229277 ], [ 464035.654737878765445, 9277577.606706520542502 ], [ 464087.682954156480264, 9277602.580254182219505 ], [ 464133.467784153006505, 9277629.63493019156158 ], [ 464206.307286121882498, 9277677.500894943252206 ], [ 464285.390173409599811, 9277738.894196690991521 ], [ 464349.905160161782987, 9277793.003547072410583 ], [ 464404.014502857229672, 9277855.437411664053798 ], [ 464404.014502829115372, 9277855.437411671504378 ], [ 464446.677638905181084, 9277897.059988457709551 ], [ 464490.38133830280276, 9277955.331594999879599 ], [ 464534.085037254728377, 9278020.887152031064034 ], [ 464581.95099350536475, 9278088.523838024586439 ], [ 464623.573563563462812, 9278157.20108799263835 ], [ 464677.682903927110601, 9278258.135833732783794 ], [ 464687.047982495743781, 9278268.541477853432298 ], [ 464684.966852840152569, 9278284.149943059310317 ], [ 464684.966852813435253, 9278284.149943066760898 ], [ 464727.629986875108443, 9278359.070579219609499 ], [ 464748.441271145769861, 9278405.895976468920708 ], [ 464748.441271119052544, 9278405.895976476371288 ], [ 464784.861014954512939, 9278548.453295353800058 ], [ 464810.8751212565694, 9278591.116435496136546 ], [ 464831.686404710402712, 9278651.469169363379478 ], [ 464856.659944265440572, 9278733.673754943534732 ], [ 464871.227841585525312, 9278794.026488432660699 ], [ 464911.809842563117854, 9278940.746064988896251 ], [ 464911.809842536400538, 9278940.746064996346831 ], [ 464937.823943514609709, 9279071.857175333425403 ], [ 464958.635218028677627, 9279279.97004765830934 ], [ 464958.635210853361059, 9279398.594384163618088 ], [ 464958.635203234211076, 9279524.502671156078577 ], [ 464950.310683359624818, 9279607.747819077223539 ], [ 464936.783343279152177, 9279664.978857802227139 ], [ 464936.783343250979669, 9279664.978857811540365 ], [ 464924.296568499412388, 9279706.60143125988543 ], [ 464911.809794977074489, 9279727.41271761059761 ], [ 464892.039068450219929, 9279789.846577735617757 ], [ 464874.349471770459786, 9279833.550279585644603 ], [ 464856.659874204953667, 9279891.821882413700223 ], [ 464855.619308904453646, 9279907.430347682908177 ], [ 464837.929712349723559, 9279949.052920822054148 ], [ 464817.118423671578057, 9279975.067028446123004 ], [ 464817.118423644860741, 9279975.06702845543623 ], [ 464803.591086108994205, 9279990.675492957234383 ], [ 464803.591086083673872, 9279990.675492964684963 ], [ 464783.820361094141845, 9280028.135808555409312 ], [ 464763.009073360241018, 9280038.541450848802924 ], [ 464733.873269526404329, 9280069.758379746228456 ], [ 464665.196018304792233, 9280132.192236909642816 ], [ 464665.196018278074916, 9280132.192236917093396 ], [ 464646.465859471005388, 9280139.476186262443662 ], [ 464616.289492350711953, 9280153.003521056845784 ], [ 464592.356512180704158, 9280153.003519609570503 ], [ 464585.07256219862029, 9280144.679004326462746 ], [ 464542.409423067583703, 9280154.044080944731832 ], [ 464479.975559174083173, 9280196.707215735688806 ], [ 464443.555806741409469, 9280196.707213532179594 ], [ 464443.555806714692153, 9280196.707213539630175 ], [ 464417.541698365821503, 9280188.382697116583586 ], [ 464365.513482051901519, 9280164.449713800102472 ], [ 464365.513482026581187, 9280164.449713809415698 ], [ 464347.823888897022698, 9280149.881811754778028 ], [ 464316.606958864955232, 9280139.476166313514113 ], [ 464300.998494422645308, 9280124.908264392986894 ], [ 464253.132534900738392, 9280111.380924878641963 ], [ 464217.753345812729094, 9280128.029952427372336 ], [ 464192.779800345131662, 9280143.638416243717074 ], [ 464192.779800318414345, 9280143.638416251167655 ], [ 464133.467631720355712, 9280149.881798787042499 ], [ 463995.072577133076265, 9280072.880028123036027 ], [ 463995.072577104961965, 9280072.880028130486608 ], [ 463972.180161319556646, 9280072.880026739090681 ], [ 463972.18016129283933, 9280072.880026746541262 ], [ 463938.882101008377504, 9280088.488490054383874 ], [ 463938.882100981660187, 9280088.488490061834455 ], [ 463894.137834425258916, 9280077.042279439046979 ], [ 463876.448238311335444, 9280111.380902098491788 ], [ 463851.474692278017756, 9280136.354445114731789 ], [ 463814.014375111088157, 9280142.597828984260559 ], [ 463768.229542662389576, 9280156.125162832438946 ], [ 463751.580512852582615, 9280158.206290535628796 ], [ 463724.525837981025688, 9280185.260962136089802 ], [ 463724.525837954308372, 9280185.260962143540382 ], [ 463668.33536154293688, 9280206.07224584557116 ], [ 463628.79391465941444, 9280228.96465926989913 ], [ 463567.400614934391342, 9280274.749487191438675 ], [ 463567.400614909129217, 9280274.749487198889256 ], [ 463586.130770934105385, 9280314.290933825075626 ], [ 463487.277154546987731, 9280357.994630770757794 ], [ 463487.277154520270415, 9280357.994630778208375 ], [ 463468.5469966562232, 9280349.670114796608686 ], [ 463468.546996629505884, 9280349.670114804059267 ], [ 463462.303612601361237, 9280315.331490691751242 ], [ 463447.735712446563412, 9280301.804153194651008 ], [ 463434.208376206981484, 9280295.56076624430716 ], [ 463391.545240538660437, 9280247.694803319871426 ], [ 463359.287743512250017, 9280280.992860738188028 ], [ 463359.287743485532701, 9280280.992860747501254 ], [ 463338.476455022639129, 9280303.885275295004249 ], [ 463338.476454995921813, 9280303.885275302454829 ], [ 463305.994046649197116, 9280334.972803302109241 ], [ 463286.600527156959288, 9280356.824653591960669 ], [ 463277.31349003885407, 9280360.921875178813934 ], [ 463254.095896197133698, 9280388.509836245328188 ], [ 463254.095896170358174, 9280388.509836252778769 ], [ 463219.679228564025834, 9280414.73205591365695 ], [ 463203.017191130260471, 9280426.204276923090219 ], [ 463188.813487334991805, 9280431.940387073904276 ], [ 463188.813487308274489, 9280431.940387081354856 ], [ 463162.864412720198743, 9280448.602422244846821 ], [ 463134.183856670686509, 9280465.264457251876593 ], [ 463123.257931257830933, 9280460.074641868472099 ], [ 463107.142190143233165, 9280471.000566624104977 ], [ 463104.137560072704218, 9280479.195010740309954 ], [ 463104.137560045986902, 9280479.195010747760534 ], [ 463072.595808781334199, 9280553.574719881638885 ], [ 463067.445192353858147, 9280566.966320184990764 ], [ 463065.384945665951818, 9280574.177181929349899 ], [ 463059.204206082213204, 9280588.083843734115362 ], [ 463044.782479794113897, 9280630.318890949711204 ], [ 463039.11680151958717, 9280648.346045281738043 ], [ 463033.966185091238003, 9280661.737645583227277 ], [ 463016.454088272701483, 9280723.029970411211252 ], [ 463016.454086590907536, 9280750.843294767662883 ], [ 463008.213100913970266, 9280762.174648631364107 ], [ 463001.002238673798274, 9280768.355386940762401 ], [ 463001.517297461046837, 9280814.195866 ], [ 463000.824236560962163, 9280851.636750349774957 ], [ 462991.160989417810924, 9280894.431118516251445 ], [ 462984.948903049516957, 9280904.094362692907453 ], [ 462991.851219753269106, 9280917.898998191580176 ], [ 462980.11727993551176, 9280917.898997481912374 ], [ 462970.45403446216369, 9280933.084095485508442 ], [ 462968.665289193217177, 9280947.109044145792723 ], [ 462963.895301579090301, 9280988.25016557238996 ], [ 462969.85778103931807, 9281020.447565536946058 ], [ 462964.49154532153625, 9281060.992438789457083 ], [ 462956.74031884490978, 9281071.724904851987958 ], [ 462945.411603773769457, 9281078.283633714541793 ], [ 462932.89039324875921, 9281071.128655269742012 ], [ 462922.157926139247138, 9281080.668624876067042 ], [ 462907.847970038303174, 9281092.593586824834347 ], [ 462900.692993070872035, 9281080.668623575940728 ], [ 462891.749271321634296, 9281074.70614162646234 ], [ 462891.153024045401253, 9281060.396186213940382 ], [ 462876.246819880208932, 9281071.128651844337583 ], [ 462857.763125677709468, 9281101.537305906414986 ], [ 462848.819401800632477, 9281130.753464264795184 ], [ 462857.763121887925081, 9281164.143360691145062 ], [ 462857.763121861149557, 9281164.143360698595643 ], [ 462863.16084444092121, 9281196.687415976077318 ], [ 462867.239988991175778, 9281231.360162746161222 ], [ 462893.754439870011993, 9281270.112057520076632 ], [ 462949.842707530071493, 9281249.716327663511038 ], [ 462989.614387729612645, 9281243.597610097378492 ], [ 463034.485000253189355, 9281253.79547943174839 ], [ 463083.434758196992334, 9281284.389082266017795 ], [ 463109.949210430786479, 9281300.705670466646552 ], [ 463185.413420912984293, 9281342.516928186640143 ], [ 463230.284032514435239, 9281368.011597460135818 ], [ 463281.273365012777504, 9281378.209467170760036 ], [ 463281.273364986060187, 9281378.209467180073261 ], [ 463325.12419124803273, 9281382.28861646912992 ], [ 463406.707126576104201, 9281343.536728233098984 ], [ 463406.707126549386885, 9281343.536728240549564 ], [ 463430.162219252844807, 9281352.71480961330235 ], [ 463433.221579488250427, 9281348.635663148015738 ], [ 463417.92477998288814, 9281341.497155586257577 ], [ 463389.370754179486539, 9281329.259713910520077 ], [ 463389.370754152769223, 9281329.259713917970657 ], [ 463377.133314723614603, 9281321.101419871672988 ], [ 463356.737583268783055, 9281291.52760542742908 ], [ 463349.599077800405212, 9281272.151658410206437 ], [ 463344.500145725207403, 9281251.755924856290221 ], [ 463360.816733553481754, 9281231.360192595049739 ], [ 463377.133320151246153, 9281231.360193582251668 ], [ 463387.331185787566938, 9281247.676780793815851 ], [ 463379.172891809721477, 9281258.894433587789536 ], [ 463379.172891783004161, 9281258.894433595240116 ], [ 463366.935451002034824, 9281273.171446124091744 ], [ 463366.935450976714492, 9281273.17144613340497 ], [ 463362.617351661785506, 9281279.945687916129827 ], [ 463371.426652061403729, 9281283.469408698379993 ], [ 463381.997813758382108, 9281267.612668227404356 ], [ 463392.568975293019321, 9281254.398717945441604 ], [ 463389.045256113051437, 9281236.780116504058242 ], [ 463389.045257179765031, 9281219.161515273153782 ], [ 463403.140138693910558, 9281210.352215511724353 ], [ 463403.140138667193241, 9281210.352215519174933 ], [ 463430.448971395788249, 9281197.138266243040562 ], [ 463471.852684974262957, 9281185.68617794662714 ], [ 463520.303838883875869, 9281176.876880260184407 ], [ 463606.634985591750592, 9281165.424794681370258 ], [ 463612.801497036474757, 9281148.687123887240887 ], [ 463612.801497009757441, 9281148.687123894691467 ], [ 463622.491728136548772, 9281141.639683982357383 ], [ 463673.585672067885753, 9281135.473176641389728 ], [ 463673.585672041110229, 9281135.473176648840308 ], [ 463706.180084234219976, 9281137.235038738697767 ], [ 463750.226586453558411, 9281151.329922381788492 ], [ 463781.94006786250975, 9281164.54387522302568 ], [ 463807.487038948049303, 9281175.99596756696701 ], [ 463836.557729164138436, 9281205.947591418400407 ], [ 463836.55772913742112, 9281205.947591427713633 ], [ 463861.223769229778554, 9281233.256424812600017 ], [ 463889.413525921059772, 9281320.468502603471279 ], [ 463889.413524112198502, 9281350.420124694705009 ], [ 463884.127940598817077, 9281402.394997999072075 ], [ 463884.12794057209976, 9281402.394998006522655 ], [ 463882.366077705752105, 9281448.20336108841002 ], [ 463882.366076267673634, 9281471.988472748547792 ], [ 463882.366076239501126, 9281471.988472755998373 ], [ 463884.127934844989795, 9281497.535444635897875 ], [ 463873.556772137759253, 9281530.129856271669269 ], [ 463857.700028688530438, 9281568.890778018161654 ], [ 463831.272125247283839, 9281595.318678263574839 ], [ 463792.511200521956198, 9281628.794018253684044 ], [ 463762.559577262902167, 9281648.174477795138955 ], [ 463740.536325301567558, 9281655.221916954964399 ], [ 463740.536325274850242, 9281655.22191696241498 ], [ 463729.611303581099492, 9281654.717570677399635 ], [ 463725.068327304965351, 9281648.357403073459864 ], [ 463726.88551829563221, 9281642.905831187963486 ], [ 463743.483928515808657, 9281634.925161309540272 ], [ 463753.450644165161066, 9281624.958446862176061 ], [ 463761.993543039308861, 9281620.686998071148992 ], [ 463761.993543012591545, 9281620.686998078599572 ], [ 463767.688808651757427, 9281622.822723070159554 ], [ 463783.350790520256851, 9281605.025018572807312 ], [ 463788.334148692607414, 9281594.34639560431242 ], [ 463804.708038303651847, 9281584.3796815443784 ], [ 463804.708038276934531, 9281584.379681553691626 ], [ 463802.572314078744967, 9281577.260599235072732 ], [ 463789.757966075907461, 9281578.684414895251393 ], [ 463770.536442900716793, 9281600.041660269722342 ], [ 463763.417360119579826, 9281610.008374888449907 ], [ 463739.212479682581034, 9281627.094170656055212 ], [ 463723.5504982881248, 9281637.06088475883007 ], [ 463713.583783064037561, 9281639.908517027273774 ], [ 463707.88851620227797, 9281658.418130351230502 ], [ 463719.279046308889519, 9281681.199194008484483 ], [ 463757.722088178212289, 9281712.523157920688391 ], [ 463799.012763086881023, 9281740.999489136040211 ], [ 463849.558245475112926, 9281758.797197638079524 ], [ 463849.55824544839561, 9281758.797197645530105 ], [ 463960.168760173022747, 9281841.129954736679792 ], [ 463971.146028730436228, 9281857.918720627203584 ], [ 463993.746289264527149, 9281863.730217650532722 ], [ 463993.746289237751625, 9281863.730217657983303 ], [ 464028.824430189095438, 9281844.250933442264795 ], [ 464044.427110992721282, 9281848.839958233758807 ], [ 464083.89271519012982, 9281863.524836933240294 ], [ 464128.865147869160865, 9281880.504227889701724 ], [ 464129.324049505405128, 9281892.894592307507992 ], [ 464134.371974958514329, 9281905.743859386071563 ], [ 464149.97465567762265, 9281911.709591332823038 ], [ 464165.5773368421942, 9281910.33288512378931 ], [ 464165.577336815418676, 9281910.332885131239891 ], [ 464183.933432565710973, 9281904.826057612895966 ], [ 464201.371722215320915, 9281920.887642135843635 ], [ 464201.371722190000582, 9281920.887642143294215 ], [ 464272.501590847678017, 9281937.40813229046762 ], [ 464304.624758168705739, 9281930.98350084386766 ], [ 464304.624758141988423, 9281930.98350085131824 ], [ 464327.569878240581602, 9281917.216430690139532 ], [ 464368.412190562696196, 9281915.839726006612182 ], [ 464400.994259102328215, 9281928.688994750380516 ], [ 464435.870840119896457, 9281932.360215939581394 ], [ 464520.767781518457923, 9281928.689001994207501 ], [ 464520.767781491740607, 9281928.689002001658082 ], [ 464543.253997924213763, 9281936.031441513448954 ], [ 464580.88399344496429, 9281936.490346172824502 ], [ 464594.192162270483095, 9281941.99717559479177 ], [ 464624.938622186542489, 9281939.702665530145168 ], [ 464624.938622159825172, 9281939.702665537595749 ], [ 464642.376913194311783, 9281933.278033198788762 ], [ 464685.972640188701916, 9281925.93559768050909 ], [ 464720.390318791265599, 9281930.065721223130822 ], [ 464740.582023916183971, 9281926.853405751287937 ], [ 464753.890193575061858, 9281918.593163629993796 ], [ 464793.814701794821303, 9281906.202801655977964 ], [ 464833.739209849503823, 9281896.565853990614414 ], [ 464853.930915251665283, 9281888.764514675363898 ], [ 464881.465058473171666, 9281886.470004413276911 ], [ 464910.834811511042062, 9281879.586470421403646 ], [ 464959.019562214729376, 9281874.538547100499272 ], [ 464959.019562187953852, 9281874.538547107949853 ], [ 464979.211267363745719, 9281870.867329243570566 ], [ 465006.745410754578188, 9281865.819404678419232 ], [ 465037.491870865924284, 9281860.312577921897173 ], [ 465082.923207648738753, 9281848.840021047741175 ], [ 465082.923207622021437, 9281848.840021055191755 ], [ 465110.916253837931436, 9281836.908560736104846 ], [ 465136.155885581800248, 9281827.271612184122205 ], [ 465160.018810532114003, 9281811.668932547792792 ], [ 465176.080394830321893, 9281797.901861976832151 ], [ 465185.258443580416497, 9281780.463571907952428 ], [ 465195.35429734911304, 9281758.895160432904959 ], [ 465211.87478441989515, 9281738.703456502407789 ], [ 465230.230880059360061, 9281734.573336152359843 ], [ 465234.819904601026792, 9281723.100776808336377 ], [ 465241.703441150661092, 9281710.251510452479124 ], [ 465241.703441123943776, 9281710.251510459929705 ], [ 465258.223928251536563, 9281689.600904135033488 ], [ 465275.662220979749691, 9281654.724323946982622 ], [ 465275.662220954429358, 9281654.724323954433203 ], [ 465287.593683871964458, 9281640.039448356255889 ], [ 465303.196365534968209, 9281630.402499223127961 ], [ 465326.141485604224727, 9281616.635429063811898 ], [ 465346.33319120015949, 9281605.621773054823279 ], [ 465358.723557114833966, 9281580.382142640650272 ], [ 465367.901605724298861, 9281565.238364497199655 ], [ 465383.045384976314381, 9281556.06031771749258 ], [ 465383.045384949597064, 9281556.060317724943161 ], [ 465382.586482925573364, 9281550.553489070385695 ], [ 465382.586482900253031, 9281550.553489077836275 ], [ 465407.367212313751224, 9281540.457638105377555 ], [ 465437.195867652597371, 9281534.950811294838786 ], [ 465473.908058542117942, 9281533.115203974768519 ], [ 465557.88719372759806, 9281553.306913984939456 ], [ 465557.887193700880744, 9281553.306913992390037 ], [ 465606.989747839281335, 9281570.745207577943802 ], [ 465680.414127122494392, 9281608.375207571312785 ], [ 465714.831804478075355, 9281633.155938431620598 ], [ 465728.139973161800299, 9281640.957279779016972 ], [ 465763.934357254765928, 9281672.621546491980553 ], [ 465796.057522798422724, 9281695.56666767410934 ], [ 465796.057522771705408, 9281695.56666768155992 ], [ 465827.721785848145373, 9281720.347398370504379 ], [ 465845.160075245134067, 9281740.539104353636503 ], [ 465872.694215831463225, 9281781.840320652350783 ], [ 465872.694215806142893, 9281781.840320659801364 ], [ 465881.872262357559521, 9281801.114221366122365 ], [ 465883.707871178048663, 9281813.045683480799198 ], [ 465888.296894662315026, 9281819.01141476072371 ], [ 465891.968112908711191, 9281832.778486527502537 ], [ 465887.837990528263617, 9281847.922264976426959 ], [ 465883.248965570121072, 9281866.278360087424517 ], [ 465882.790062714193482, 9281874.079700600355864 ], [ 465885.084573806088883, 9281887.846772283315659 ], [ 465891.509205748036038, 9281911.709696680307388 ], [ 465896.098228236427531, 9281934.195913810282946 ], [ 465898.851640601526015, 9281966.319080913439393 ], [ 465902.981760145688895, 9281997.983345709741116 ], [ 465910.78309929871466, 9282020.928465420380235 ], [ 465910.783099271939136, 9282020.928465427830815 ], [ 465910.783098687010352, 9282031.024317886680365 ], [ 465913.07760980486637, 9282044.332487184554338 ], [ 465907.111878136871383, 9282055.346144057810307 ], [ 465894.262611477694008, 9282053.510533740743995 ], [ 465894.262611450976692, 9282053.510533748194575 ], [ 465902.981754398613703, 9282092.976139361038804 ], [ 465901.605046272045001, 9282109.037722745910287 ], [ 465904.817361993715167, 9282125.099306404590607 ], [ 465897.016020231589209, 9282145.291010862216353 ], [ 465880.036630302260164, 9282173.28405530564487 ], [ 465857.550411758187693, 9282201.277099419385195 ], [ 465837.817607685457915, 9282226.516729384660721 ], [ 465800.187610779190436, 9282249.002943962812424 ], [ 465800.187610753870104, 9282249.002943970263004 ], [ 465794.680781024857424, 9282267.817941404879093 ], [ 465789.173951044678688, 9282290.304157925769687 ], [ 465780.454804736131337, 9282306.8246432505548 ], [ 465780.913705870916601, 9282327.475250592455268 ], [ 465785.961629437631927, 9282371.529879840090871 ], [ 465786.420530378934927, 9282395.392803875729442 ], [ 465785.043822225357872, 9282411.91328964009881 ], [ 465774.030164380790666, 9282422.009141441434622 ], [ 465732.27004598203348, 9282444.954258153215051 ], [ 465732.270045955316164, 9282444.954258162528276 ], [ 465709.783827658509836, 9282469.276083184406161 ], [ 465703.818095713388175, 9282484.878763904795051 ], [ 465703.359191635914613, 9282512.871809344738722 ], [ 465701.523579624132253, 9282553.714121479541063 ], [ 465698.770164569374174, 9282566.104485703632236 ], [ 465695.098944518074859, 9282582.166068945080042 ], [ 465697.852357410360128, 9282605.570090735331178 ], [ 465704.735888072638772, 9282690.008129952475429 ], [ 465693.263327066320926, 9282712.953248498961329 ], [ 465678.578452725196257, 9282680.371178291738033 ], [ 465678.578452697023749, 9282680.371178299188614 ], [ 465671.694918398628943, 9282656.508253868669271 ], [ 465668.941504783055279, 9282645.03569408133626 ], [ 465668.941504756337963, 9282645.035694090649486 ], [ 465666.188089532312006, 9282660.638374995440245 ], [ 465669.400404284300748, 9282692.761542124673724 ], [ 465674.90723023301689, 9282736.816171396523714 ], [ 465679.95515485771466, 9282763.432510016486049 ], [ 465700.605759864207357, 9282801.521409202367067 ], [ 465700.605759837431833, 9282801.521409209817648 ], [ 465707.948196548852138, 9282825.843236038461328 ], [ 465719.420755027094856, 9282844.658234508708119 ], [ 465745.578188597806729, 9282883.664938796311617 ], [ 465763.934283291746397, 9282895.137499529868364 ], [ 465794.680742735508829, 9282900.644330006092787 ], [ 465828.639518512121867, 9282912.116891680285335 ], [ 465828.639518485404551, 9282912.11689168959856 ], [ 465842.865491910895798, 9282920.836037850007415 ] ] } }
]
}
