{
"type": "FeatureCollection",
"name": "Transect_Jawa-16fix",
"crs": { "type": "name", "properties": { "name": "urn:ogc:def:crs:OGC:1.3:CRS84" } },
"features": [
{ "type": "Feature", "properties": { }, "geometry": { "type": "LineString", "coordinates": [ [ 110.665105509824713, -6.545214209196731 ], [ 110.661901954132588, -6.542021602902382 ] ] } },
{ "type": "Feature", "properties": { }, "geometry": { "type": "LineString", "coordinates": [ [ 110.665973239373329, -6.544340141410648 ], [ 110.662630375109984, -6.541293740364094 ] ] } },
{ "type": "Feature", "properties": { }, "geometry": { "type": "LineString", "coordinates": [ [ 110.666908309326317, -6.543198673260141 ], [ 110.663132943317109, -6.540708436766578 ] ] } },
{ "type": "Feature", "properties": { }, "geometry": { "type": "LineString", "coordinates": [ [ 110.667729926422069, -6.541483001397516 ], [ 110.66333437674642, -6.540418695384172 ] ] } },
{ "type": "Feature", "properties": { }, "geometry": { "type": "LineString", "coordinates": [ [ 110.667795758323834, -6.539937795255984 ], [ 110.663275730864981, -6.539787306402454 ] ] } },
{ "type": "Feature", "properties": { }, "geometry": { "type": "LineString", "coordinates": [ [ 110.667864754523109, -6.53886370524667 ], [ 110.663349668320507, -6.538604457064253 ] ] } },
{ "type": "Feature", "properties": { }, "geometry": { "type": "LineString", "coordinates": [ [ 110.667926102050117, -6.53756809800193 ], [ 110.663404289595249, -6.537647604136027 ] ] } },
{ "type": "Feature", "properties": { }, "geometry": { "type": "LineString", "coordinates": [ [ 110.667827680882027, -6.536397056923161 ], [ 110.663309354253016, -6.536591349256675 ] ] } },
{ "type": "Feature", "properties": { }, "geometry": { "type": "LineString", "coordinates": [ [ 110.66781597091439, -6.535632635540884 ], [ 110.663294147996595, -6.535710537937038 ] ] } },
{ "type": "Feature", "properties": { }, "geometry": { "type": "LineString", "coordinates": [ [ 110.665382099987468, -6.535044748037971 ], [ 110.665306454537287, -6.530522388511178 ] ] } },
{ "type": "Feature", "properties": { }, "geometry": { "type": "LineString", "coordinates": [ [ 110.666045997533857, -6.535068234650811 ], [ 110.666385571331404, -6.530558010076583 ] ] } },
{ "type": "Feature", "properties": { }, "geometry": { "type": "LineString", "coordinates": [ [ 110.66818644322602, -6.533393497395799 ], [ 110.670223212982563, -6.529355173445003 ] ] } },
{ "type": "Feature", "properties": { }, "geometry": { "type": "LineString", "coordinates": [ [ 110.668162867881449, -6.537032411828487 ], [ 110.670304125720975, -6.533048511132803 ] ] } },
{ "type": "Feature", "properties": { }, "geometry": { "type": "LineString", "coordinates": [ [ 110.668869423830216, -6.537686450804283 ], [ 110.671135679906754, -6.533772319114753 ] ] } },
{ "type": "Feature", "properties": { }, "geometry": { "type": "LineString", "coordinates": [ [ 110.67042376898543, -6.538246447346888 ], [ 110.671588432605219, -6.533876008101062 ] ] } },
{ "type": "Feature", "properties": { }, "geometry": { "type": "LineString", "coordinates": [ [ 110.671946698930469, -6.538528336218329 ], [ 110.672088138906716, -6.534007554055345 ] ] } },
{ "type": "Feature", "properties": { }, "geometry": { "type": "LineString", "coordinates": [ [ 110.673587494660325, -6.538327183586904 ], [ 110.672679507804403, -6.533896284637834 ] ] } },
{ "type": "Feature", "properties": { }, "geometry": { "type": "LineString", "coordinates": [ [ 110.675014509146081, -6.537934195598253 ], [ 110.673431877316702, -6.533697189951268 ] ] } },
{ "type": "Feature", "properties": { }, "geometry": { "type": "LineString", "coordinates": [ [ 110.676338860068384, -6.537301330081589 ], [ 110.674143289197417, -6.53334710507314 ] ] } },
{ "type": "Feature", "properties": { }, "geometry": { "type": "LineString", "coordinates": [ [ 110.677496807187211, -6.536569937581626 ], [ 110.674895838356903, -6.532869809857849 ] ] } },
{ "type": "Feature", "properties": { }, "geometry": { "type": "LineString", "coordinates": [ [ 110.678574696593955, -6.535729690052261 ], [ 110.675601831716961, -6.532321233853883 ] ] } },
{ "type": "Feature", "properties": { }, "geometry": { "type": "LineString", "coordinates": [ [ 110.679527491665041, -6.534803019796274 ], [ 110.67626237119687, -6.531673476012841 ] ] } },
{ "type": "Feature", "properties": { }, "geometry": { "type": "LineString", "coordinates": [ [ 110.680422651461967, -6.53379917559072 ], [ 110.676872610214133, -6.530997073223811 ] ] } },
{ "type": "Feature", "properties": { }, "geometry": { "type": "LineString", "coordinates": [ [ 110.681164248727768, -6.532735590286093 ], [ 110.677417958159253, -6.530201918184092 ] ] } },
{ "type": "Feature", "properties": { }, "geometry": { "type": "LineString", "coordinates": [ [ 110.681849830747183, -6.531693948287421 ], [ 110.677977507655726, -6.529357493691594 ] ] } },
{ "type": "Feature", "properties": { }, "geometry": { "type": "LineString", "coordinates": [ [ 110.68246125645878, -6.530583203349285 ], [ 110.678454184277584, -6.528486309923021 ] ] } },
{ "type": "Feature", "properties": { }, "geometry": { "type": "LineString", "coordinates": [ [ 110.683036334807895, -6.529417327104689 ], [ 110.678860008164165, -6.527681965560182 ] ] } },
{ "type": "Feature", "properties": { }, "geometry": { "type": "LineString", "coordinates": [ [ 110.683435497234584, -6.528249646194185 ], [ 110.679181331318503, -6.52671503948578 ] ] } },
{ "type": "Feature", "properties": { }, "geometry": { "type": "LineString", "coordinates": [ [ 110.683840015313876, -6.527195837884586 ], [ 110.679579157147018, -6.525679940410624 ] ] } },
{ "type": "Feature", "properties": { }, "geometry": { "type": "LineString", "coordinates": [ [ 110.684229680546181, -6.526006239820605 ], [ 110.679893564884694, -6.524721439010538 ] ] } },
{ "type": "Feature", "properties": { }, "geometry": { "type": "LineString", "coordinates": [ [ 110.684535459091407, -6.524856892558615 ], [ 110.680167366293048, -6.523685473302347 ] ] } },
{ "type": "Feature", "properties": { }, "geometry": { "type": "LineString", "coordinates": [ [ 110.684848687723687, -6.523695918148698 ], [ 110.680445540408144, -6.522664129942538 ] ] } },
{ "type": "Feature", "properties": { }, "geometry": { "type": "LineString", "coordinates": [ [ 110.685103345396811, -6.522404272143452 ], [ 110.680630376299675, -6.521737499567624 ] ] } },
{ "type": "Feature", "properties": { }, "geometry": { "type": "LineString", "coordinates": [ [ 110.685233360578479, -6.521134571163365 ], [ 110.680726770548972, -6.520757064550502 ] ] } },
{ "type": "Feature", "properties": { }, "geometry": { "type": "LineString", "coordinates": [ [ 110.685315370423538, -6.519895098506855 ], [ 110.680795582855879, -6.519742583062176 ] ] } },
{ "type": "Feature", "properties": { }, "geometry": { "type": "LineString", "coordinates": [ [ 110.685316982633793, -6.518646731683664 ], [ 110.680795389751665, -6.518729448970176 ] ] } },
{ "type": "Feature", "properties": { }, "geometry": { "type": "LineString", "coordinates": [ [ 110.685258457918337, -6.517283540685268 ], [ 110.680769900238118, -6.51783534687033 ] ] } },
{ "type": "Feature", "properties": { }, "geometry": { "type": "LineString", "coordinates": [ [ 110.684951746838465, -6.515819372053025 ], [ 110.680612233812937, -6.51709238815658 ] ] } },
{ "type": "Feature", "properties": { }, "geometry": { "type": "LineString", "coordinates": [ [ 110.684518565856223, -6.514662996496351 ], [ 110.680245435826137, -6.516143670639081 ] ] } },
{ "type": "Feature", "properties": { }, "geometry": { "type": "LineString", "coordinates": [ [ 110.684084661100428, -6.513352653622853 ], [ 110.680006321671655, -6.515307034274707 ] ] } },
{ "type": "Feature", "properties": { }, "geometry": { "type": "LineString", "coordinates": [ [ 110.683132513040192, -6.511920263033 ], [ 110.679718436186988, -6.514886408180682 ] ] } },
{ "type": "Feature", "properties": { }, "geometry": { "type": "LineString", "coordinates": [ [ 110.681694119397832, -6.510681163735407 ], [ 110.679482420033978, -6.51462633880817 ] ] } },
{ "type": "Feature", "properties": { }, "geometry": { "type": "LineString", "coordinates": [ [ 110.680388407089254, -6.51023743361022 ], [ 110.678804955661477, -6.514474111885702 ] ] } },
{ "type": "Feature", "properties": { }, "geometry": { "type": "LineString", "coordinates": [ [ 110.678651652430503, -6.509642360911547 ], [ 110.678533980909677, -6.514163831452068 ] ] } },
{ "type": "Feature", "properties": { }, "geometry": { "type": "LineString", "coordinates": [ [ 110.677557114816295, -6.510043698627064 ], [ 110.677564769208388, -6.514566693591243 ] ] } },
{ "type": "Feature", "properties": { }, "geometry": { "type": "LineString", "coordinates": [ [ 110.676445762001393, -6.510347027444811 ], [ 110.676627787539147, -6.514866362991569 ] ] } },
{ "type": "Feature", "properties": { }, "geometry": { "type": "LineString", "coordinates": [ [ 110.675488761206338, -6.510125609722584 ], [ 110.675480605069481, -6.514648602875425 ] ] } },
{ "type": "Feature", "properties": { }, "geometry": { "type": "LineString", "coordinates": [ [ 110.674523092713272, -6.510674899707961 ], [ 110.674469670515478, -6.515197584078692 ] ] } },
{ "type": "Feature", "properties": { }, "geometry": { "type": "LineString", "coordinates": [ [ 110.674099508973484, -6.510821442350465 ], [ 110.672764753465415, -6.515142946266701 ] ] } },
{ "type": "Feature", "properties": { }, "geometry": { "type": "LineString", "coordinates": [ [ 110.673755585702722, -6.510414762342959 ], [ 110.671433240617489, -6.514295810972721 ] ] } },
{ "type": "Feature", "properties": { }, "geometry": { "type": "LineString", "coordinates": [ [ 110.672662514327357, -6.509895414247924 ], [ 110.67053625976969, -6.513887297187721 ] ] } },
{ "type": "Feature", "properties": { }, "geometry": { "type": "LineString", "coordinates": [ [ 110.671741312184864, -6.509337322810096 ], [ 110.669532176096936, -6.513283926089125 ] ] } },
{ "type": "Feature", "properties": { }, "geometry": { "type": "LineString", "coordinates": [ [ 110.67083918189492, -6.509226879212231 ], [ 110.668325692212036, -6.512986914033235 ] ] } },
{ "type": "Feature", "properties": { }, "geometry": { "type": "LineString", "coordinates": [ [ 110.670084345635757, -6.509027313760297 ], [ 110.667408233076401, -6.512673357315104 ] ] } },
{ "type": "Feature", "properties": { }, "geometry": { "type": "LineString", "coordinates": [ [ 110.669272527559556, -6.508627736648127 ], [ 110.666316722736468, -6.512050879006842 ] ] } },
{ "type": "Feature", "properties": { }, "geometry": { "type": "LineString", "coordinates": [ [ 110.668329262779366, -6.507916037486874 ], [ 110.66546902524172, -6.511419447482678 ] ] } },
{ "type": "Feature", "properties": { }, "geometry": { "type": "LineString", "coordinates": [ [ 110.668005441222064, -6.507713265013995 ], [ 110.664282544043417, -6.510280946664762 ] ] } },
{ "type": "Feature", "properties": { }, "geometry": { "type": "LineString", "coordinates": [ [ 110.667902411778073, -6.507269553579379 ], [ 110.663584001804594, -6.508612176667662 ] ] } },
{ "type": "Feature", "properties": { }, "geometry": { "type": "LineString", "coordinates": [ [ 110.66769517723084, -6.50641430937415 ], [ 110.663259146030555, -6.507293229534168 ] ] } },
{ "type": "Feature", "properties": { }, "geometry": { "type": "LineString", "coordinates": [ [ 110.667520899397473, -6.505287610194008 ], [ 110.663105161814997, -6.506263372351813 ] ] } },
{ "type": "Feature", "properties": { }, "geometry": { "type": "LineString", "coordinates": [ [ 110.666841832224407, -6.504712045601228 ], [ 110.66235566190521, -6.505281999301662 ] ] } },
{ "type": "Feature", "properties": { }, "geometry": { "type": "LineString", "coordinates": [ [ 110.666150324578211, -6.504027066891345 ], [ 110.661638338986123, -6.504331054726256 ] ] } },
{ "type": "Feature", "properties": { }, "geometry": { "type": "LineString", "coordinates": [ [ 110.666352339373688, -6.503885280633213 ], [ 110.662886278495364, -6.500980170226063 ] ] } },
{ "type": "Feature", "properties": { }, "geometry": { "type": "LineString", "coordinates": [ [ 110.666692405670943, -6.503614244951737 ], [ 110.664953240417631, -6.499439112363594 ] ] } },
{ "type": "Feature", "properties": { }, "geometry": { "type": "LineString", "coordinates": [ [ 110.667096704860128, -6.503792741742432 ], [ 110.666955524810135, -6.499271947816894 ] ] } },
{ "type": "Feature", "properties": { }, "geometry": { "type": "LineString", "coordinates": [ [ 110.668037129440734, -6.503909316328051 ], [ 110.66823414535213, -6.499390611659068 ] ] } },
{ "type": "Feature", "properties": { }, "geometry": { "type": "LineString", "coordinates": [ [ 110.668985945315654, -6.50409263195514 ], [ 110.669352771144517, -6.499584537485517 ] ] } },
{ "type": "Feature", "properties": { }, "geometry": { "type": "LineString", "coordinates": [ [ 110.66996519961684, -6.504316337393019 ], [ 110.670279526816699, -6.499804276694643 ] ] } },
{ "type": "Feature", "properties": { }, "geometry": { "type": "LineString", "coordinates": [ [ 110.670773836664097, -6.504459670748992 ], [ 110.671100385544932, -6.499948478054347 ] ] } },
{ "type": "Feature", "properties": { }, "geometry": { "type": "LineString", "coordinates": [ [ 110.675691297852609, -6.502094220332975 ], [ 110.671228946283733, -6.501360843052748 ] ] } },
{ "type": "Feature", "properties": { }, "geometry": { "type": "LineString", "coordinates": [ [ 110.675885239288419, -6.50088544424429 ], [ 110.671378963229444, -6.500506396888149 ] ] } },
{ "type": "Feature", "properties": { }, "geometry": { "type": "LineString", "coordinates": [ [ 110.675492036701641, -6.499791144062096 ], [ 110.670988188083186, -6.49938436902279 ] ] } },
{ "type": "Feature", "properties": { }, "geometry": { "type": "LineString", "coordinates": [ [ 110.674243917858988, -6.499502586161982 ], [ 110.671547600772868, -6.495871511458567 ] ] } },
{ "type": "Feature", "properties": { }, "geometry": { "type": "LineString", "coordinates": [ [ 110.674736600431814, -6.499081703419591 ], [ 110.672481034396739, -6.495161491790475 ] ] } },
{ "type": "Feature", "properties": { }, "geometry": { "type": "LineString", "coordinates": [ [ 110.675360952958997, -6.499036982480973 ], [ 110.673824958141438, -6.494782880271131 ] ] } },
{ "type": "Feature", "properties": { }, "geometry": { "type": "LineString", "coordinates": [ [ 110.676162975116355, -6.498857728843885 ], [ 110.674790555474985, -6.494548052329558 ] ] } },
{ "type": "Feature", "properties": { }, "geometry": { "type": "LineString", "coordinates": [ [ 110.676787035985882, -6.498494098442189 ], [ 110.675886334522488, -6.49406171849338 ] ] } },
{ "type": "Feature", "properties": { }, "geometry": { "type": "LineString", "coordinates": [ [ 110.677479916651365, -6.498600804549215 ], [ 110.677345797861619, -6.494079790003469 ] ] } },
{ "type": "Feature", "properties": { }, "geometry": { "type": "LineString", "coordinates": [ [ 110.678696175794286, -6.498464547949366 ], [ 110.678342425364491, -6.493955403359831 ] ] } },
{ "type": "Feature", "properties": { }, "geometry": { "type": "LineString", "coordinates": [ [ 110.679601921995982, -6.498427053125089 ], [ 110.679675519274028, -6.493904646938085 ] ] } },
{ "type": "Feature", "properties": { }, "geometry": { "type": "LineString", "coordinates": [ [ 110.680400351858268, -6.498480940983167 ], [ 110.681082911695512, -6.494009753691721 ] ] } },
{ "type": "Feature", "properties": { }, "geometry": { "type": "LineString", "coordinates": [ [ 110.681350074578603, -6.498711321112422 ], [ 110.682296273162962, -6.494288431362381 ] ] } },
{ "type": "Feature", "properties": { }, "geometry": { "type": "LineString", "coordinates": [ [ 110.682504250368552, -6.498934398166977 ], [ 110.683350560571625, -6.494491304994146 ] ] } },
{ "type": "Feature", "properties": { }, "geometry": { "type": "LineString", "coordinates": [ [ 110.683314335429074, -6.499064526670693 ], [ 110.684760578525669, -6.494779064609404 ] ] } },
{ "type": "Feature", "properties": { }, "geometry": { "type": "LineString", "coordinates": [ [ 110.684026322819321, -6.499446412669837 ], [ 110.686046366461866, -6.495399748660724 ] ] } },
{ "type": "Feature", "properties": { }, "geometry": { "type": "LineString", "coordinates": [ [ 110.684651331891118, -6.500296371566809 ], [ 110.686716405422786, -6.496272507228543 ] ] } },
{ "type": "Feature", "properties": { }, "geometry": { "type": "LineString", "coordinates": [ [ 110.686106084786502, -6.501374316780224 ], [ 110.687531169026229, -6.497081766491981 ] ] } },
{ "type": "Feature", "properties": { }, "geometry": { "type": "LineString", "coordinates": [ [ 110.688868552544321, -6.501871809604267 ], [ 110.687807493646076, -6.497475066840152 ] ] } },
{ "type": "Feature", "properties": { }, "geometry": { "type": "LineString", "coordinates": [ [ 110.690463516395297, -6.501235792709063 ], [ 110.688300069476341, -6.497263968592221 ] ] } },
{ "type": "Feature", "properties": { }, "geometry": { "type": "LineString", "coordinates": [ [ 110.691702924689793, -6.500378720155462 ], [ 110.688902680484816, -6.496827193115883 ] ] } },
{ "type": "Feature", "properties": { }, "geometry": { "type": "LineString", "coordinates": [ [ 110.693055138275341, -6.499068851134323 ], [ 110.689233249701232, -6.496651138078763 ] ] } },
{ "type": "Feature", "properties": { }, "geometry": { "type": "LineString", "coordinates": [ [ 110.693650143655688, -6.497308931957655 ], [ 110.689228242649406, -6.496361811714888 ] ] } },
{ "type": "Feature", "properties": { }, "geometry": { "type": "LineString", "coordinates": [ [ 110.693852076157739, -6.495897492166777 ], [ 110.689343584256804, -6.495546257844473 ] ] } },
{ "type": "Feature", "properties": { }, "geometry": { "type": "LineString", "coordinates": [ [ 110.693830668669051, -6.494329877223864 ], [ 110.689391722479783, -6.495193465321816 ] ] } },
{ "type": "Feature", "properties": { }, "geometry": { "type": "LineString", "coordinates": [ [ 110.693343719015715, -6.493069968626869 ], [ 110.689040571381483, -6.494460411557189 ] ] } },
{ "type": "Feature", "properties": { }, "geometry": { "type": "LineString", "coordinates": [ [ 110.692673749845298, -6.492131687925085 ], [ 110.688425660983086, -6.493682259465831 ] ] } },
{ "type": "Feature", "properties": { }, "geometry": { "type": "LineString", "coordinates": [ [ 110.692587320191194, -6.490978493608842 ], [ 110.688387374349375, -6.492655118180482 ] ] } },
{ "type": "Feature", "properties": { }, "geometry": { "type": "LineString", "coordinates": [ [ 110.691921759723726, -6.490208276392302 ], [ 110.687698069469391, -6.491824109724647 ] ] } },
{ "type": "Feature", "properties": { }, "geometry": { "type": "LineString", "coordinates": [ [ 110.691812672141722, -6.489662681197776 ], [ 110.687419228713082, -6.490733887292865 ] ] } },
{ "type": "Feature", "properties": { }, "geometry": { "type": "LineString", "coordinates": [ [ 110.691372155834259, -6.489439439774376 ], [ 110.68692262194763, -6.488632480708715 ] ] } },
{ "type": "Feature", "properties": { }, "geometry": { "type": "LineString", "coordinates": [ [ 110.69175000257421, -6.489325853197606 ], [ 110.688231010785884, -6.486485217653938 ] ] } },
{ "type": "Feature", "properties": { }, "geometry": { "type": "LineString", "coordinates": [ [ 110.692052245629753, -6.488888176061629 ], [ 110.688838310781364, -6.485706358597579 ] ] } }
]
}
