{
"type": "FeatureCollection",
"name": "rois",
"crs": { "type": "name", "properties": { "name": "urn:ogc:def:crs:OGC:1.3:CRS84" } },
"features": [
{ "type": "Feature", "properties": { "id": "Jawa-18", "type": "roi", "session_origin": "ID_Jawa-18_datetime04-15-26__10_14_08" }, "geometry": { "type": "Polygon", "coordinates": [ [ [ 110.745234057882001, -6.4603511768837 ], [ 110.735008957456998, -6.42527525397415 ], [ 110.822867690674997, -6.3995372883699 ], [ 110.833148539781007, -6.43446430762533 ], [ 110.745234057882001, -6.4603511768837 ] ] ] } },
{ "type": "Feature", "properties": { "id": "Jawa-17", "type": "roi", "session_origin": "ID_Jawa-17_datetime04-07-26__11_43_53" }, "geometry": { "type": "Polygon", "coordinates": [ [ [ 110.702447383516002, -6.50675372993452 ], [ 110.672697506793, -6.4855517033228 ], [ 110.725744591156001, -6.41090996308025 ], [ 110.755440699155997, -6.43196210578835 ], [ 110.702447383516002, -6.50675372993452 ] ] ] } }
]
}
