{
"type": "FeatureCollection",
"name": "transects",
"crs": { "type": "name", "properties": { "name": "urn:ogc:def:crs:OGC:1.3:CRS84" } },
"features": [
{ "type": "Feature", "properties": { "id": "wkq1", "type": "transect", "transect_id": "ID_Jawa-18_datetime04-15-26__10_14_08_wkq1", "session_origin": "ID_Jawa-18_datetime04-15-26__10_14_08", "slope": 0.2, "trend_rate": -0.53838280141760586 }, "geometry": { "type": "LineString", "coordinates": [ [ 110.740275821467009, -6.444466326691983 ], [ 110.739601689093249, -6.439993838106917 ] ] } },
{ "type": "Feature", "properties": { "id": "wkq2", "type": "transect", "transect_id": "ID_Jawa-18_datetime04-15-26__10_14_08_wkq2", "session_origin": "ID_Jawa-18_datetime04-15-26__10_14_08", "slope": 0.2, "trend_rate": -0.25208662609878696 }, "geometry": { "type": "LineString", "coordinates": [ [ 110.741246325574579, -6.44431524474319 ], [ 110.740860406505632, -6.439808709375837 ] ] } },
{ "type": "Feature", "properties": { "id": "wkq3", "type": "transect", "transect_id": "ID_Jawa-18_datetime04-15-26__10_14_08_wkq3", "session_origin": "ID_Jawa-18_datetime04-15-26__10_14_08", "slope": 0.2, "trend_rate": -0.086544381252786406 }, "geometry": { "type": "LineString", "coordinates": [ [ 110.741428684867472, -6.444173715457409 ], [ 110.74291676039681, -6.439902627059741 ] ] } },
{ "type": "Feature", "properties": { "id": "wkq4", "type": "transect", "transect_id": "ID_Jawa-18_datetime04-15-26__10_14_08_wkq4", "session_origin": "ID_Jawa-18_datetime04-15-26__10_14_08", "slope": 0.2, "trend_rate": -0.080893447103310298 }, "geometry": { "type": "LineString", "coordinates": [ [ 110.741769458866784, -6.444625186932196 ], [ 110.744278760791843, -6.440862534865173 ] ] } },
{ "type": "Feature", "properties": { "id": "wkq5", "type": "transect", "transect_id": "ID_Jawa-18_datetime04-15-26__10_14_08_wkq5", "session_origin": "ID_Jawa-18_datetime04-15-26__10_14_08", "slope": 0.2, "trend_rate": 0.30031820713360308 }, "geometry": { "type": "LineString", "coordinates": [ [ 110.743368219366531, -6.445434421137583 ], [ 110.744676535889411, -6.441104850113986 ] ] } },
{ "type": "Feature", "properties": { "id": "wkq6", "type": "transect", "transect_id": "ID_Jawa-18_datetime04-15-26__10_14_08_wkq6", "session_origin": "ID_Jawa-18_datetime04-15-26__10_14_08", "slope": 0.2, "trend_rate": -0.013901892948358013 }, "geometry": { "type": "LineString", "coordinates": [ [ 110.745264640831252, -6.44564202305492 ], [ 110.745007686576699, -6.441126291687427 ] ] } },
{ "type": "Feature", "properties": { "id": "wkq7", "type": "transect", "transect_id": "ID_Jawa-18_datetime04-15-26__10_14_08_wkq7", "session_origin": "ID_Jawa-18_datetime04-15-26__10_14_08", "slope": 0.2, "trend_rate": 0.64928152969986763 }, "geometry": { "type": "LineString", "coordinates": [ [ 110.746857345257823, -6.445316900986734 ], [ 110.745610958917325, -6.440969085609678 ] ] } },
{ "type": "Feature", "properties": { "id": "wkq8", "type": "transect", "transect_id": "ID_Jawa-18_datetime04-15-26__10_14_08_wkq8", "session_origin": "ID_Jawa-18_datetime04-15-26__10_14_08", "slope": 0.2, "trend_rate": -0.067258002151229249 }, "geometry": { "type": "LineString", "coordinates": [ [ 110.748015632845096, -6.444908358592507 ], [ 110.746572876405196, -6.440621737647494 ] ] } },
{ "type": "Feature", "properties": { "id": "wkq9", "type": "transect", "transect_id": "ID_Jawa-18_datetime04-15-26__10_14_08_wkq9", "session_origin": "ID_Jawa-18_datetime04-15-26__10_14_08", "slope": 0.2, "trend_rate": -0.019995062747471051 }, "geometry": { "type": "LineString", "coordinates": [ [ 110.74896152027749, -6.444606906519319 ], [ 110.747760021671979, -6.440246465330871 ] ] } },
{ "type": "Feature", "properties": { "id": "wkq10", "type": "transect", "transect_id": "ID_Jawa-18_datetime04-15-26__10_14_08_wkq10", "session_origin": "ID_Jawa-18_datetime04-15-26__10_14_08", "slope": 0.2, "trend_rate": -0.071269421893669846 }, "geometry": { "type": "LineString", "coordinates": [ [ 110.749646206679486, -6.444435291544874 ], [ 110.749071497947867, -6.439948931959559 ] ] } },
{ "type": "Feature", "properties": { "id": "wkq11", "type": "transect", "transect_id": "ID_Jawa-18_datetime04-15-26__10_14_08_wkq11", "session_origin": "ID_Jawa-18_datetime04-15-26__10_14_08", "slope": 0.2, "trend_rate": 0.68748152302900201 }, "geometry": { "type": "LineString", "coordinates": [ [ 110.750466523040117, -6.444421306425819 ], [ 110.750021881498952, -6.439920185654184 ] ] } },
{ "type": "Feature", "properties": { "id": "wkq12", "type": "transect", "transect_id": "ID_Jawa-18_datetime04-15-26__10_14_08_wkq12", "session_origin": "ID_Jawa-18_datetime04-15-26__10_14_08", "slope": 0.2, "trend_rate": 0.47466486495632443 }, "geometry": { "type": "LineString", "coordinates": [ [ 110.751417529392199, -6.444245445750294 ], [ 110.751171842943251, -6.43972908461575 ] ] } },
{ "type": "Feature", "properties": { "id": "wkq13", "type": "transect", "transect_id": "ID_Jawa-18_datetime04-15-26__10_14_08_wkq13", "session_origin": "ID_Jawa-18_datetime04-15-26__10_14_08", "slope": 0.2, "trend_rate": 0.60639364470285728 }, "geometry": { "type": "LineString", "coordinates": [ [ 110.752296547153094, -6.444317697698828 ], [ 110.752539754958178, -6.439801201958588 ] ] } },
{ "type": "Feature", "properties": { "id": "wkq14", "type": "transect", "transect_id": "ID_Jawa-18_datetime04-15-26__10_14_08_wkq14", "session_origin": "ID_Jawa-18_datetime04-15-26__10_14_08", "slope": 0.2, "trend_rate": 4.4570733730805028 }, "geometry": { "type": "LineString", "coordinates": [ [ 110.753477840586655, -6.44436902972854 ], [ 110.753614203378987, -6.439848043488151 ] ] } },
{ "type": "Feature", "properties": { "id": "wkq15", "type": "transect", "transect_id": "ID_Jawa-18_datetime04-15-26__10_14_08_wkq15", "session_origin": "ID_Jawa-18_datetime04-15-26__10_14_08", "slope": 0.2, "trend_rate": 2.4012433495875931 }, "geometry": { "type": "LineString", "coordinates": [ [ 110.754613039897322, -6.444388239710081 ], [ 110.754735434345477, -6.439866853135061 ] ] } },
{ "type": "Feature", "properties": { "id": "wkq16", "type": "transect", "transect_id": "ID_Jawa-18_datetime04-15-26__10_14_08_wkq16", "session_origin": "ID_Jawa-18_datetime04-15-26__10_14_08", "slope": 0.2, "trend_rate": 0.60369562864024962 }, "geometry": { "type": "LineString", "coordinates": [ [ 110.756159297058304, -6.444402663870393 ], [ 110.755443867509399, -6.439936593510155 ] ] } },
{ "type": "Feature", "properties": { "id": "wkq17", "type": "transect", "transect_id": "ID_Jawa-18_datetime04-15-26__10_14_08_wkq17", "session_origin": "ID_Jawa-18_datetime04-15-26__10_14_08", "slope": 0.2, "trend_rate": -0.0045196275575081352 }, "geometry": { "type": "LineString", "coordinates": [ [ 110.757365472837122, -6.443986461317702 ], [ 110.756276875855178, -6.439596452116285 ] ] } },
{ "type": "Feature", "properties": { "id": "wkq18", "type": "transect", "transect_id": "ID_Jawa-18_datetime04-15-26__10_14_08_wkq18", "session_origin": "ID_Jawa-18_datetime04-15-26__10_14_08", "slope": 0.2, "trend_rate": -1.1595856700351037 }, "geometry": { "type": "LineString", "coordinates": [ [ 110.758050544049425, -6.443894118207611 ], [ 110.756929994789829, -6.439512160536879 ] ] } },
{ "type": "Feature", "properties": { "id": "wkq19", "type": "transect", "transect_id": "ID_Jawa-18_datetime04-15-26__10_14_08_wkq19", "session_origin": "ID_Jawa-18_datetime04-15-26__10_14_08", "slope": 0.2, "trend_rate": 1.1235703548837968 }, "geometry": { "type": "LineString", "coordinates": [ [ 110.759580052758679, -6.443302131223749 ], [ 110.757468009041915, -6.439302814587802 ] ] } },
{ "type": "Feature", "properties": { "id": "wkq20", "type": "transect", "transect_id": "ID_Jawa-18_datetime04-15-26__10_14_08_wkq20", "session_origin": "ID_Jawa-18_datetime04-15-26__10_14_08", "slope": 0.2, "trend_rate": 1.2546890575471428 }, "geometry": { "type": "LineString", "coordinates": [ [ 110.760735531057392, -6.442525958540068 ], [ 110.758174126559723, -6.438798600747274 ] ] } },
{ "type": "Feature", "properties": { "id": "wkq21", "type": "transect", "transect_id": "ID_Jawa-18_datetime04-15-26__10_14_08_wkq21", "session_origin": "ID_Jawa-18_datetime04-15-26__10_14_08", "slope": 0.2, "trend_rate": 0.35650712002167928 }, "geometry": { "type": "LineString", "coordinates": [ [ 110.761689994867595, -6.441869626269134 ], [ 110.759082671930514, -6.438174264365149 ] ] } },
{ "type": "Feature", "properties": { "id": "wkq22", "type": "transect", "transect_id": "ID_Jawa-18_datetime04-15-26__10_14_08_wkq22", "session_origin": "ID_Jawa-18_datetime04-15-26__10_14_08", "slope": 0.2, "trend_rate": -0.068068015403857624 }, "geometry": { "type": "LineString", "coordinates": [ [ 110.762478533277815, -6.441289886338715 ], [ 110.760116026030602, -6.437433318262586 ] ] } },
{ "type": "Feature", "properties": { "id": "wkq23", "type": "transect", "transect_id": "ID_Jawa-18_datetime04-15-26__10_14_08_wkq23", "session_origin": "ID_Jawa-18_datetime04-15-26__10_14_08", "slope": 0.2, "trend_rate": -0.22212839506217646 }, "geometry": { "type": "LineString", "coordinates": [ [ 110.763218170820622, -6.440915740177375 ], [ 110.761379267500743, -6.436783630991256 ] ] } },
{ "type": "Feature", "properties": { "id": "wkq24", "type": "transect", "transect_id": "ID_Jawa-18_datetime04-15-26__10_14_08_wkq24", "session_origin": "ID_Jawa-18_datetime04-15-26__10_14_08", "slope": 0.2, "trend_rate": 2.4274812224637476 }, "geometry": { "type": "LineString", "coordinates": [ [ 110.763646464896908, -6.440734069463257 ], [ 110.762605128498862, -6.436332602352557 ] ] } },
{ "type": "Feature", "properties": { "id": "wkq25", "type": "transect", "transect_id": "ID_Jawa-18_datetime04-15-26__10_14_08_wkq25", "session_origin": "ID_Jawa-18_datetime04-15-26__10_14_08", "slope": 0.2, "trend_rate": 0.05196642772003441 }, "geometry": { "type": "LineString", "coordinates": [ [ 110.764661540145937, -6.440637792782326 ], [ 110.763701059680756, -6.436217965491697 ] ] } },
{ "type": "Feature", "properties": { "id": "wkq26", "type": "transect", "transect_id": "ID_Jawa-18_datetime04-15-26__10_14_08_wkq26", "session_origin": "ID_Jawa-18_datetime04-15-26__10_14_08", "slope": 0.2, "trend_rate": -0.035328545106884435 }, "geometry": { "type": "LineString", "coordinates": [ [ 110.766170029177346, -6.440128703467014 ], [ 110.764319776637066, -6.436001666891078 ] ] } },
{ "type": "Feature", "properties": { "id": "wkq27", "type": "transect", "transect_id": "ID_Jawa-18_datetime04-15-26__10_14_08_wkq27", "session_origin": "ID_Jawa-18_datetime04-15-26__10_14_08", "slope": 0.2, "trend_rate": -2.1013402613868459 }, "geometry": { "type": "LineString", "coordinates": [ [ 110.767436331304197, -6.439420488907101 ], [ 110.765017113906254, -6.435599264720096 ] ] } },
{ "type": "Feature", "properties": { "id": "wkq28", "type": "transect", "transect_id": "ID_Jawa-18_datetime04-15-26__10_14_08_wkq28", "session_origin": "ID_Jawa-18_datetime04-15-26__10_14_08", "slope": 0.2, "trend_rate": -2.7821883274254384 }, "geometry": { "type": "LineString", "coordinates": [ [ 110.768530084415545, -6.438649505125911 ], [ 110.765770622254635, -6.435066400940274 ] ] } },
{ "type": "Feature", "properties": { "id": "wkq29", "type": "transect", "transect_id": "ID_Jawa-18_datetime04-15-26__10_14_08_wkq29", "session_origin": "ID_Jawa-18_datetime04-15-26__10_14_08", "slope": 0.2, "trend_rate": -2.3888654937640816 }, "geometry": { "type": "LineString", "coordinates": [ [ 110.769412010598955, -6.437909953128685 ], [ 110.766619624822795, -6.434352465700209 ] ] } },
{ "type": "Feature", "properties": { "id": "wkq30", "type": "transect", "transect_id": "ID_Jawa-18_datetime04-15-26__10_14_08_wkq30", "session_origin": "ID_Jawa-18_datetime04-15-26__10_14_08", "slope": 0.2, "trend_rate": 0.78355236741868117 }, "geometry": { "type": "LineString", "coordinates": [ [ 110.770276727731186, -6.437276812578229 ], [ 110.767575910428363, -6.433649276574801 ] ] } },
{ "type": "Feature", "properties": { "id": "wkq31", "type": "transect", "transect_id": "ID_Jawa-18_datetime04-15-26__10_14_08_wkq31", "session_origin": "ID_Jawa-18_datetime04-15-26__10_14_08", "slope": 0.2, "trend_rate": -0.23205693673512071 }, "geometry": { "type": "LineString", "coordinates": [ [ 110.771168109404059, -6.436602530645531 ], [ 110.768487293122334, -6.432960181564473 ] ] } },
{ "type": "Feature", "properties": { "id": "wkq32", "type": "transect", "transect_id": "ID_Jawa-18_datetime04-15-26__10_14_08_wkq32", "session_origin": "ID_Jawa-18_datetime04-15-26__10_14_08", "slope": 0.2, "trend_rate": -0.045133117198373568 }, "geometry": { "type": "LineString", "coordinates": [ [ 110.772051351589496, -6.435969370892007 ], [ 110.769441162678632, -6.432276050390159 ] ] } },
{ "type": "Feature", "properties": { "id": "wkq33", "type": "transect", "transect_id": "ID_Jawa-18_datetime04-15-26__10_14_08_wkq33", "session_origin": "ID_Jawa-18_datetime04-15-26__10_14_08", "slope": 0.2, "trend_rate": -0.2351716846971649 }, "geometry": { "type": "LineString", "coordinates": [ [ 110.772400452290569, -6.435617734405303 ], [ 110.770945110011866, -6.431335371580963 ] ] } },
{ "type": "Feature", "properties": { "id": "wkq34", "type": "transect", "transect_id": "ID_Jawa-18_datetime04-15-26__10_14_08_wkq34", "session_origin": "ID_Jawa-18_datetime04-15-26__10_14_08", "slope": 0.2, "trend_rate": -0.62319118064927248 }, "geometry": { "type": "LineString", "coordinates": [ [ 110.772933971224219, -6.435677717754444 ], [ 110.772454488977019, -6.43118016907282 ] ] } },
{ "type": "Feature", "properties": { "id": "wkq35", "type": "transect", "transect_id": "ID_Jawa-18_datetime04-15-26__10_14_08_wkq35", "session_origin": "ID_Jawa-18_datetime04-15-26__10_14_08", "slope": 0.2, "trend_rate": 0.15726306752234656 }, "geometry": { "type": "LineString", "coordinates": [ [ 110.774410895815564, -6.435414536971762 ], [ 110.773084943617476, -6.431090333566811 ] ] } },
{ "type": "Feature", "properties": { "id": "wkq36", "type": "transect", "transect_id": "ID_Jawa-18_datetime04-15-26__10_14_08_wkq36", "session_origin": "ID_Jawa-18_datetime04-15-26__10_14_08", "slope": 0.2, "trend_rate": 1.9024994012276739 }, "geometry": { "type": "LineString", "coordinates": [ [ 110.775784290259253, -6.434805777026671 ], [ 110.773767190391624, -6.430757724687291 ] ] } },
{ "type": "Feature", "properties": { "id": "wkq37", "type": "transect", "transect_id": "ID_Jawa-18_datetime04-15-26__10_14_08_wkq37", "session_origin": "ID_Jawa-18_datetime04-15-26__10_14_08", "slope": 0.2, "trend_rate": 1.5827126558059932 }, "geometry": { "type": "LineString", "coordinates": [ [ 110.776953954895859, -6.434170846340906 ], [ 110.774586130024176, -6.430317556646049 ] ] } },
{ "type": "Feature", "properties": { "id": "wkq38", "type": "transect", "transect_id": "ID_Jawa-18_datetime04-15-26__10_14_08_wkq38", "session_origin": "ID_Jawa-18_datetime04-15-26__10_14_08", "slope": 0.2, "trend_rate": 0.72840600762908747 }, "geometry": { "type": "LineString", "coordinates": [ [ 110.77793975841189, -6.433489818211718 ], [ 110.775448178286496, -6.429715421615013 ] ] } },
{ "type": "Feature", "properties": { "id": "wkq39", "type": "transect", "transect_id": "ID_Jawa-18_datetime04-15-26__10_14_08_wkq39", "session_origin": "ID_Jawa-18_datetime04-15-26__10_14_08", "slope": 0.2, "trend_rate": 1.0724290890868959 }, "geometry": { "type": "LineString", "coordinates": [ [ 110.778865720359761, -6.432909181878988 ], [ 110.77642646156545, -6.429100742314726 ] ] } },
{ "type": "Feature", "properties": { "id": "wkq40", "type": "transect", "transect_id": "ID_Jawa-18_datetime04-15-26__10_14_08_wkq40", "session_origin": "ID_Jawa-18_datetime04-15-26__10_14_08", "slope": 0.2, "trend_rate": 1.2713314805109326 }, "geometry": { "type": "LineString", "coordinates": [ [ 110.779956093312634, -6.432188150180795 ], [ 110.77720136138656, -6.42860142717814 ] ] } },
{ "type": "Feature", "properties": { "id": "wkq41", "type": "transect", "transect_id": "ID_Jawa-18_datetime04-15-26__10_14_08_wkq41", "session_origin": "ID_Jawa-18_datetime04-15-26__10_14_08", "slope": 0.2, "trend_rate": 0.16130591594955657 }, "geometry": { "type": "LineString", "coordinates": [ [ 110.780897224545399, -6.431352152200859 ], [ 110.777943096967917, -6.427927899761299 ] ] } },
{ "type": "Feature", "properties": { "id": "wkq42", "type": "transect", "transect_id": "ID_Jawa-18_datetime04-15-26__10_14_08_wkq42", "session_origin": "ID_Jawa-18_datetime04-15-26__10_14_08", "slope": 0.2, "trend_rate": 0.17295640718444957 }, "geometry": { "type": "LineString", "coordinates": [ [ 110.781711477910662, -6.430676098466173 ], [ 110.778868179964405, -6.427159221017241 ] ] } },
{ "type": "Feature", "properties": { "id": "wkq43", "type": "transect", "transect_id": "ID_Jawa-18_datetime04-15-26__10_14_08_wkq43", "session_origin": "ID_Jawa-18_datetime04-15-26__10_14_08", "slope": 0.2, "trend_rate": -0.021724177043019467 }, "geometry": { "type": "LineString", "coordinates": [ [ 110.782223931016404, -6.430222962165104 ], [ 110.7801315297625, -6.426213345525928 ] ] } },
{ "type": "Feature", "properties": { "id": "wkq44", "type": "transect", "transect_id": "ID_Jawa-18_datetime04-15-26__10_14_08_wkq44", "session_origin": "ID_Jawa-18_datetime04-15-26__10_14_08", "slope": 0.2, "trend_rate": 0.15860909399325876 }, "geometry": { "type": "LineString", "coordinates": [ [ 110.783063479371776, -6.429993832590986 ], [ 110.781276193542979, -6.425839130506849 ] ] } },
{ "type": "Feature", "properties": { "id": "wkq45", "type": "transect", "transect_id": "ID_Jawa-18_datetime04-15-26__10_14_08_wkq45", "session_origin": "ID_Jawa-18_datetime04-15-26__10_14_08", "slope": 0.2, "trend_rate": -0.35724558142985813 }, "geometry": { "type": "LineString", "coordinates": [ [ 110.784435464215662, -6.429218613849335 ], [ 110.781865868957993, -6.425496936568647 ] ] } },
{ "type": "Feature", "properties": { "id": "wkq46", "type": "transect", "transect_id": "ID_Jawa-18_datetime04-15-26__10_14_08_wkq46", "session_origin": "ID_Jawa-18_datetime04-15-26__10_14_08", "slope": 0.2, "trend_rate": 0.59301870172991755 }, "geometry": { "type": "LineString", "coordinates": [ [ 110.785843735563844, -6.427973479717997 ], [ 110.782191438168837, -6.42530702635061 ] ] } },
{ "type": "Feature", "properties": { "id": "wkq47", "type": "transect", "transect_id": "ID_Jawa-18_datetime04-15-26__10_14_08_wkq47", "session_origin": "ID_Jawa-18_datetime04-15-26__10_14_08", "slope": 0.2, "trend_rate": 0.076875902935325049 }, "geometry": { "type": "LineString", "coordinates": [ [ 110.785995786837091, -6.427266667800903 ], [ 110.78283286757528, -6.424034431552994 ] ] } },
{ "type": "Feature", "properties": { "id": "wkq48", "type": "transect", "transect_id": "ID_Jawa-18_datetime04-15-26__10_14_08_wkq48", "session_origin": "ID_Jawa-18_datetime04-15-26__10_14_08", "slope": 0.2, "trend_rate": -0.30236813983660787 }, "geometry": { "type": "LineString", "coordinates": [ [ 110.785393950408036, -6.427579828401417 ], [ 110.785186780018819, -6.423061522091678 ] ] } },
{ "type": "Feature", "properties": { "id": "wkq49", "type": "transect", "transect_id": "ID_Jawa-18_datetime04-15-26__10_14_08_wkq49", "session_origin": "ID_Jawa-18_datetime04-15-26__10_14_08", "slope": 0.2, "trend_rate": -1.5710385558880402 }, "geometry": { "type": "LineString", "coordinates": [ [ 110.78578369967353, -6.427801850446365 ], [ 110.786972627348518, -6.423437958065257 ] ] } },
{ "type": "Feature", "properties": { "id": "wkq50", "type": "transect", "transect_id": "ID_Jawa-18_datetime04-15-26__10_14_08_wkq50", "session_origin": "ID_Jawa-18_datetime04-15-26__10_14_08", "slope": 0.2, "trend_rate": -1.3585361793092114 }, "geometry": { "type": "LineString", "coordinates": [ [ 110.786910851936952, -6.428106146303871 ], [ 110.788026651922621, -6.423722972605291 ] ] } },
{ "type": "Feature", "properties": { "id": "wkq51", "type": "transect", "transect_id": "ID_Jawa-18_datetime04-15-26__10_14_08_wkq51", "session_origin": "ID_Jawa-18_datetime04-15-26__10_14_08", "slope": 0.2, "trend_rate": -1.5023295855749155 }, "geometry": { "type": "LineString", "coordinates": [ [ 110.788137988703852, -6.428397965038835 ], [ 110.788998172107995, -6.423957509754941 ] ] } },
{ "type": "Feature", "properties": { "id": "wkq52", "type": "transect", "transect_id": "ID_Jawa-18_datetime04-15-26__10_14_08_wkq52", "session_origin": "ID_Jawa-18_datetime04-15-26__10_14_08", "slope": 0.2, "trend_rate": -1.7265712942074576 }, "geometry": { "type": "LineString", "coordinates": [ [ 110.789148508618638, -6.42854213963675 ], [ 110.790199995142203, -6.424143083311986 ] ] } },
{ "type": "Feature", "properties": { "id": "wkq53", "type": "transect", "transect_id": "ID_Jawa-18_datetime04-15-26__10_14_08_wkq53", "session_origin": "ID_Jawa-18_datetime04-15-26__10_14_08", "slope": 0.2, "trend_rate": -1.6013916966460993 }, "geometry": { "type": "LineString", "coordinates": [ [ 110.790058504445241, -6.42885399860437 ], [ 110.791421947120085, -6.424541475868329 ] ] } },
{ "type": "Feature", "properties": { "id": "wkq54", "type": "transect", "transect_id": "ID_Jawa-18_datetime04-15-26__10_14_08_wkq54", "session_origin": "ID_Jawa-18_datetime04-15-26__10_14_08", "slope": 0.2, "trend_rate": -0.98807777525958917 }, "geometry": { "type": "LineString", "coordinates": [ [ 110.791391017126656, -6.429237919146128 ], [ 110.792180443833047, -6.424784330673801 ] ] } },
{ "type": "Feature", "properties": { "id": "wkq55", "type": "transect", "transect_id": "ID_Jawa-18_datetime04-15-26__10_14_08_wkq55", "session_origin": "ID_Jawa-18_datetime04-15-26__10_14_08", "slope": 0.2, "trend_rate": -0.58323898077729097 }, "geometry": { "type": "LineString", "coordinates": [ [ 110.792893997298989, -6.429340178087219 ], [ 110.79293349391159, -6.424817292274025 ] ] } },
{ "type": "Feature", "properties": { "id": "wkq56", "type": "transect", "transect_id": "ID_Jawa-18_datetime04-15-26__10_14_08_wkq56", "session_origin": "ID_Jawa-18_datetime04-15-26__10_14_08", "slope": 0.2, "trend_rate": -0.024095805371070433 }, "geometry": { "type": "LineString", "coordinates": [ [ 110.794258993118746, -6.42928159196394 ], [ 110.793811447655898, -6.424780744099818 ] ] } },
{ "type": "Feature", "properties": { "id": "wkq57", "type": "transect", "transect_id": "ID_Jawa-18_datetime04-15-26__10_14_08_wkq57", "session_origin": "ID_Jawa-18_datetime04-15-26__10_14_08", "slope": 0.2, "trend_rate": -0.01504417253550479 }, "geometry": { "type": "LineString", "coordinates": [ [ 110.795837454466991, -6.429005044172092 ], [ 110.794400447163596, -6.424716487890796 ] ] } },
{ "type": "Feature", "properties": { "id": "wkq58", "type": "transect", "transect_id": "ID_Jawa-18_datetime04-15-26__10_14_08_wkq58", "session_origin": "ID_Jawa-18_datetime04-15-26__10_14_08", "slope": 0.2, "trend_rate": 0.21059458600907369 }, "geometry": { "type": "LineString", "coordinates": [ [ 110.796346349957929, -6.428593333565455 ], [ 110.795810185871346, -6.424102186192028 ] ] } },
{ "type": "Feature", "properties": { "id": "wkq59", "type": "transect", "transect_id": "ID_Jawa-18_datetime04-15-26__10_14_08_wkq59", "session_origin": "ID_Jawa-18_datetime04-15-26__10_14_08", "slope": 0.2, "trend_rate": -0.39882399821161535 }, "geometry": { "type": "LineString", "coordinates": [ [ 110.796138804821823, -6.428676997218253 ], [ 110.797866105433542, -6.424496981024782 ] ] } },
{ "type": "Feature", "properties": { "id": "wkq60", "type": "transect", "transect_id": "ID_Jawa-18_datetime04-15-26__10_14_08_wkq60", "session_origin": "ID_Jawa-18_datetime04-15-26__10_14_08", "slope": 0.2, "trend_rate": -0.86713109688742851 }, "geometry": { "type": "LineString", "coordinates": [ [ 110.7970670610421, -6.429223675028195 ], [ 110.798814280962787, -6.425051950215121 ] ] } },
{ "type": "Feature", "properties": { "id": "wkq61", "type": "transect", "transect_id": "ID_Jawa-18_datetime04-15-26__10_14_08_wkq61", "session_origin": "ID_Jawa-18_datetime04-15-26__10_14_08", "slope": 0.2, "trend_rate": -0.64169487234700828 }, "geometry": { "type": "LineString", "coordinates": [ [ 110.798801571780061, -6.429680485495494 ], [ 110.7992538839963, -6.425180113116144 ] ] } },
{ "type": "Feature", "properties": { "id": "wkq62", "type": "transect", "transect_id": "ID_Jawa-18_datetime04-15-26__10_14_08_wkq62", "session_origin": "ID_Jawa-18_datetime04-15-26__10_14_08", "slope": 0.2, "trend_rate": -0.28099110875480743 }, "geometry": { "type": "LineString", "coordinates": [ [ 110.800473354152331, -6.429598601230401 ], [ 110.799829411646542, -6.425121644558255 ] ] } },
{ "type": "Feature", "properties": { "id": "wkq63", "type": "transect", "transect_id": "ID_Jawa-18_datetime04-15-26__10_14_08_wkq63", "session_origin": "ID_Jawa-18_datetime04-15-26__10_14_08", "slope": 0.2, "trend_rate": -1.5753931847284735 }, "geometry": { "type": "LineString", "coordinates": [ [ 110.801510364571541, -6.429357013249239 ], [ 110.8009870328831, -6.424864350109712 ] ] } },
{ "type": "Feature", "properties": { "id": "wkq64", "type": "transect", "transect_id": "ID_Jawa-18_datetime04-15-26__10_14_08_wkq64", "session_origin": "ID_Jawa-18_datetime04-15-26__10_14_08", "slope": 0.2, "trend_rate": -0.2018618313000291 }, "geometry": { "type": "LineString", "coordinates": [ [ 110.802064784671671, -6.429346900388992 ], [ 110.802602210726093, -6.424855902256319 ] ] } },
{ "type": "Feature", "properties": { "id": "wkq65", "type": "transect", "transect_id": "ID_Jawa-18_datetime04-15-26__10_14_08_wkq65", "session_origin": "ID_Jawa-18_datetime04-15-26__10_14_08", "slope": 0.2, "trend_rate": -0.75760667038893237 }, "geometry": { "type": "LineString", "coordinates": [ [ 110.802927128850968, -6.4295824324262 ], [ 110.803915857599407, -6.42516883327996 ] ] } },
{ "type": "Feature", "properties": { "id": "wkq66", "type": "transect", "transect_id": "ID_Jawa-18_datetime04-15-26__10_14_08_wkq66", "session_origin": "ID_Jawa-18_datetime04-15-26__10_14_08", "slope": 0.2, "trend_rate": -1.1971255853069473 }, "geometry": { "type": "LineString", "coordinates": [ [ 110.804772316630959, -6.429832713595685 ], [ 110.804227521423613, -6.425342603461996 ] ] } },
{ "type": "Feature", "properties": { "id": "wkq67", "type": "transect", "transect_id": "ID_Jawa-18_datetime04-15-26__10_14_08_wkq67", "session_origin": "ID_Jawa-18_datetime04-15-26__10_14_08", "slope": 0.2, "trend_rate": -0.89143901444376672 }, "geometry": { "type": "LineString", "coordinates": [ [ 110.806597549276177, -6.429100949787493 ], [ 110.804445630782837, -6.425122973631486 ] ] } },
{ "type": "Feature", "properties": { "id": "wkq68", "type": "transect", "transect_id": "ID_Jawa-18_datetime04-15-26__10_14_08_wkq68", "session_origin": "ID_Jawa-18_datetime04-15-26__10_14_08", "slope": 0.2, "trend_rate": -0.18421631531702051 }, "geometry": { "type": "LineString", "coordinates": [ [ 110.807790252801098, -6.428358789951961 ], [ 110.805171986583431, -6.424671208679384 ] ] } },
{ "type": "Feature", "properties": { "id": "wkq69", "type": "transect", "transect_id": "ID_Jawa-18_datetime04-15-26__10_14_08_wkq69", "session_origin": "ID_Jawa-18_datetime04-15-26__10_14_08", "slope": 0.2, "trend_rate": -0.66472450452741494 }, "geometry": { "type": "LineString", "coordinates": [ [ 110.808146605953866, -6.427927331614252 ], [ 110.806567623239317, -6.423689023190468 ] ] } },
{ "type": "Feature", "properties": { "id": "wkq70", "type": "transect", "transect_id": "ID_Jawa-18_datetime04-15-26__10_14_08_wkq70", "session_origin": "ID_Jawa-18_datetime04-15-26__10_14_08", "slope": 0.2, "trend_rate": -1.1006559775097762 }, "geometry": { "type": "LineString", "coordinates": [ [ 110.807521569130643, -6.427897892112073 ], [ 110.809082353049405, -6.423652843458701 ] ] } },
{ "type": "Feature", "properties": { "id": "wkq71", "type": "transect", "transect_id": "ID_Jawa-18_datetime04-15-26__10_14_08_wkq71", "session_origin": "ID_Jawa-18_datetime04-15-26__10_14_08", "slope": 0.2, "trend_rate": 0.37978331469851778 }, "geometry": { "type": "LineString", "coordinates": [ [ 110.808108317550037, -6.428527163202581 ], [ 110.810050563937438, -6.424442644841145 ] ] } },
{ "type": "Feature", "properties": { "id": "wkq72", "type": "transect", "transect_id": "ID_Jawa-18_datetime04-15-26__10_14_08_wkq72", "session_origin": "ID_Jawa-18_datetime04-15-26__10_14_08", "slope": 0.2, "trend_rate": -1.2907771404055259 }, "geometry": { "type": "LineString", "coordinates": [ [ 110.810175082452957, -6.428913028707855 ], [ 110.810212528421033, -6.424390120668827 ] ] } },
{ "type": "Feature", "properties": { "id": "wkq73", "type": "transect", "transect_id": "ID_Jawa-18_datetime04-15-26__10_14_08_wkq73", "session_origin": "ID_Jawa-18_datetime04-15-26__10_14_08", "slope": 0.2, "trend_rate": -0.62849828162164478 }, "geometry": { "type": "LineString", "coordinates": [ [ 110.811898624496735, -6.42868520865025 ], [ 110.810695451122328, -6.424325217505286 ] ] } },
{ "type": "Feature", "properties": { "id": "wkq74", "type": "transect", "transect_id": "ID_Jawa-18_datetime04-15-26__10_14_08_wkq74", "session_origin": "ID_Jawa-18_datetime04-15-26__10_14_08", "slope": 0.2, "trend_rate": -1.2131726560453429 }, "geometry": { "type": "LineString", "coordinates": [ [ 110.81320931829444, -6.428143417655055 ], [ 110.811459304426947, -6.423972862091873 ] ] } },
{ "type": "Feature", "properties": { "id": "wkq75", "type": "transect", "transect_id": "ID_Jawa-18_datetime04-15-26__10_14_08_wkq75", "session_origin": "ID_Jawa-18_datetime04-15-26__10_14_08", "slope": 0.2, "trend_rate": -0.96989810368704865 }, "geometry": { "type": "LineString", "coordinates": [ [ 110.814082693232749, -6.427780307745021 ], [ 110.812672655894261, -6.423482798388219 ] ] } },
{ "type": "Feature", "properties": { "id": "wkq76", "type": "transect", "transect_id": "ID_Jawa-18_datetime04-15-26__10_14_08_wkq76", "session_origin": "ID_Jawa-18_datetime04-15-26__10_14_08", "slope": 0.2, "trend_rate": -1.2606404584090722 }, "geometry": { "type": "LineString", "coordinates": [ [ 110.815175882277927, -6.427505626605361 ], [ 110.813771298385404, -6.423206330497197 ] ] } },
{ "type": "Feature", "properties": { "id": "wkq77", "type": "transect", "transect_id": "ID_Jawa-18_datetime04-15-26__10_14_08_wkq77", "session_origin": "ID_Jawa-18_datetime04-15-26__10_14_08", "slope": 0.2, "trend_rate": -1.0806628863262542 }, "geometry": { "type": "LineString", "coordinates": [ [ 110.816407719546845, -6.427011157695499 ], [ 110.814634279050992, -6.422850516938133 ] ] } },
{ "type": "Feature", "properties": { "id": "wkq78", "type": "transect", "transect_id": "ID_Jawa-18_datetime04-15-26__10_14_08_wkq78", "session_origin": "ID_Jawa-18_datetime04-15-26__10_14_08", "slope": 0.2, "trend_rate": 0.3332341703396704 }, "geometry": { "type": "LineString", "coordinates": [ [ 110.817565236664919, -6.426491212251825 ], [ 110.815539887193836, -6.422447285813181 ] ] } },
{ "type": "Feature", "properties": { "id": "wkq79", "type": "transect", "transect_id": "ID_Jawa-18_datetime04-15-26__10_14_08_wkq79", "session_origin": "ID_Jawa-18_datetime04-15-26__10_14_08", "slope": 0.2, "trend_rate": -0.42655040881820372 }, "geometry": { "type": "LineString", "coordinates": [ [ 110.818726495496819, -6.425843870260777 ], [ 110.816348934005106, -6.421996593439845 ] ] } },
{ "type": "Feature", "properties": { "id": "wkq80", "type": "transect", "transect_id": "ID_Jawa-18_datetime04-15-26__10_14_08_wkq80", "session_origin": "ID_Jawa-18_datetime04-15-26__10_14_08", "slope": 0.2, "trend_rate": -0.44628430183666146 }, "geometry": { "type": "LineString", "coordinates": [ [ 110.819739453629808, -6.425154784487231 ], [ 110.817202984368549, -6.421410438705997 ] ] } },
{ "type": "Feature", "properties": { "id": "wkq81", "type": "transect", "transect_id": "ID_Jawa-18_datetime04-15-26__10_14_08_wkq81", "session_origin": "ID_Jawa-18_datetime04-15-26__10_14_08", "slope": 0.2, "trend_rate": 0.46650951064007112 }, "geometry": { "type": "LineString", "coordinates": [ [ 110.82068070717861, -6.424521560760733 ], [ 110.818137744051086, -6.420781626956098 ] ] } },
{ "type": "Feature", "properties": { "id": "wkq82", "type": "transect", "transect_id": "ID_Jawa-18_datetime04-15-26__10_14_08_wkq82", "session_origin": "ID_Jawa-18_datetime04-15-26__10_14_08", "slope": 0.2, "trend_rate": -0.51262847342984974 }, "geometry": { "type": "LineString", "coordinates": [ [ 110.821692460357667, -6.423823314307659 ], [ 110.818987874641735, -6.420198621927683 ] ] } },
{ "type": "Feature", "properties": { "id": "wkq83", "type": "transect", "transect_id": "ID_Jawa-18_datetime04-15-26__10_14_08_wkq83", "session_origin": "ID_Jawa-18_datetime04-15-26__10_14_08", "slope": 0.2, "trend_rate": 1.2309500566693636 }, "geometry": { "type": "LineString", "coordinates": [ [ 110.822596009368141, -6.423093916688441 ], [ 110.819842372670863, -6.419506373790649 ] ] } },
{ "type": "Feature", "properties": { "id": "wkq84", "type": "transect", "transect_id": "ID_Jawa-18_datetime04-15-26__10_14_08_wkq84", "session_origin": "ID_Jawa-18_datetime04-15-26__10_14_08", "slope": 0.2, "trend_rate": 1.5318154069828946 }, "geometry": { "type": "LineString", "coordinates": [ [ 110.823466560789612, -6.42246012598994 ], [ 110.820796741942388, -6.418809737016423 ] ] } },
{ "type": "Feature", "properties": { "id": "wkq85", "type": "transect", "transect_id": "ID_Jawa-18_datetime04-15-26__10_14_08_wkq85", "session_origin": "ID_Jawa-18_datetime04-15-26__10_14_08", "slope": 0.2, "trend_rate": 0.98644421980263042 }, "geometry": { "type": "LineString", "coordinates": [ [ 110.824434050793485, -6.421747935309298 ], [ 110.821645774948138, -6.418187270865281 ] ] } },
{ "type": "Feature", "properties": { "id": "wkq86", "type": "transect", "transect_id": "ID_Jawa-18_datetime04-15-26__10_14_08_wkq86", "session_origin": "ID_Jawa-18_datetime04-15-26__10_14_08", "slope": 0.2, "trend_rate": 0.40305275688108422 }, "geometry": { "type": "LineString", "coordinates": [ [ 110.825182446577585, -6.421110802370386 ], [ 110.822632884186902, -6.417375377039369 ] ] } },
{ "type": "Feature", "properties": { "id": "wkq87", "type": "transect", "transect_id": "ID_Jawa-18_datetime04-15-26__10_14_08_wkq87", "session_origin": "ID_Jawa-18_datetime04-15-26__10_14_08", "slope": 0.2, "trend_rate": 0.38620659347539588 }, "geometry": { "type": "LineString", "coordinates": [ [ 110.826287627236795, -6.420480779361697 ], [ 110.823494846911942, -6.416923653969114 ] ] } },
{ "type": "Feature", "properties": { "id": "wkq88", "type": "transect", "transect_id": "ID_Jawa-18_datetime04-15-26__10_14_08_wkq88", "session_origin": "ID_Jawa-18_datetime04-15-26__10_14_08", "slope": 0.2, "trend_rate": 0.045572165846146331 }, "geometry": { "type": "LineString", "coordinates": [ [ 110.827139488876384, -6.41957678170402 ], [ 110.824147265041404, -6.416185832444894 ] ] } },
{ "type": "Feature", "properties": { "id": "wkq89", "type": "transect", "transect_id": "ID_Jawa-18_datetime04-15-26__10_14_08_wkq89", "session_origin": "ID_Jawa-18_datetime04-15-26__10_14_08", "slope": 0.2, "trend_rate": -0.54004198633596445 }, "geometry": { "type": "LineString", "coordinates": [ [ 110.82794851812136, -6.419015236883058 ], [ 110.825180911942851, -6.415438481841813 ] ] } },
{ "type": "Feature", "properties": { "id": "wkq90", "type": "transect", "transect_id": "ID_Jawa-18_datetime04-15-26__10_14_08_wkq90", "session_origin": "ID_Jawa-18_datetime04-15-26__10_14_08", "slope": 0.2, "trend_rate": -0.59038707178669592 }, "geometry": { "type": "LineString", "coordinates": [ [ 110.828885222364988, -6.418228550178247 ], [ 110.8259725021055, -6.414769029121115 ] ] } },
{ "type": "Feature", "properties": { "id": "1", "type": "transect", "transect_id": "ID_Jawa-17_datetime04-07-26__11_43_53_1", "session_origin": "ID_Jawa-17_datetime04-07-26__11_43_53", "slope": null, "trend_rate": null }, "geometry": { "type": "LineString", "coordinates": [ [ 110.692671389703065, -6.499357989555714 ], [ 110.688628954682542, -6.497330609496946 ] ] } },
{ "type": "Feature", "properties": { "id": "2", "type": "transect", "transect_id": "ID_Jawa-17_datetime04-07-26__11_43_53_2", "session_origin": "ID_Jawa-17_datetime04-07-26__11_43_53", "slope": 0.2, "trend_rate": -0.41462114293547103 }, "geometry": { "type": "LineString", "coordinates": [ [ 110.693522904613772, -6.498181841592454 ], [ 110.689215622730927, -6.49680416481361 ] ] } },
{ "type": "Feature", "properties": { "id": "3", "type": "transect", "transect_id": "ID_Jawa-17_datetime04-07-26__11_43_53_3", "session_origin": "ID_Jawa-17_datetime04-07-26__11_43_53", "slope": 0.2, "trend_rate": -0.77697364360615961 }, "geometry": { "type": "LineString", "coordinates": [ [ 110.693737611772207, -6.496731714310663 ], [ 110.689261182535731, -6.496090145790215 ] ] } },
{ "type": "Feature", "properties": { "id": "4", "type": "transect", "transect_id": "ID_Jawa-17_datetime04-07-26__11_43_53_4", "session_origin": "ID_Jawa-17_datetime04-07-26__11_43_53", "slope": null, "trend_rate": null }, "geometry": { "type": "LineString", "coordinates": [ [ 110.693945112201348, -6.495329120596222 ], [ 110.68942333532523, -6.495271508567031 ] ] } },
{ "type": "Feature", "properties": { "id": "5", "type": "transect", "transect_id": "ID_Jawa-17_datetime04-07-26__11_43_53_5", "session_origin": "ID_Jawa-17_datetime04-07-26__11_43_53", "slope": 0.2, "trend_rate": -0.22895106366489765 }, "geometry": { "type": "LineString", "coordinates": [ [ 110.693792278184404, -6.494057501547296 ], [ 110.689299365449529, -6.494570864050872 ] ] } },
{ "type": "Feature", "properties": { "id": "6", "type": "transect", "transect_id": "ID_Jawa-17_datetime04-07-26__11_43_53_6", "session_origin": "ID_Jawa-17_datetime04-07-26__11_43_53", "slope": 0.2, "trend_rate": -0.30785377527119018 }, "geometry": { "type": "LineString", "coordinates": [ [ 110.693077976822295, -6.493035703852829 ], [ 110.688629582016091, -6.49384913671981 ] ] } },
{ "type": "Feature", "properties": { "id": "7", "type": "transect", "transect_id": "ID_Jawa-17_datetime04-07-26__11_43_53_7", "session_origin": "ID_Jawa-17_datetime04-07-26__11_43_53", "slope": 0.2, "trend_rate": 0.29689880212932646 }, "geometry": { "type": "LineString", "coordinates": [ [ 110.692670469276393, -6.491956510915807 ], [ 110.68831327329103, -6.493166874139917 ] ] } },
{ "type": "Feature", "properties": { "id": "8", "type": "transect", "transect_id": "ID_Jawa-17_datetime04-07-26__11_43_53_8", "session_origin": "ID_Jawa-17_datetime04-07-26__11_43_53", "slope": 0.082, "trend_rate": 1.172989076724523 }, "geometry": { "type": "LineString", "coordinates": [ [ 110.692282144536819, -6.491057175624733 ], [ 110.687876789252357, -6.492078320426057 ] ] } },
{ "type": "Feature", "properties": { "id": "9", "type": "transect", "transect_id": "ID_Jawa-17_datetime04-07-26__11_43_53_9", "session_origin": "ID_Jawa-17_datetime04-07-26__11_43_53", "slope": 0.2, "trend_rate": -0.35444743755300784 }, "geometry": { "type": "LineString", "coordinates": [ [ 110.692016185816897, -6.490249902881109 ], [ 110.687529332683312, -6.490813523870772 ] ] } },
{ "type": "Feature", "properties": { "id": "10", "type": "transect", "transect_id": "ID_Jawa-17_datetime04-07-26__11_43_53_10", "session_origin": "ID_Jawa-17_datetime04-07-26__11_43_53", "slope": null, "trend_rate": null }, "geometry": { "type": "LineString", "coordinates": [ [ 110.69174448118001, -6.489893024039211 ], [ 110.687262685274462, -6.489290555891607 ] ] } },
{ "type": "Feature", "properties": { "id": "11", "type": "transect", "transect_id": "ID_Jawa-17_datetime04-07-26__11_43_53_11", "session_origin": "ID_Jawa-17_datetime04-07-26__11_43_53", "slope": 0.2, "trend_rate": 0.20349206326215744 }, "geometry": { "type": "LineString", "coordinates": [ [ 110.691798784079538, -6.489330090737938 ], [ 110.687605234328259, -6.487637594572736 ] ] } },
{ "type": "Feature", "properties": { "id": "12", "type": "transect", "transect_id": "ID_Jawa-17_datetime04-07-26__11_43_53_12", "session_origin": "ID_Jawa-17_datetime04-07-26__11_43_53", "slope": 0.2, "trend_rate": 0.088708596484143004 }, "geometry": { "type": "LineString", "coordinates": [ [ 110.692001178504597, -6.489026451628737 ], [ 110.688585854942374, -6.486061934759009 ] ] } },
{ "type": "Feature", "properties": { "id": "13", "type": "transect", "transect_id": "ID_Jawa-17_datetime04-07-26__11_43_53_13", "session_origin": "ID_Jawa-17_datetime04-07-26__11_43_53", "slope": null, "trend_rate": null }, "geometry": { "type": "LineString", "coordinates": [ [ 110.692523471016045, -6.488553064825771 ], [ 110.689643217952863, -6.485066187423777 ] ] } },
{ "type": "Feature", "properties": { "id": "14", "type": "transect", "transect_id": "ID_Jawa-17_datetime04-07-26__11_43_53_14", "session_origin": "ID_Jawa-17_datetime04-07-26__11_43_53", "slope": 0.2, "trend_rate": -1.3881095264915715 }, "geometry": { "type": "LineString", "coordinates": [ [ 110.693341926857244, -6.488185620835713 ], [ 110.690821006760856, -6.484430632705677 ] ] } },
{ "type": "Feature", "properties": { "id": "15", "type": "transect", "transect_id": "ID_Jawa-17_datetime04-07-26__11_43_53_15", "session_origin": "ID_Jawa-17_datetime04-07-26__11_43_53", "slope": null, "trend_rate": null }, "geometry": { "type": "LineString", "coordinates": [ [ 110.694286944148743, -6.487781778933209 ], [ 110.691825924010473, -6.483987246925245 ] ] } },
{ "type": "Feature", "properties": { "id": "16", "type": "transect", "transect_id": "ID_Jawa-17_datetime04-07-26__11_43_53_16", "session_origin": "ID_Jawa-17_datetime04-07-26__11_43_53", "slope": 0.2, "trend_rate": -3.3594132357479753 }, "geometry": { "type": "LineString", "coordinates": [ [ 110.695461400992684, -6.487126346054638 ], [ 110.69250987485556, -6.48369961934091 ] ] } },
{ "type": "Feature", "properties": { "id": "17", "type": "transect", "transect_id": "ID_Jawa-17_datetime04-07-26__11_43_53_17", "session_origin": "ID_Jawa-17_datetime04-07-26__11_43_53", "slope": 0.2, "trend_rate": -0.47714072801319302 }, "geometry": { "type": "LineString", "coordinates": [ [ 110.696413930704708, -6.486401935144994 ], [ 110.693172220903591, -6.483248445228878 ] ] } },
{ "type": "Feature", "properties": { "id": "18", "type": "transect", "transect_id": "ID_Jawa-17_datetime04-07-26__11_43_53_18", "session_origin": "ID_Jawa-17_datetime04-07-26__11_43_53", "slope": 0.2, "trend_rate": -0.051905689483367733 }, "geometry": { "type": "LineString", "coordinates": [ [ 110.697166582141293, -6.485720521296561 ], [ 110.693814467273342, -6.482684706301542 ] ] } },
{ "type": "Feature", "properties": { "id": "19", "type": "transect", "transect_id": "ID_Jawa-17_datetime04-07-26__11_43_53_19", "session_origin": "ID_Jawa-17_datetime04-07-26__11_43_53", "slope": null, "trend_rate": null }, "geometry": { "type": "LineString", "coordinates": [ [ 110.697815228110343, -6.484615996182748 ], [ 110.694249833951474, -6.481833886671329 ] ] } },
{ "type": "Feature", "properties": { "id": "20", "type": "transect", "transect_id": "ID_Jawa-17_datetime04-07-26__11_43_53_20", "session_origin": "ID_Jawa-17_datetime04-07-26__11_43_53", "slope": null, "trend_rate": null }, "geometry": { "type": "LineString", "coordinates": [ [ 110.69851018964593, -6.483689175035109 ], [ 110.694910893838639, -6.480951093503179 ] ] } },
{ "type": "Feature", "properties": { "id": "21", "type": "transect", "transect_id": "ID_Jawa-17_datetime04-07-26__11_43_53_21", "session_origin": "ID_Jawa-17_datetime04-07-26__11_43_53", "slope": null, "trend_rate": null }, "geometry": { "type": "LineString", "coordinates": [ [ 110.699145413101277, -6.482864029254725 ], [ 110.695656912523887, -6.479986063505363 ] ] } },
{ "type": "Feature", "properties": { "id": "22", "type": "transect", "transect_id": "ID_Jawa-17_datetime04-07-26__11_43_53_22", "session_origin": "ID_Jawa-17_datetime04-07-26__11_43_53", "slope": null, "trend_rate": null }, "geometry": { "type": "LineString", "coordinates": [ [ 110.699702277468887, -6.482219320641736 ], [ 110.696594264589706, -6.478933951142121 ] ] } },
{ "type": "Feature", "properties": { "id": "23", "type": "transect", "transect_id": "ID_Jawa-17_datetime04-07-26__11_43_53_23", "session_origin": "ID_Jawa-17_datetime04-07-26__11_43_53", "slope": 0.2, "trend_rate": -0.48225256690511742 }, "geometry": { "type": "LineString", "coordinates": [ [ 110.700618005006419, -6.481491209461614 ], [ 110.697431668257323, -6.478281783824495 ] ] } },
{ "type": "Feature", "properties": { "id": "24", "type": "transect", "transect_id": "ID_Jawa-17_datetime04-07-26__11_43_53_24", "session_origin": "ID_Jawa-17_datetime04-07-26__11_43_53", "slope": 0.2, "trend_rate": 0.11525520920524612 }, "geometry": { "type": "LineString", "coordinates": [ [ 110.701312830545831, -6.480855541113716 ], [ 110.698088894978099, -6.47768390673333 ] ] } },
{ "type": "Feature", "properties": { "id": "25", "type": "transect", "transect_id": "ID_Jawa-17_datetime04-07-26__11_43_53_25", "session_origin": "ID_Jawa-17_datetime04-07-26__11_43_53", "slope": 0.2, "trend_rate": -0.20377575043546661 }, "geometry": { "type": "LineString", "coordinates": [ [ 110.702147145445295, -6.479899386099958 ], [ 110.698590153893107, -6.477106575785709 ] ] } },
{ "type": "Feature", "properties": { "id": "26", "type": "transect", "transect_id": "ID_Jawa-17_datetime04-07-26__11_43_53_26", "session_origin": "ID_Jawa-17_datetime04-07-26__11_43_53", "slope": 0.2, "trend_rate": -0.05437739688240277 }, "geometry": { "type": "LineString", "coordinates": [ [ 110.702792176980637, -6.479036532449558 ], [ 110.699282785272885, -6.476184119500602 ] ] } },
{ "type": "Feature", "properties": { "id": "27", "type": "transect", "transect_id": "ID_Jawa-17_datetime04-07-26__11_43_53_27", "session_origin": "ID_Jawa-17_datetime04-07-26__11_43_53", "slope": 0.2, "trend_rate": -0.41842592547355917 }, "geometry": { "type": "LineString", "coordinates": [ [ 110.703573144369628, -6.478143611661324 ], [ 110.699984060470854, -6.475392199313499 ] ] } },
{ "type": "Feature", "properties": { "id": "28", "type": "transect", "transect_id": "ID_Jawa-17_datetime04-07-26__11_43_53_28", "session_origin": "ID_Jawa-17_datetime04-07-26__11_43_53", "slope": 0.2, "trend_rate": -0.34692086773918912 }, "geometry": { "type": "LineString", "coordinates": [ [ 110.704399922717613, -6.477455263550101 ], [ 110.700840742699668, -6.474665264111507 ] ] } },
{ "type": "Feature", "properties": { "id": "29", "type": "transect", "transect_id": "ID_Jawa-17_datetime04-07-26__11_43_53_29", "session_origin": "ID_Jawa-17_datetime04-07-26__11_43_53", "slope": 0.2, "trend_rate": 0.086886129716904389 }, "geometry": { "type": "LineString", "coordinates": [ [ 110.704571107924011, -6.477016264751625 ], [ 110.70191463714059, -6.473355993357005 ] ] } },
{ "type": "Feature", "properties": { "id": "30", "type": "transect", "transect_id": "ID_Jawa-17_datetime04-07-26__11_43_53_30", "session_origin": "ID_Jawa-17_datetime04-07-26__11_43_53", "slope": 0.2, "trend_rate": -0.077428340573733254 }, "geometry": { "type": "LineString", "coordinates": [ [ 110.705068303605017, -6.476880969505056 ], [ 110.703929433938001, -6.472503747011152 ] ] } },
{ "type": "Feature", "properties": { "id": "31", "type": "transect", "transect_id": "ID_Jawa-17_datetime04-07-26__11_43_53_31", "session_origin": "ID_Jawa-17_datetime04-07-26__11_43_53", "slope": 0.2, "trend_rate": 0.7208615176360389 }, "geometry": { "type": "LineString", "coordinates": [ [ 110.705913898978466, -6.47708300471916 ], [ 110.705174368645274, -6.472620880846378 ] ] } },
{ "type": "Feature", "properties": { "id": "32", "type": "transect", "transect_id": "ID_Jawa-17_datetime04-07-26__11_43_53_32", "session_origin": "ID_Jawa-17_datetime04-07-26__11_43_53", "slope": 0.2, "trend_rate": -0.25304531442554773 }, "geometry": { "type": "LineString", "coordinates": [ [ 110.706816137954519, -6.47722433286273 ], [ 110.706272872909707, -6.472734072459787 ] ] } },
{ "type": "Feature", "properties": { "id": "33", "type": "transect", "transect_id": "ID_Jawa-17_datetime04-07-26__11_43_53_33", "session_origin": "ID_Jawa-17_datetime04-07-26__11_43_53", "slope": 0.116, "trend_rate": -2.1029488797751843 }, "geometry": { "type": "LineString", "coordinates": [ [ 110.708117862886212, -6.477177409171871 ], [ 110.706884207092401, -6.472825960938469 ] ] } },
{ "type": "Feature", "properties": { "id": "34", "type": "transect", "transect_id": "ID_Jawa-17_datetime04-07-26__11_43_53_34", "session_origin": "ID_Jawa-17_datetime04-07-26__11_43_53", "slope": 0.2, "trend_rate": 0.055218020580408055 }, "geometry": { "type": "LineString", "coordinates": [ [ 110.709731349940796, -6.476470600662334 ], [ 110.7072914319304, -6.472662485430841 ] ] } },
{ "type": "Feature", "properties": { "id": "35", "type": "transect", "transect_id": "ID_Jawa-17_datetime04-07-26__11_43_53_35", "session_origin": "ID_Jawa-17_datetime04-07-26__11_43_53", "slope": 0.2, "trend_rate": -0.40379065947714576 }, "geometry": { "type": "LineString", "coordinates": [ [ 110.710940931927723, -6.475631958930275 ], [ 110.707849612119915, -6.472330901050397 ] ] } },
{ "type": "Feature", "properties": { "id": "36", "type": "transect", "transect_id": "ID_Jawa-17_datetime04-07-26__11_43_53_36", "session_origin": "ID_Jawa-17_datetime04-07-26__11_43_53", "slope": 0.2, "trend_rate": -0.86984679741214943 }, "geometry": { "type": "LineString", "coordinates": [ [ 110.711935351188203, -6.474988762653986 ], [ 110.708582098251, -6.471954273409634 ] ] } },
{ "type": "Feature", "properties": { "id": "37", "type": "transect", "transect_id": "ID_Jawa-17_datetime04-07-26__11_43_53_37", "session_origin": "ID_Jawa-17_datetime04-07-26__11_43_53", "slope": 0.2, "trend_rate": -0.085401584521141494 }, "geometry": { "type": "LineString", "coordinates": [ [ 110.712745855440218, -6.474036563176588 ], [ 110.709202281418754, -6.471226784455029 ] ] } },
{ "type": "Feature", "properties": { "id": "38", "type": "transect", "transect_id": "ID_Jawa-17_datetime04-07-26__11_43_53_38", "session_origin": "ID_Jawa-17_datetime04-07-26__11_43_53", "slope": 0.2, "trend_rate": -0.21800016536054317 }, "geometry": { "type": "LineString", "coordinates": [ [ 110.713480365983543, -6.473041189670946 ], [ 110.709795351801176, -6.470419756231818 ] ] } },
{ "type": "Feature", "properties": { "id": "39", "type": "transect", "transect_id": "ID_Jawa-17_datetime04-07-26__11_43_53_39", "session_origin": "ID_Jawa-17_datetime04-07-26__11_43_53", "slope": null, "trend_rate": null }, "geometry": { "type": "LineString", "coordinates": [ [ 110.714111450133061, -6.472121522569706 ], [ 110.710420810128838, -6.469508028171822 ] ] } },
{ "type": "Feature", "properties": { "id": "40", "type": "transect", "transect_id": "ID_Jawa-17_datetime04-07-26__11_43_53_40", "session_origin": "ID_Jawa-17_datetime04-07-26__11_43_53", "slope": null, "trend_rate": null }, "geometry": { "type": "LineString", "coordinates": [ [ 110.714567536242555, -6.470810085102691 ], [ 110.710575563466151, -6.468685432424545 ] ] } },
{ "type": "Feature", "properties": { "id": "41", "type": "transect", "transect_id": "ID_Jawa-17_datetime04-07-26__11_43_53_41", "session_origin": "ID_Jawa-17_datetime04-07-26__11_43_53", "slope": null, "trend_rate": null }, "geometry": { "type": "LineString", "coordinates": [ [ 110.715178573730071, -6.469764052438856 ], [ 110.711022634156734, -6.467981510692173 ] ] } },
{ "type": "Feature", "properties": { "id": "42", "type": "transect", "transect_id": "ID_Jawa-17_datetime04-07-26__11_43_53_42", "session_origin": "ID_Jawa-17_datetime04-07-26__11_43_53", "slope": 0.2, "trend_rate": 0.12249125761818362 }, "geometry": { "type": "LineString", "coordinates": [ [ 110.715685879415602, -6.468110536214885 ], [ 110.711231836064229, -6.467329869033853 ] ] } },
{ "type": "Feature", "properties": { "id": "43", "type": "transect", "transect_id": "ID_Jawa-17_datetime04-07-26__11_43_53_43", "session_origin": "ID_Jawa-17_datetime04-07-26__11_43_53", "slope": 0.2, "trend_rate": 0.96672674762776523 }, "geometry": { "type": "LineString", "coordinates": [ [ 110.715719919326915, -6.46719554690541 ], [ 110.711240696110963, -6.466575606692802 ] ] } },
{ "type": "Feature", "properties": { "id": "44", "type": "transect", "transect_id": "ID_Jawa-17_datetime04-07-26__11_43_53_44", "session_origin": "ID_Jawa-17_datetime04-07-26__11_43_53", "slope": null, "trend_rate": null }, "geometry": { "type": "LineString", "coordinates": [ [ 110.715403045212881, -6.466185956266798 ], [ 110.710894263053376, -6.465841795166768 ] ] } },
{ "type": "Feature", "properties": { "id": "45", "type": "transect", "transect_id": "ID_Jawa-17_datetime04-07-26__11_43_53_45", "session_origin": "ID_Jawa-17_datetime04-07-26__11_43_53", "slope": 0.2, "trend_rate": 0.64157450583225872 }, "geometry": { "type": "LineString", "coordinates": [ [ 110.71539708033788, -6.465106610086796 ], [ 110.710878483240435, -6.464934216625434 ] ] } },
{ "type": "Feature", "properties": { "id": "46", "type": "transect", "transect_id": "ID_Jawa-17_datetime04-07-26__11_43_53_46", "session_origin": "ID_Jawa-17_datetime04-07-26__11_43_53", "slope": 0.052, "trend_rate": -0.35897806161737605 }, "geometry": { "type": "LineString", "coordinates": [ [ 110.715522122302701, -6.464104952338467 ], [ 110.711001694120952, -6.463990574732508 ] ] } },
{ "type": "Feature", "properties": { "id": "47", "type": "transect", "transect_id": "ID_Jawa-17_datetime04-07-26__11_43_53_47", "session_origin": "ID_Jawa-17_datetime04-07-26__11_43_53", "slope": 0.2, "trend_rate": -2.7204835765126583 }, "geometry": { "type": "LineString", "coordinates": [ [ 110.715560614109378, -6.463142381676187 ], [ 110.711052076326936, -6.462795381873404 ] ] } },
{ "type": "Feature", "properties": { "id": "48", "type": "transect", "transect_id": "ID_Jawa-17_datetime04-07-26__11_43_53_48", "session_origin": "ID_Jawa-17_datetime04-07-26__11_43_53", "slope": 0.2, "trend_rate": -1.8208110690316222 }, "geometry": { "type": "LineString", "coordinates": [ [ 110.715790789258833, -6.462069333514693 ], [ 110.711289677362558, -6.461636598216658 ] ] } },
{ "type": "Feature", "properties": { "id": "49", "type": "transect", "transect_id": "ID_Jawa-17_datetime04-07-26__11_43_53_49", "session_origin": "ID_Jawa-17_datetime04-07-26__11_43_53", "slope": null, "trend_rate": null }, "geometry": { "type": "LineString", "coordinates": [ [ 110.715921084664203, -6.460858670104115 ], [ 110.711406520043212, -6.460602111792743 ] ] } },
{ "type": "Feature", "properties": { "id": "50", "type": "transect", "transect_id": "ID_Jawa-17_datetime04-07-26__11_43_53_50", "session_origin": "ID_Jawa-17_datetime04-07-26__11_43_53", "slope": null, "trend_rate": null }, "geometry": { "type": "LineString", "coordinates": [ [ 110.715782466743178, -6.459974292496375 ], [ 110.711264863949467, -6.459778594803099 ] ] } },
{ "type": "Feature", "properties": { "id": "51", "type": "transect", "transect_id": "ID_Jawa-17_datetime04-07-26__11_43_53_51", "session_origin": "ID_Jawa-17_datetime04-07-26__11_43_53", "slope": 0.2, "trend_rate": -2.4638900511103117 }, "geometry": { "type": "LineString", "coordinates": [ [ 110.715826914137736, -6.459372774566813 ], [ 110.711450774877292, -6.458233907150656 ] ] } },
{ "type": "Feature", "properties": { "id": "52", "type": "transect", "transect_id": "ID_Jawa-17_datetime04-07-26__11_43_53_52", "session_origin": "ID_Jawa-17_datetime04-07-26__11_43_53", "slope": 0.112, "trend_rate": 0.3041053147521473 }, "geometry": { "type": "LineString", "coordinates": [ [ 110.716006684178282, -6.458777755144114 ], [ 110.711874968244871, -6.456939936476711 ] ] } },
{ "type": "Feature", "properties": { "id": "53", "type": "transect", "transect_id": "ID_Jawa-17_datetime04-07-26__11_43_53_53", "session_origin": "ID_Jawa-17_datetime04-07-26__11_43_53", "slope": 0.2, "trend_rate": -0.21566647419612442 }, "geometry": { "type": "LineString", "coordinates": [ [ 110.716421620526432, -6.457846706053192 ], [ 110.71255085080935, -6.455508577858988 ] ] } },
{ "type": "Feature", "properties": { "id": "54", "type": "transect", "transect_id": "ID_Jawa-17_datetime04-07-26__11_43_53_54", "session_origin": "ID_Jawa-17_datetime04-07-26__11_43_53", "slope": 0.2, "trend_rate": -0.50971675144742834 }, "geometry": { "type": "LineString", "coordinates": [ [ 110.717111964342195, -6.457003951160732 ], [ 110.713350003276261, -6.454494419460975 ] ] } },
{ "type": "Feature", "properties": { "id": "55", "type": "transect", "transect_id": "ID_Jawa-17_datetime04-07-26__11_43_53_55", "session_origin": "ID_Jawa-17_datetime04-07-26__11_43_53", "slope": null, "trend_rate": null }, "geometry": { "type": "LineString", "coordinates": [ [ 110.717862786139037, -6.455978884654987 ], [ 110.714063858383071, -6.453525714597829 ] ] } },
{ "type": "Feature", "properties": { "id": "56", "type": "transect", "transect_id": "ID_Jawa-17_datetime04-07-26__11_43_53_56", "session_origin": "ID_Jawa-17_datetime04-07-26__11_43_53", "slope": 0.2, "trend_rate": -0.22136548388945237 }, "geometry": { "type": "LineString", "coordinates": [ [ 110.71848605062236, -6.45529032073691 ], [ 110.714677376624891, -6.452852325449653 ] ] } },
{ "type": "Feature", "properties": { "id": "57", "type": "transect", "transect_id": "ID_Jawa-17_datetime04-07-26__11_43_53_57", "session_origin": "ID_Jawa-17_datetime04-07-26__11_43_53", "slope": null, "trend_rate": null }, "geometry": { "type": "LineString", "coordinates": [ [ 110.719144448670093, -6.454596268827857 ], [ 110.715461140020338, -6.451972620089858 ] ] } },
{ "type": "Feature", "properties": { "id": "58", "type": "transect", "transect_id": "ID_Jawa-17_datetime04-07-26__11_43_53_58", "session_origin": "ID_Jawa-17_datetime04-07-26__11_43_53", "slope": null, "trend_rate": null }, "geometry": { "type": "LineString", "coordinates": [ [ 110.719688715240224, -6.453855307028815 ], [ 110.716252376767684, -6.450915442182429 ] ] } },
{ "type": "Feature", "properties": { "id": "59", "type": "transect", "transect_id": "ID_Jawa-17_datetime04-07-26__11_43_53_59", "session_origin": "ID_Jawa-17_datetime04-07-26__11_43_53", "slope": null, "trend_rate": null }, "geometry": { "type": "LineString", "coordinates": [ [ 110.720465423942557, -6.453322568015094 ], [ 110.717361089770918, -6.450033872121852 ] ] } },
{ "type": "Feature", "properties": { "id": "60", "type": "transect", "transect_id": "ID_Jawa-17_datetime04-07-26__11_43_53_60", "session_origin": "ID_Jawa-17_datetime04-07-26__11_43_53", "slope": null, "trend_rate": null }, "geometry": { "type": "LineString", "coordinates": [ [ 110.72136618030973, -6.452962807640987 ], [ 110.718397389008388, -6.449551189476058 ] ] } },
{ "type": "Feature", "properties": { "id": "61", "type": "transect", "transect_id": "ID_Jawa-17_datetime04-07-26__11_43_53_61", "session_origin": "ID_Jawa-17_datetime04-07-26__11_43_53", "slope": 0.0, "trend_rate": 0.0 }, "geometry": { "type": "LineString", "coordinates": [ [ 110.722207395133609, -6.452141876029236 ], [ 110.719171186752519, -6.448790153033212 ] ] } },
{ "type": "Feature", "properties": { "id": "62", "type": "transect", "transect_id": "ID_Jawa-17_datetime04-07-26__11_43_53_62", "session_origin": "ID_Jawa-17_datetime04-07-26__11_43_53", "slope": null, "trend_rate": null }, "geometry": { "type": "LineString", "coordinates": [ [ 110.723072851396509, -6.451415639713759 ], [ 110.720014300213847, -6.448084307605464 ] ] } },
{ "type": "Feature", "properties": { "id": "63", "type": "transect", "transect_id": "ID_Jawa-17_datetime04-07-26__11_43_53_63", "session_origin": "ID_Jawa-17_datetime04-07-26__11_43_53", "slope": null, "trend_rate": null }, "geometry": { "type": "LineString", "coordinates": [ [ 110.723922620290736, -6.450563722709024 ], [ 110.720757194267065, -6.447333833813306 ] ] } },
{ "type": "Feature", "properties": { "id": "64", "type": "transect", "transect_id": "ID_Jawa-17_datetime04-07-26__11_43_53_64", "session_origin": "ID_Jawa-17_datetime04-07-26__11_43_53", "slope": null, "trend_rate": null }, "geometry": { "type": "LineString", "coordinates": [ [ 110.724597216242188, -6.449911116861427 ], [ 110.721717246855533, -6.446424163836206 ] ] } },
{ "type": "Feature", "properties": { "id": "65", "type": "transect", "transect_id": "ID_Jawa-17_datetime04-07-26__11_43_53_65", "session_origin": "ID_Jawa-17_datetime04-07-26__11_43_53", "slope": 0.2, "trend_rate": 0.25464752886350139 }, "geometry": { "type": "LineString", "coordinates": [ [ 110.725173215568105, -6.449618299017835 ], [ 110.72286102012842, -6.445731333812002 ] ] } },
{ "type": "Feature", "properties": { "id": "66", "type": "transect", "transect_id": "ID_Jawa-17_datetime04-07-26__11_43_53_66", "session_origin": "ID_Jawa-17_datetime04-07-26__11_43_53", "slope": 0.2, "trend_rate": 0.13312355369209444 }, "geometry": { "type": "LineString", "coordinates": [ [ 110.726170997156217, -6.449087536504062 ], [ 110.723925803187754, -6.445161467343068 ] ] } },
{ "type": "Feature", "properties": { "id": "67", "type": "transect", "transect_id": "ID_Jawa-17_datetime04-07-26__11_43_53_67", "session_origin": "ID_Jawa-17_datetime04-07-26__11_43_53", "slope": 0.0, "trend_rate": 0.0 }, "geometry": { "type": "LineString", "coordinates": [ [ 110.727180733582628, -6.448860750051582 ], [ 110.725185630296224, -6.444801798316623 ] ] } },
{ "type": "Feature", "properties": { "id": "68", "type": "transect", "transect_id": "ID_Jawa-17_datetime04-07-26__11_43_53_68", "session_origin": "ID_Jawa-17_datetime04-07-26__11_43_53", "slope": 0.0, "trend_rate": 0.0 }, "geometry": { "type": "LineString", "coordinates": [ [ 110.728153556775524, -6.448360581620316 ], [ 110.726175879599779, -6.444293106291522 ] ] } },
{ "type": "Feature", "properties": { "id": "69", "type": "transect", "transect_id": "ID_Jawa-17_datetime04-07-26__11_43_53_69", "session_origin": "ID_Jawa-17_datetime04-07-26__11_43_53", "slope": 0.0, "trend_rate": 0.0 }, "geometry": { "type": "LineString", "coordinates": [ [ 110.728970151304495, -6.447978325978366 ], [ 110.72740651312003, -6.443734336327837 ] ] } },
{ "type": "Feature", "properties": { "id": "70", "type": "transect", "transect_id": "ID_Jawa-17_datetime04-07-26__11_43_53_70", "session_origin": "ID_Jawa-17_datetime04-07-26__11_43_53", "slope": 0.2, "trend_rate": 0.075259829496090849 }, "geometry": { "type": "LineString", "coordinates": [ [ 110.729940365205167, -6.447709438085499 ], [ 110.728547202365917, -6.443406438571183 ] ] } },
{ "type": "Feature", "properties": { "id": "71", "type": "transect", "transect_id": "ID_Jawa-17_datetime04-07-26__11_43_53_71", "session_origin": "ID_Jawa-17_datetime04-07-26__11_43_53", "slope": 0.2, "trend_rate": -0.085723206354699044 }, "geometry": { "type": "LineString", "coordinates": [ [ 110.73072108161513, -6.447401502712901 ], [ 110.72977662774791, -6.442978231457682 ] ] } },
{ "type": "Feature", "properties": { "id": "72", "type": "transect", "transect_id": "ID_Jawa-17_datetime04-07-26__11_43_53_72", "session_origin": "ID_Jawa-17_datetime04-07-26__11_43_53", "slope": 0.2, "trend_rate": 0.41356040045230824 }, "geometry": { "type": "LineString", "coordinates": [ [ 110.731743857613694, -6.447310365417018 ], [ 110.73057103792992, -6.44294212368121 ] ] } },
{ "type": "Feature", "properties": { "id": "73", "type": "transect", "transect_id": "ID_Jawa-17_datetime04-07-26__11_43_53_73", "session_origin": "ID_Jawa-17_datetime04-07-26__11_43_53", "slope": 0.2, "trend_rate": 0.71670722227594519 }, "geometry": { "type": "LineString", "coordinates": [ [ 110.732529863850829, -6.446998394975639 ], [ 110.731628609650372, -6.44256611400536 ] ] } },
{ "type": "Feature", "properties": { "id": "74", "type": "transect", "transect_id": "ID_Jawa-17_datetime04-07-26__11_43_53_74", "session_origin": "ID_Jawa-17_datetime04-07-26__11_43_53", "slope": 0.034, "trend_rate": -3.3129821499706122 }, "geometry": { "type": "LineString", "coordinates": [ [ 110.733379481121972, -6.446690116672276 ], [ 110.732433989392362, -6.442267066437357 ] ] } },
{ "type": "Feature", "properties": { "id": "75", "type": "transect", "transect_id": "ID_Jawa-17_datetime04-07-26__11_43_53_75", "session_origin": "ID_Jawa-17_datetime04-07-26__11_43_53", "slope": 0.2, "trend_rate": -4.9139820931766662 }, "geometry": { "type": "LineString", "coordinates": [ [ 110.734056167546896, -6.446173034108045 ], [ 110.73319371579845, -6.441733034693315 ] ] } },
{ "type": "Feature", "properties": { "id": "76", "type": "transect", "transect_id": "ID_Jawa-17_datetime04-07-26__11_43_53_76", "session_origin": "ID_Jawa-17_datetime04-07-26__11_43_53", "slope": 0.032, "trend_rate": 0.32646942854820565 }, "geometry": { "type": "LineString", "coordinates": [ [ 110.734970123746905, -6.445645806665746 ], [ 110.733874839804244, -6.441257469481006 ] ] } },
{ "type": "Feature", "properties": { "id": "77", "type": "transect", "transect_id": "ID_Jawa-17_datetime04-07-26__11_43_53_77", "session_origin": "ID_Jawa-17_datetime04-07-26__11_43_53", "slope": null, "trend_rate": null }, "geometry": { "type": "LineString", "coordinates": [ [ 110.735921119735224, -6.445339969880464 ], [ 110.734882156211626, -6.440937950069239 ] ] } },
{ "type": "Feature", "properties": { "id": "78", "type": "transect", "transect_id": "ID_Jawa-17_datetime04-07-26__11_43_53_78", "session_origin": "ID_Jawa-17_datetime04-07-26__11_43_53", "slope": 0.2, "trend_rate": -0.27743606680310973 }, "geometry": { "type": "LineString", "coordinates": [ [ 110.736972641621421, -6.445295555126627 ], [ 110.736009294930597, -6.4408763606337 ] ] } },
{ "type": "Feature", "properties": { "id": "79", "type": "transect", "transect_id": "ID_Jawa-17_datetime04-07-26__11_43_53_79", "session_origin": "ID_Jawa-17_datetime04-07-26__11_43_53", "slope": null, "trend_rate": null }, "geometry": { "type": "LineString", "coordinates": [ [ 110.737990753103901, -6.444941272569799 ], [ 110.736967686884114, -6.44053552810272 ] ] } },
{ "type": "Feature", "properties": { "id": "80", "type": "transect", "transect_id": "ID_Jawa-17_datetime04-07-26__11_43_53_80", "session_origin": "ID_Jawa-17_datetime04-07-26__11_43_53", "slope": 0.2, "trend_rate": 0.082645064813891694 }, "geometry": { "type": "LineString", "coordinates": [ [ 110.738995004096594, -6.444619799395868 ], [ 110.737994102993454, -6.440208963312045 ] ] } },
{ "type": "Feature", "properties": { "id": "81", "type": "transect", "transect_id": "ID_Jawa-17_datetime04-07-26__11_43_53_81", "session_origin": "ID_Jawa-17_datetime04-07-26__11_43_53", "slope": 0.2, "trend_rate": -0.38904607128243873 }, "geometry": { "type": "LineString", "coordinates": [ [ 110.739988722609198, -6.444530151477138 ], [ 110.739203533244321, -6.440075829017519 ] ] } },
{ "type": "Feature", "properties": { "id": "82", "type": "transect", "transect_id": "ID_Jawa-17_datetime04-07-26__11_43_53_82", "session_origin": "ID_Jawa-17_datetime04-07-26__11_43_53", "slope": 0.2, "trend_rate": 0.22197397614487785 }, "geometry": { "type": "LineString", "coordinates": [ [ 110.740973465771646, -6.444328715668093 ], [ 110.740433712697126, -6.439838016945376 ] ] } },
{ "type": "Feature", "properties": { "id": "83", "type": "transect", "transect_id": "ID_Jawa-17_datetime04-07-26__11_43_53_83", "session_origin": "ID_Jawa-17_datetime04-07-26__11_43_53", "slope": 0.2, "trend_rate": 0.11095117087395556 }, "geometry": { "type": "LineString", "coordinates": [ [ 110.741855952625599, -6.44429549010736 ], [ 110.741809906764644, -6.439772685168704 ] ] } },
{ "type": "Feature", "properties": { "id": "84", "type": "transect", "transect_id": "ID_Jawa-17_datetime04-07-26__11_43_53_84", "session_origin": "ID_Jawa-17_datetime04-07-26__11_43_53", "slope": 0.19, "trend_rate": 0.74231541105208954 }, "geometry": { "type": "LineString", "coordinates": [ [ 110.742795295302855, -6.444495543636783 ], [ 110.742829162028869, -6.439972630729387 ] ] } },
{ "type": "Feature", "properties": { "id": "85", "type": "transect", "transect_id": "ID_Jawa-17_datetime04-07-26__11_43_53_85", "session_origin": "ID_Jawa-17_datetime04-07-26__11_43_53", "slope": 0.2, "trend_rate": 0.47643445694123115 }, "geometry": { "type": "LineString", "coordinates": [ [ 110.744038265687436, -6.444314893099911 ], [ 110.743855823553687, -6.439795536099587 ] ] } },
{ "type": "Feature", "properties": { "id": "86", "type": "transect", "transect_id": "ID_Jawa-17_datetime04-07-26__11_43_53_86", "session_origin": "ID_Jawa-17_datetime04-07-26__11_43_53", "slope": 0.2, "trend_rate": 0.19041205086915866 }, "geometry": { "type": "LineString", "coordinates": [ [ 110.745087519860519, -6.444288499106144 ], [ 110.744926602580236, -6.439768323637669 ] ] } },
{ "type": "Feature", "properties": { "id": "87", "type": "transect", "transect_id": "ID_Jawa-17_datetime04-07-26__11_43_53_87", "session_origin": "ID_Jawa-17_datetime04-07-26__11_43_53", "slope": 0.2, "trend_rate": 0.84713115685744755 }, "geometry": { "type": "LineString", "coordinates": [ [ 110.74635761369052, -6.444223372070389 ], [ 110.7460486968059, -6.439710898988225 ] ] } },
{ "type": "Feature", "properties": { "id": "88", "type": "transect", "transect_id": "ID_Jawa-17_datetime04-07-26__11_43_53_88", "session_origin": "ID_Jawa-17_datetime04-07-26__11_43_53", "slope": 0.2, "trend_rate": -0.17261710975847225 }, "geometry": { "type": "LineString", "coordinates": [ [ 110.747932998737426, -6.444241642377484 ], [ 110.747203782709249, -6.439777806516651 ] ] } }
]
}
