{
"type": "FeatureCollection",
"name": "Shoreff_Jawa-18",
"crs": { "type": "name", "properties": { "name": "urn:ogc:def:crs:EPSG::9489" } },
"features": [
{ "type": "Feature", "properties": { "fid": 1 }, "geometry": { "type": "LineString", "coordinates": [ [ 471243.338452777767088, 9287902.634142363443971 ], [ 471326.696446546877269, 9287919.684646351262927 ], [ 471421.421440410020296, 9287923.473651852458715 ], [ 471485.834436160454061, 9287927.262655515223742 ], [ 471527.513435396482237, 9287896.950659928843379 ], [ 471527.51343536976492, 9287896.95065993629396 ], [ 471546.45843605150003, 9287866.638662964105606 ], [ 471546.458436024782714, 9287866.638662971556187 ], [ 471637.394433362060227, 9287817.381671542301774 ], [ 471684.756932014948688, 9287790.858676062896848 ], [ 471724.541430221463088, 9287779.491679178550839 ], [ 471785.165426898922306, 9287771.913683325052261 ], [ 471876.101420653634705, 9287781.386188242584467 ], [ 471963.248413493507542, 9287809.803691750392318 ], [ 472048.500906111905351, 9287843.904694790020585 ], [ 472075.023904457048047, 9287843.904696397483349 ], [ 472126.175400348613039, 9287859.060698550194502 ], [ 472227.6908945213072, 9287905.785478504374623 ], [ 472248.451489253551699, 9287922.882440980523825 ], [ 472297.299951133609284, 9287902.121848173439503 ], [ 472333.936294531216845, 9287936.315772833302617 ], [ 472373.015064950101078, 9287904.564275791868567 ], [ 472442.624119119369425, 9287941.200625479221344 ], [ 472517.118022459326312, 9287926.546091804280877 ], [ 472517.118022432608996, 9287926.546091811731458 ], [ 472536.657406560319941, 9287928.988516019657254 ], [ 472707.627019559207838, 9287915.555199703201652 ], [ 472824.863324833277147, 9287919.218841353431344 ], [ 472943.320842510496732, 9287908.227944888174534 ], [ 473044.681398082524538, 9287911.891585577279329 ], [ 473071.548050833749585, 9287921.661279333755374 ], [ 473128.944989329902455, 9287966.846108889207244 ], [ 473171.687391487823334, 9287981.50064966827631 ], [ 473171.687391462444793, 9287981.500649675726891 ], [ 473185.120718308375217, 9287979.058227449655533 ], [ 473168.023758271941915, 9287959.518842160701752 ], [ 473237.277673658740241, 9287969.505056263878942 ], [ 473327.700106622418389, 9288023.758523499593139 ], [ 473422.141313676605932, 9288092.077703282237053 ], [ 473498.498034456861205, 9288144.321782192215323 ], [ 473567.821899690898135, 9288186.518923312425613 ], [ 473608.009646884573158, 9288223.692593988031149 ], [ 473634.13168347789906, 9288232.73483919724822 ], [ 473715.511873421433847, 9288276.941368520259857 ], [ 473728.57288931281073, 9288321.147893704473972 ], [ 473770.770026778511237, 9288312.105652639642358 ], [ 473770.770026751735713, 9288312.105652648955584 ], [ 473855.164300552220084, 9288313.110351486131549 ], [ 473887.314498828549404, 9288334.208921894431114 ], [ 473919.464699055650271, 9288323.157292747870088 ], [ 473999.840196726028807, 9288343.251172343268991 ], [ 474118.394053932279348, 9288403.532803699374199 ], [ 474262.06525204872014, 9288505.006879759952426 ], [ 474373.586250974796712, 9288600.452791457995772 ], [ 474478.074395146744791, 9288672.790746796876192 ], [ 474566.487439722113777, 9288742.114619951695204 ], [ 474678.008439680619631, 9288820.480738136917353 ], [ 474740.299448579084128, 9288865.691960040479898 ], [ 474794.552908566198312, 9288894.828081676736474 ], [ 474848.806370437494479, 9288892.818697493523359 ], [ 474875.933102893410251, 9288866.696661995723844 ], [ 474981.425943359325174, 9288896.837480476126075 ], [ 475101.989188343577553, 9288952.09564327634871 ], [ 475174.327134967141319, 9288991.27870336920023 ], [ 475260.730793350143358, 9289039.504007944837213 ], [ 475339.096900684759021, 9289106.818493019789457 ], [ 475430.524027748440858, 9289155.0437978990376 ], [ 475468.702388807549141, 9289170.114206254482269 ], [ 475588.26093676435994, 9289279.625830749049783 ], [ 475736.955602216301486, 9289403.203169314190745 ], [ 475853.500070186797529, 9289492.620918899774551 ], [ 475903.734757598489523, 9289482.573984585702419 ], [ 475985.114947665191721, 9289524.771126436069608 ], [ 476071.518605437246151, 9289583.043368373066187 ], [ 476147.875324751483276, 9289659.400096951052547 ], [ 476158.926954267779365, 9289685.522134762257338 ], [ 476158.926954241062049, 9289685.522134769707918 ], [ 476157.922257849946618, 9289729.728659093379974 ], [ 476172.992661149939522, 9289774.939878135919571 ], [ 476218.203878848289605, 9289781.972737029194832 ], [ 476218.203878821572289, 9289781.972737036645412 ], [ 476309.631009928882122, 9289763.888255320489407 ], [ 476387.997122928616591, 9289737.766222931444645 ], [ 476387.997122901899274, 9289737.766222938895226 ], [ 476473.396091958798934, 9289713.653578441590071 ], [ 476498.513435665052384, 9289708.63011128269136 ], [ 476593.95934199669864, 9289685.522161137312651 ], [ 476638.165866993600503, 9289675.475226458162069 ], [ 476730.597691138391383, 9289668.442375911399722 ], [ 476760.73850432044128, 9289650.357890484854579 ], [ 476842.118698469130322, 9289625.240552015602589 ], [ 476896.37216076470213, 9289616.198311680927873 ], [ 476896.372160737984814, 9289616.198311690241098 ], [ 476905.414404634211678, 9289612.17953728325665 ], [ 476919.480117913335562, 9289596.104438355192542 ], [ 476919.480117886560038, 9289596.104438362643123 ], [ 476948.616236625239253, 9289590.076277704909444 ], [ 477026.982348467980046, 9289583.043426303192973 ], [ 477105.348460066481493, 9289580.029349846765399 ], [ 477195.770896437112242, 9289578.01996785774827 ], [ 477265.094763135188259, 9289596.104459311813116 ], [ 477306.28720533743035, 9289612.179561592638493 ], [ 477355.517199014197104, 9289602.13262721337378 ], [ 477429.864533049985766, 9289642.320381168276072 ], [ 477446.944325406395365, 9289661.409563191235065 ], [ 477475.075750139076263, 9289659.400177426636219 ], [ 477516.268192467046902, 9289673.465892229229212 ], [ 477516.268192440329585, 9289673.465892236679792 ], [ 477532.343292486213613, 9289669.447118258103728 ], [ 477563.488801535102539, 9289616.198352130129933 ], [ 477592.624921223381534, 9289594.095091702416539 ], [ 477633.817365134193096, 9289582.038769362494349 ], [ 477684.052053034887649, 9289563.954285157844424 ], [ 477720.221028325497173, 9289550.893268780782819 ], [ 477793.563671794021502, 9289538.836948394775391 ], [ 477793.563671767245978, 9289538.836948402225971 ], [ 477946.277118766272906, 9289553.907363699749112 ], [ 478051.769959107565228, 9289586.057569654658437 ], [ 478102.004645427048672, 9289594.095122590661049 ], [ 478102.004645401728339, 9289594.095122598111629 ], [ 478130.1360707039712, 9289583.043493200093508 ], [ 478174.342596189875621, 9289564.959008632227778 ], [ 478223.572590111463796, 9289550.893299309536815 ], [ 478287.872989528113976, 9289545.869834527373314 ], [ 478324.041964515345171, 9289537.832286830991507 ], [ 478360.210940112068783, 9289519.747801773250103 ], [ 478392.361139241314959, 9289526.780659876763821 ], [ 478392.361139214597642, 9289526.780659884214401 ], [ 478440.586437294259667, 9289547.879231262952089 ], [ 478503.8821405931958, 9289582.038822131231427 ], [ 478594.304573433473706, 9289638.301676841452718 ], [ 478629.468852609978057, 9289664.423716114833951 ], [ 478688.745779809891246, 9289717.672487732023001 ], [ 478742.999240218894556, 9289739.775753216817975 ], [ 478773.140051633177791, 9289750.827386142686009 ], [ 478773.140051606460474, 9289750.82738615013659 ], [ 478795.243314192455728, 9289744.799225067719817 ], [ 478813.327804610889871, 9289692.555151885375381 ], [ 478833.421680856030434, 9289667.437809696421027 ], [ 478888.679837621515617, 9289646.339244589209557 ], [ 478973.074112489703111, 9289629.259456191211939 ], [ 479079.571648699056823, 9289626.245381442829967 ], [ 479079.571648670942523, 9289626.245381450280547 ], [ 479156.9330647928291, 9289652.367423279210925 ], [ 479337.77793229551753, 9289734.752320617437363 ], [ 479337.77793229551753, 9289734.752320617437363 ], [ 479480.444440686784219, 9289769.916610036045313 ], [ 479582.92319927085191, 9289811.109059439972043 ], [ 479683.392570258583874, 9289854.310896189883351 ], [ 479788.885409379436169, 9289906.554976869374514 ], [ 479880.312535524717532, 9289969.850687796249986 ], [ 479999.87108524190262, 9290050.226193943992257 ], [ 480123.448409721546341, 9290133.615781545639038 ], [ 480206.837985674734227, 9290201.934960667043924 ], [ 480301.279192415880971, 9290275.277609135955572 ], [ 480382.659381990495604, 9290325.512300882488489 ], [ 480475.091200895374641, 9290404.883111648261547 ], [ 480551.447921059501823, 9290467.174127925187349 ], [ 480632.828111426439136, 9290504.347801100462675 ], [ 480689.09095753938891, 9290555.587185058742762 ], [ 480707.175442715641111, 9290589.74677318520844 ], [ 480809.65419946773909, 9290661.080034673213959 ], [ 480906.104793313366827, 9290740.450845682993531 ], [ 480955.334783395694103, 9290789.68084174208343 ] ] } }
]
}
