{
"type": "FeatureCollection",
"name": "Transect_Jawa-18",
"crs": { "type": "name", "properties": { "name": "urn:ogc:def:crs:EPSG::9489" } },
"xy_coordinate_resolution": 1e-15,
"features": [
{ "type": "Feature", "properties": { "begin": "1", "end": "90", "TR_FID": 0, "TR_ID": 0, "TR_SEGMENT": 1, "TR_ANGLE": 90.0, "TR_LENGTH": 500.0, "TR_ORIENT": 2 }, "geometry": { "type": "LineString", "coordinates": [ [ 471280.736499883816577, 9287655.447196768596768 ], [ 471205.940405671717599, 9288149.821087958291173 ] ] } },
{ "type": "Feature", "properties": { "begin": "1", "end": "90", "TR_FID": 0, "TR_ID": 1, "TR_SEGMENT": 2, "TR_ANGLE": 90.0, "TR_LENGTH": 500.0, "TR_ORIENT": 2 }, "geometry": { "type": "LineString", "coordinates": [ [ 471388.04404894268373, 9287672.203077182173729 ], [ 471345.117198690830264, 9288170.356954541057348 ] ] } },
{ "type": "Feature", "properties": { "begin": "1", "end": "90", "TR_FID": 0, "TR_ID": 2, "TR_SEGMENT": 3, "TR_ANGLE": 90.0, "TR_LENGTH": 500.0, "TR_ORIENT": 2 }, "geometry": { "type": "LineString", "coordinates": [ [ 471408.200981500849593, 9287687.858669543638825 ], [ 471572.511157477565575, 9288160.08972111903131 ] ] } },
{ "type": "Feature", "properties": { "begin": "1", "end": "90", "TR_FID": 0, "TR_ID": 3, "TR_SEGMENT": 4, "TR_ANGLE": 90.0, "TR_LENGTH": 500.0, "TR_ORIENT": 2 }, "geometry": { "type": "LineString", "coordinates": [ [ 471445.908221451449208, 9287637.969772834330797 ], [ 471723.172336470452137, 9288054.052229233086109 ] ] } },
{ "type": "Feature", "properties": { "begin": "1", "end": "90", "TR_FID": 0, "TR_ID": 4, "TR_SEGMENT": 5, "TR_ANGLE": 90.0, "TR_LENGTH": 500.0, "TR_ORIENT": 2 }, "geometry": { "type": "LineString", "coordinates": [ [ 471622.740224478475284, 9287548.602048115804791 ], [ 471767.171042581147049, 9288027.287475908175111 ] ] } },
{ "type": "Feature", "properties": { "begin": "1", "end": "90", "TR_FID": 0, "TR_ID": 5, "TR_SEGMENT": 6, "TR_ANGLE": 90.0, "TR_LENGTH": 500.0, "TR_ORIENT": 2 }, "geometry": { "type": "LineString", "coordinates": [ [ 471832.452960591996089, 9287525.757735375314951 ], [ 471803.790304121561348, 9288024.935511447489262 ] ] } },
{ "type": "Feature", "properties": { "begin": "1", "end": "90", "TR_FID": 0, "TR_ID": 6, "TR_SEGMENT": 7, "TR_ANGLE": 90.0, "TR_LENGTH": 500.0, "TR_ORIENT": 2 }, "geometry": { "type": "LineString", "coordinates": [ [ 472008.552089753444307, 9287561.786021810024977 ], [ 471870.49046827328857, 9288042.347140371799469 ] ] } },
{ "type": "Feature", "properties": { "begin": "1", "end": "90", "TR_FID": 0, "TR_ID": 7, "TR_SEGMENT": 8, "TR_ANGLE": 90.0, "TR_LENGTH": 500.0, "TR_ORIENT": 2 }, "geometry": { "type": "LineString", "coordinates": [ [ 472136.610174906032626, 9287607.011759338900447 ], [ 471976.838626792014111, 9288080.797631239518523 ] ] } },
{ "type": "Feature", "properties": { "begin": "1", "end": "90", "TR_FID": 0, "TR_ID": 8, "TR_SEGMENT": 9, "TR_ANGLE": 90.0, "TR_LENGTH": 500.0, "TR_ORIENT": 2 }, "geometry": { "type": "LineString", "coordinates": [ [ 472241.187594756309409, 9287640.387343768030405 ], [ 472108.090737390390132, 9288122.347120679914951 ] ] } },
{ "type": "Feature", "properties": { "begin": "1", "end": "90", "TR_FID": 0, "TR_ID": 9, "TR_SEGMENT": 10, "TR_ANGLE": 90.0, "TR_LENGTH": 500.0, "TR_ORIENT": 2 }, "geometry": { "type": "LineString", "coordinates": [ [ 472316.889198842924088, 9287659.395719667896628 ], [ 472253.095591839053668, 9288155.309397341683507 ] ] } },
{ "type": "Feature", "properties": { "begin": "1", "end": "90", "TR_FID": 0, "TR_ID": 10, "TR_SEGMENT": 11, "TR_ANGLE": 90.0, "TR_LENGTH": 500.0, "TR_ORIENT": 2 }, "geometry": { "type": "LineString", "coordinates": [ [ 472407.596999408386182, 9287660.98612461425364 ], [ 472358.186028570809867, 9288158.538690643385053 ] ] } },
{ "type": "Feature", "properties": { "begin": "1", "end": "90", "TR_FID": 0, "TR_ID": 11, "TR_SEGMENT": 12, "TR_ANGLE": 90.0, "TR_LENGTH": 500.0, "TR_ORIENT": 2 }, "geometry": { "type": "LineString", "coordinates": [ [ 472512.747460211918224, 9287680.477964863181114 ], [ 472485.336751382506918, 9288179.726052533835173 ] ] } },
{ "type": "Feature", "properties": { "begin": "1", "end": "90", "TR_FID": 0, "TR_ID": 12, "TR_SEGMENT": 13, "TR_ANGLE": 90.0, "TR_LENGTH": 500.0, "TR_ORIENT": 2 }, "geometry": { "type": "LineString", "coordinates": [ [ 472609.950971565383952, 9287672.5381237603724 ], [ 472636.602317972050514, 9288171.827324260026217 ] ] } },
{ "type": "Feature", "properties": { "begin": "1", "end": "90", "TR_FID": 0, "TR_ID": 13, "TR_SEGMENT": 14, "TR_ANGLE": 90.0, "TR_LENGTH": 500.0, "TR_ORIENT": 2 }, "geometry": { "type": "LineString", "coordinates": [ [ 472740.578224081546068, 9287666.926863012835383 ], [ 472755.415718704112805, 9288166.706663278862834 ] ] } },
{ "type": "Feature", "properties": { "begin": "1", "end": "90", "TR_FID": 0, "TR_ID": 14, "TR_SEGMENT": 15, "TR_ANGLE": 90.0, "TR_LENGTH": 500.0, "TR_ORIENT": 2 }, "geometry": { "type": "LineString", "coordinates": [ [ 472866.106759182643145, 9287664.863783299922943 ], [ 472879.400742788682692, 9288164.687022056430578 ] ] } },
{ "type": "Feature", "properties": { "begin": "1", "end": "90", "TR_FID": 0, "TR_ID": 15, "TR_SEGMENT": 16, "TR_ANGLE": 90.0, "TR_LENGTH": 500.0, "TR_ORIENT": 2 }, "geometry": { "type": "LineString", "coordinates": [ [ 473037.088765804946888, 9287663.351206513121724 ], [ 472957.741894471051637, 9288157.015134716406465 ] ] } },
{ "type": "Feature", "properties": { "begin": "1", "end": "90", "TR_FID": 0, "TR_ID": 16, "TR_SEGMENT": 17, "TR_ANGLE": 90.0, "TR_LENGTH": 500.0, "TR_ORIENT": 2 }, "geometry": { "type": "LineString", "coordinates": [ [ 473170.442775223578792, 9287709.423878118395805 ], [ 473049.836729307367932, 9288194.660090379416943 ] ] } },
{ "type": "Feature", "properties": { "begin": "1", "end": "90", "TR_FID": 0, "TR_ID": 17, "TR_SEGMENT": 18, "TR_ANGLE": 90.0, "TR_LENGTH": 500.0, "TR_ORIENT": 2 }, "geometry": { "type": "LineString", "coordinates": [ [ 473246.191442626935896, 9287719.6679044123739 ], [ 473122.053222568996716, 9288204.012515531852841 ] ] } },
{ "type": "Feature", "properties": { "begin": "1", "end": "90", "TR_FID": 0, "TR_ID": 18, "TR_SEGMENT": 19, "TR_ANGLE": 90.0, "TR_LENGTH": 500.0, "TR_ORIENT": 2 }, "geometry": { "type": "LineString", "coordinates": [ [ 473415.289986136252992, 9287785.189005874097347 ], [ 473181.535063415300101, 9288227.182938076555729 ] ] } },
{ "type": "Feature", "properties": { "begin": "1", "end": "90", "TR_FID": 0, "TR_ID": 19, "TR_SEGMENT": 20, "TR_ANGLE": 90.0, "TR_LENGTH": 500.0, "TR_ORIENT": 2 }, "geometry": { "type": "LineString", "coordinates": [ [ 473543.019898569618817, 9287871.051018927246332 ], [ 473259.59014764794847, 9288282.958261266350746 ] ] } },
{ "type": "Feature", "properties": { "begin": "1", "end": "90", "TR_FID": 0, "TR_ID": 20, "TR_SEGMENT": 21, "TR_ANGLE": 90.0, "TR_LENGTH": 500.0, "TR_ORIENT": 2 }, "geometry": { "type": "LineString", "coordinates": [ [ 473648.528593138616998, 9287943.654603516682982 ], [ 473360.02334850205807, 9288352.022971315309405 ] ] } },
{ "type": "Feature", "properties": { "begin": "1", "end": "90", "TR_FID": 0, "TR_ID": 21, "TR_SEGMENT": 22, "TR_ANGLE": 90.0, "TR_LENGTH": 500.0, "TR_ORIENT": 2 }, "geometry": { "type": "LineString", "coordinates": [ [ 473735.693773562088609, 9288007.782551931217313 ], [ 473474.25195630104281, 9288433.9845887478441 ] ] } },
{ "type": "Feature", "properties": { "begin": "1", "end": "90", "TR_FID": 0, "TR_ID": 22, "TR_SEGMENT": 23, "TR_ANGLE": 90.0, "TR_LENGTH": 500.0, "TR_ORIENT": 2 }, "geometry": { "type": "LineString", "coordinates": [ [ 473817.462315815559123, 9288049.180499635636806 ], [ 473613.906343850248959, 9288505.869634911417961 ] ] } },
{ "type": "Feature", "properties": { "begin": "1", "end": "90", "TR_FID": 0, "TR_ID": 23, "TR_SEGMENT": 24, "TR_ANGLE": 90.0, "TR_LENGTH": 500.0, "TR_ORIENT": 2 }, "geometry": { "type": "LineString", "coordinates": [ [ 473864.81300235009985, 9288069.285215858370066 ], [ 473749.43777477106778, 9288555.791697688400745 ] ] } },
{ "type": "Feature", "properties": { "begin": "1", "end": "90", "TR_FID": 0, "TR_ID": 24, "TR_SEGMENT": 25, "TR_ANGLE": 90.0, "TR_LENGTH": 500.0, "TR_ORIENT": 2 }, "geometry": { "type": "LineString", "coordinates": [ [ 473977.053309511975385, 9288079.979950459674001 ], [ 473870.619083982659504, 9288568.520384443923831 ] ] } },
{ "type": "Feature", "properties": { "begin": "1", "end": "90", "TR_FID": 0, "TR_ID": 25, "TR_SEGMENT": 26, "TR_ANGLE": 90.0, "TR_LENGTH": 500.0, "TR_ORIENT": 2 }, "geometry": { "type": "LineString", "coordinates": [ [ 474143.833588334557135, 9288136.33380451053381 ], [ 473939.025280768459197, 9288592.462686683982611 ] ] } },
{ "type": "Feature", "properties": { "begin": "1", "end": "90", "TR_FID": 0, "TR_ID": 26, "TR_SEGMENT": 27, "TR_ANGLE": 90.0, "TR_LENGTH": 500.0, "TR_ORIENT": 2 }, "geometry": { "type": "LineString", "coordinates": [ [ 474283.823513632290997, 9288214.687246322631836 ], [ 474016.115851970622316, 9288636.981702700257301 ] ] } },
{ "type": "Feature", "properties": { "begin": "1", "end": "90", "TR_FID": 0, "TR_ID": 27, "TR_SEGMENT": 28, "TR_ANGLE": 90.0, "TR_LENGTH": 500.0, "TR_ORIENT": 2 }, "geometry": { "type": "LineString", "coordinates": [ [ 474404.730442575993948, 9288299.970499629154801 ], [ 474099.411297659971751, 9288695.925319964066148 ] ] } },
{ "type": "Feature", "properties": { "begin": "1", "end": "90", "TR_FID": 0, "TR_ID": 28, "TR_SEGMENT": 29, "TR_ANGLE": 90.0, "TR_LENGTH": 500.0, "TR_ORIENT": 2 }, "geometry": { "type": "LineString", "coordinates": [ [ 474502.21573382045608, 9288381.768289243802428 ], [ 474193.257483423105441, 9288774.890152679756284 ] ] } },
{ "type": "Feature", "properties": { "begin": "1", "end": "90", "TR_FID": 0, "TR_ID": 29, "TR_SEGMENT": 30, "TR_ANGLE": 90.0, "TR_LENGTH": 500.0, "TR_ORIENT": 2 }, "geometry": { "type": "LineString", "coordinates": [ [ 474597.803635398449842, 9288451.80180330760777 ], [ 474298.967798672092613, 9288852.672284496948123 ] ] } },
{ "type": "Feature", "properties": { "begin": "1", "end": "90", "TR_FID": 0, "TR_ID": 30, "TR_SEGMENT": 31, "TR_ANGLE": 90.0, "TR_LENGTH": 500.0, "TR_ORIENT": 2 }, "geometry": { "type": "LineString", "coordinates": [ [ 474696.338274236943107, 9288526.384434271603823 ], [ 474399.713748900743667, 9288928.893926046788692 ] ] } },
{ "type": "Feature", "properties": { "begin": "1", "end": "90", "TR_FID": 0, "TR_ID": 31, "TR_SEGMENT": 32, "TR_ANGLE": 90.0, "TR_LENGTH": 500.0, "TR_ORIENT": 2 }, "geometry": { "type": "LineString", "coordinates": [ [ 474793.975140097376425, 9288596.420635705813766 ], [ 474505.158412926422898, 9289004.568768257275224 ] ] } },
{ "type": "Feature", "properties": { "begin": "1", "end": "90", "TR_FID": 0, "TR_ID": 32, "TR_SEGMENT": 33, "TR_ANGLE": 90.0, "TR_LENGTH": 500.0, "TR_ORIENT": 2 }, "geometry": { "type": "LineString", "coordinates": [ [ 474832.561101136321668, 9288635.309441862627864 ], [ 474671.418334205227438, 9289108.630694994702935 ] ] } },
{ "type": "Feature", "properties": { "begin": "1", "end": "90", "TR_FID": 0, "TR_ID": 33, "TR_SEGMENT": 34, "TR_ANGLE": 90.0, "TR_LENGTH": 500.0, "TR_ORIENT": 2 }, "geometry": { "type": "LineString", "coordinates": [ [ 474891.560175433172844, 9288628.704832885414362 ], [ 474838.318117128219455, 9289125.862034611403942 ] ] } },
{ "type": "Feature", "properties": { "begin": "1", "end": "90", "TR_FID": 0, "TR_ID": 34, "TR_SEGMENT": 35, "TR_ANGLE": 90.0, "TR_LENGTH": 500.0, "TR_ORIENT": 2 }, "geometry": { "type": "LineString", "coordinates": [ [ 475054.864531218190677, 9288657.870429292321205 ], [ 474908.029522553668357, 9289135.823858227580786 ] ] } },
{ "type": "Feature", "properties": { "begin": "1", "end": "90", "TR_FID": 0, "TR_ID": 35, "TR_SEGMENT": 36, "TR_ANGLE": 90.0, "TR_LENGTH": 500.0, "TR_ORIENT": 2 }, "geometry": { "type": "LineString", "coordinates": [ [ 475206.703987107088324, 9288725.232512596994638 ], [ 474983.456266070192214, 9289172.625466331839561 ] ] } },
{ "type": "Feature", "properties": { "begin": "1", "end": "90", "TR_FID": 0, "TR_ID": 36, "TR_SEGMENT": 37, "TR_ANGLE": 90.0, "TR_LENGTH": 500.0, "TR_ORIENT": 2 }, "geometry": { "type": "LineString", "coordinates": [ [ 475336.014184060855769, 9288795.477388562634587 ], [ 475073.993411867530085, 9289221.32373989187181 ] ] } },
{ "type": "Feature", "properties": { "begin": "1", "end": "90", "TR_FID": 0, "TR_ID": 37, "TR_SEGMENT": 38, "TR_ANGLE": 90.0, "TR_LENGTH": 500.0, "TR_ORIENT": 2 }, "geometry": { "type": "LineString", "coordinates": [ [ 475444.991179854958318, 9288870.808961465954781 ], [ 475169.28982356400229, 9289287.928563185036182 ] ] } },
{ "type": "Feature", "properties": { "begin": "1", "end": "90", "TR_FID": 0, "TR_ID": 38, "TR_SEGMENT": 39, "TR_ANGLE": 90.0, "TR_LENGTH": 500.0, "TR_ORIENT": 2 }, "geometry": { "type": "LineString", "coordinates": [ [ 475547.355991954216734, 9288935.039661256596446 ], [ 475277.439193028956652, 9289355.925538493320346 ] ] } },
{ "type": "Feature", "properties": { "begin": "1", "end": "90", "TR_FID": 0, "TR_ID": 39, "TR_SEGMENT": 40, "TR_ANGLE": 90.0, "TR_LENGTH": 500.0, "TR_ORIENT": 2 }, "geometry": { "type": "LineString", "coordinates": [ [ 475667.89490966295125, 9289014.797966733574867 ], [ 475363.104072656540666, 9289411.159601703286171 ] ] } },
{ "type": "Feature", "properties": { "begin": "1", "end": "90", "TR_FID": 0, "TR_ID": 40, "TR_SEGMENT": 41, "TR_ANGLE": 90.0, "TR_LENGTH": 500.0, "TR_ORIENT": 2 }, "geometry": { "type": "LineString", "coordinates": [ [ 475771.925554169225506, 9289107.25785430893302 ], [ 475445.093429992673919, 9289485.650193829089403 ] ] } },
{ "type": "Feature", "properties": { "begin": "1", "end": "90", "TR_FID": 0, "TR_ID": 41, "TR_SEGMENT": 42, "TR_ANGLE": 90.0, "TR_LENGTH": 500.0, "TR_ORIENT": 2 }, "geometry": { "type": "LineString", "coordinates": [ [ 475861.933891088410746, 9289182.030552687123418 ], [ 475547.353201918362174, 9289570.667902925983071 ] ] } },
{ "type": "Feature", "properties": { "begin": "1", "end": "90", "TR_FID": 0, "TR_ID": 42, "TR_SEGMENT": 43, "TR_ANGLE": 90.0, "TR_LENGTH": 500.0, "TR_ORIENT": 2 }, "geometry": { "type": "LineString", "coordinates": [ [ 475918.579761444649193, 9289232.146547945216298 ], [ 475687.010813270055223, 9289675.28966505266726 ] ] } },
{ "type": "Feature", "properties": { "begin": "1", "end": "90", "TR_FID": 0, "TR_ID": 43, "TR_SEGMENT": 44, "TR_ANGLE": 90.0, "TR_LENGTH": 500.0, "TR_ORIENT": 2 }, "geometry": { "type": "LineString", "coordinates": [ [ 476011.406572289823089, 9289257.51506638713181 ], [ 475813.571467612928245, 9289716.711398424580693 ] ] } },
{ "type": "Feature", "properties": { "begin": "1", "end": "90", "TR_FID": 0, "TR_ID": 44, "TR_SEGMENT": 45, "TR_ANGLE": 90.0, "TR_LENGTH": 500.0, "TR_ORIENT": 2 }, "geometry": { "type": "LineString", "coordinates": [ [ 476163.085085974715184, 9289343.275550482794642 ], [ 475878.762425691529643, 9289754.566961588338017 ] ] } },
{ "type": "Feature", "properties": { "begin": "1", "end": "90", "TR_FID": 0, "TR_ID": 45, "TR_SEGMENT": 46, "TR_ANGLE": 90.0, "TR_LENGTH": 500.0, "TR_ORIENT": 2 }, "geometry": { "type": "LineString", "coordinates": [ [ 476318.754896342812572, 9289480.983952911570668 ], [ 475914.755384985415731, 9289775.57586526311934 ] ] } },
{ "type": "Feature", "properties": { "begin": "1", "end": "90", "TR_FID": 0, "TR_ID": 46, "TR_SEGMENT": 47, "TR_ANGLE": 90.0, "TR_LENGTH": 500.0, "TR_ORIENT": 2 }, "geometry": { "type": "LineString", "coordinates": [ [ 476335.536174458218738, 9289559.125307410955429 ], [ 475985.625882718362845, 9289916.284638430923223 ] ] } },
{ "type": "Feature", "properties": { "begin": "1", "end": "90", "TR_FID": 0, "TR_ID": 47, "TR_SEGMENT": 48, "TR_ANGLE": 90.0, "TR_LENGTH": 500.0, "TR_ORIENT": 2 }, "geometry": { "type": "LineString", "coordinates": [ [ 476268.999036547436845, 9289524.479188524186611 ], [ 476245.880353853397537, 9290023.944429066032171 ] ] } },
{ "type": "Feature", "properties": { "begin": "1", "end": "90", "TR_FID": 0, "TR_ID": 48, "TR_SEGMENT": 49, "TR_ANGLE": 90.0, "TR_LENGTH": 500.0, "TR_ORIENT": 2 }, "geometry": { "type": "LineString", "coordinates": [ [ 476312.108136117283721, 9289499.953882984817028 ], [ 476443.380009698623326, 9289982.413928177207708 ] ] } },
{ "type": "Feature", "properties": { "begin": "1", "end": "90", "TR_FID": 0, "TR_ID": 49, "TR_SEGMENT": 50, "TR_ANGLE": 90.0, "TR_LENGTH": 500.0, "TR_ORIENT": 2 }, "geometry": { "type": "LineString", "coordinates": [ [ 476436.76359799480997, 9289466.367627024650574 ], [ 476559.94896912551485, 9289950.955456361174583 ] ] } },
{ "type": "Feature", "properties": { "begin": "1", "end": "90", "TR_FID": 0, "TR_ID": 50, "TR_SEGMENT": 51, "TR_ANGLE": 90.0, "TR_LENGTH": 500.0, "TR_ORIENT": 2 }, "geometry": { "type": "LineString", "coordinates": [ [ 476572.47468917403603, 9289434.164959846064448 ], [ 476667.392020781699102, 9289925.072996204718947 ] ] } },
{ "type": "Feature", "properties": { "begin": "1", "end": "90", "TR_FID": 0, "TR_ID": 51, "TR_SEGMENT": 52, "TR_ANGLE": 90.0, "TR_LENGTH": 500.0, "TR_ORIENT": 2 }, "geometry": { "type": "LineString", "coordinates": [ [ 476684.225260319246445, 9289418.273381592705846 ], [ 476800.300007921003271, 9289904.61344057507813 ] ] } },
{ "type": "Feature", "properties": { "begin": "1", "end": "90", "TR_FID": 0, "TR_ID": 52, "TR_SEGMENT": 53, "TR_ANGLE": 90.0, "TR_LENGTH": 500.0, "TR_ORIENT": 2 }, "geometry": { "type": "LineString", "coordinates": [ [ 476784.867350585001986, 9289383.840408032760024 ], [ 476935.443363398022484, 9289860.628478737547994 ] ] } },
{ "type": "Feature", "properties": { "begin": "1", "end": "90", "TR_FID": 0, "TR_ID": 53, "TR_SEGMENT": 54, "TR_ANGLE": 90.0, "TR_LENGTH": 500.0, "TR_ORIENT": 2 }, "geometry": { "type": "LineString", "coordinates": [ [ 476932.23469497775659, 9289341.460305655375123 ], [ 477019.32997644180432, 9289833.816286573186517 ] ] } },
{ "type": "Feature", "properties": { "begin": "1", "end": "90", "TR_FID": 0, "TR_ID": 54, "TR_SEGMENT": 55, "TR_ANGLE": 90.0, "TR_LENGTH": 500.0, "TR_ORIENT": 2 }, "geometry": { "type": "LineString", "coordinates": [ [ 477098.43956719659036, 9289330.223649926483631 ], [ 477102.604825130489189, 9289830.206300251185894 ] ] } },
{ "type": "Feature", "properties": { "begin": "1", "end": "90", "TR_FID": 0, "TR_ID": 55, "TR_SEGMENT": 56, "TR_ANGLE": 90.0, "TR_LENGTH": 500.0, "TR_ORIENT": 2 }, "geometry": { "type": "LineString", "coordinates": [ [ 477249.378836703835987, 9289336.760937083512545 ], [ 477199.68859107082244, 9289834.285689722746611 ] ] } },
{ "type": "Feature", "properties": { "begin": "1", "end": "90", "TR_FID": 0, "TR_ID": 56, "TR_SEGMENT": 57, "TR_ANGLE": 90.0, "TR_LENGTH": 500.0, "TR_ORIENT": 2 }, "geometry": { "type": "LineString", "coordinates": [ [ 477423.913632894516923, 9289367.401741936802864 ], [ 477264.818156453198753, 9289841.415063876658678 ] ] } },
{ "type": "Feature", "properties": { "begin": "1", "end": "90", "TR_FID": 0, "TR_ID": 57, "TR_SEGMENT": 58, "TR_ANGLE": 90.0, "TR_LENGTH": 500.0, "TR_ORIENT": 2 }, "geometry": { "type": "LineString", "coordinates": [ [ 477480.169445634295698, 9289412.936573507264256 ], [ 477420.682029871561099, 9289909.385208679363132 ] ] } },
{ "type": "Feature", "properties": { "begin": "1", "end": "90", "TR_FID": 0, "TR_ID": 58, "TR_SEGMENT": 59, "TR_ANGLE": 90.0, "TR_LENGTH": 500.0, "TR_ORIENT": 2 }, "geometry": { "type": "LineString", "coordinates": [ [ 477457.222663017106242, 9289403.678864864632487 ], [ 477648.046083766850643, 9289865.832975624129176 ] ] } },
{ "type": "Feature", "properties": { "begin": "1", "end": "90", "TR_FID": 0, "TR_ID": 59, "TR_SEGMENT": 60, "TR_ANGLE": 90.0, "TR_LENGTH": 500.0, "TR_ORIENT": 2 }, "geometry": { "type": "LineString", "coordinates": [ [ 477559.893752792500891, 9289343.287368204444647 ], [ 477752.920845825457945, 9289804.525421008467674 ] ] } },
{ "type": "Feature", "properties": { "begin": "1", "end": "90", "TR_FID": 0, "TR_ID": 60, "TR_SEGMENT": 61, "TR_ANGLE": 90.0, "TR_LENGTH": 500.0, "TR_ORIENT": 2 }, "geometry": { "type": "LineString", "coordinates": [ [ 477751.716611557116266, 9289292.865179190412164 ], [ 477801.538300907530356, 9289790.376786360517144 ] ] } },
{ "type": "Feature", "properties": { "begin": "1", "end": "90", "TR_FID": 0, "TR_ID": 61, "TR_SEGMENT": 62, "TR_ANGLE": 90.0, "TR_LENGTH": 500.0, "TR_ORIENT": 2 }, "geometry": { "type": "LineString", "coordinates": [ [ 477936.579363999888301, 9289301.989450491964817 ], [ 477865.178383467718959, 9289796.865091413259506 ] ] } },
{ "type": "Feature", "properties": { "begin": "1", "end": "90", "TR_FID": 0, "TR_ID": 62, "TR_SEGMENT": 63, "TR_ANGLE": 90.0, "TR_LENGTH": 500.0, "TR_ORIENT": 2 }, "geometry": { "type": "LineString", "coordinates": [ [ 478051.241988221590873, 9289328.740310346707702 ], [ 477993.178624116873834, 9289825.357512777671218 ] ] } },
{ "type": "Feature", "properties": { "begin": "1", "end": "90", "TR_FID": 0, "TR_ID": 63, "TR_SEGMENT": 64, "TR_ANGLE": 90.0, "TR_LENGTH": 500.0, "TR_ORIENT": 2 }, "geometry": { "type": "LineString", "coordinates": [ [ 478112.549556335143279, 9289329.881986077874899 ], [ 478171.786855375336017, 9289826.360527813434601 ] ] } },
{ "type": "Feature", "properties": { "begin": "1", "end": "90", "TR_FID": 0, "TR_ID": 64, "TR_SEGMENT": 65, "TR_ANGLE": 90.0, "TR_LENGTH": 500.0, "TR_ORIENT": 2 }, "geometry": { "type": "LineString", "coordinates": [ [ 478207.917955072887708, 9289303.88200412504375 ], [ 478317.064976503665093, 9289791.823524916544557 ] ] } },
{ "type": "Feature", "properties": { "begin": "1", "end": "90", "TR_FID": 0, "TR_ID": 65, "TR_SEGMENT": 66, "TR_ANGLE": 90.0, "TR_LENGTH": 500.0, "TR_ORIENT": 2 }, "geometry": { "type": "LineString", "coordinates": [ [ 478411.970015912898816, 9289276.293009199202061 ], [ 478351.536512807710096, 9289772.627363946288824 ] ] } },
{ "type": "Feature", "properties": { "begin": "1", "end": "90", "TR_FID": 0, "TR_ID": 66, "TR_SEGMENT": 67, "TR_ANGLE": 90.0, "TR_LENGTH": 500.0, "TR_ORIENT": 2 }, "geometry": { "type": "LineString", "coordinates": [ [ 478613.774170443823095, 9289357.262201527133584 ], [ 478375.646045438188594, 9289796.915469547733665 ] ] } },
{ "type": "Feature", "properties": { "begin": "1", "end": "90", "TR_FID": 0, "TR_ID": 67, "TR_SEGMENT": 68, "TR_ANGLE": 90.0, "TR_LENGTH": 500.0, "TR_ORIENT": 2 }, "geometry": { "type": "LineString", "coordinates": [ [ 478745.633015396888368, 9289439.353646613657475 ], [ 478455.948410229175352, 9289846.886258225888014 ] ] } },
{ "type": "Feature", "properties": { "begin": "1", "end": "90", "TR_FID": 0, "TR_ID": 68, "TR_SEGMENT": 69, "TR_ANGLE": 90.0, "TR_LENGTH": 500.0, "TR_ORIENT": 2 }, "geometry": { "type": "LineString", "coordinates": [ [ 478785.020871658693068, 9289487.063810613006353 ], [ 478610.238836113829166, 9289955.520041279494762 ] ] } },
{ "type": "Feature", "properties": { "begin": "1", "end": "90", "TR_FID": 0, "TR_ID": 69, "TR_SEGMENT": 70, "TR_ANGLE": 90.0, "TR_LENGTH": 500.0, "TR_ORIENT": 2 }, "geometry": { "type": "LineString", "coordinates": [ [ 478715.902652190823574, 9289490.292231123894453 ], [ 478888.320172391308006, 9289959.623882226645947 ] ] } },
{ "type": "Feature", "properties": { "begin": "1", "end": "90", "TR_FID": 0, "TR_ID": 70, "TR_SEGMENT": 71, "TR_ANGLE": 90.0, "TR_LENGTH": 500.0, "TR_ORIENT": 2 }, "geometry": { "type": "LineString", "coordinates": [ [ 478780.81178143346915, 9289420.754099998623133 ], [ 478995.418861916346941, 9289872.355474006384611 ] ] } },
{ "type": "Feature", "properties": { "begin": "1", "end": "90", "TR_FID": 0, "TR_ID": 71, "TR_SEGMENT": 72, "TR_ANGLE": 90.0, "TR_LENGTH": 500.0, "TR_ORIENT": 2 }, "geometry": { "type": "LineString", "coordinates": [ [ 479009.371585390297696, 9289378.184021763503551 ], [ 479013.326971397618763, 9289878.168376442044973 ] ] } },
{ "type": "Feature", "properties": { "begin": "1", "end": "90", "TR_FID": 0, "TR_ID": 72, "TR_SEGMENT": 73, "TR_ANGLE": 90.0, "TR_LENGTH": 500.0, "TR_ORIENT": 2 }, "geometry": { "type": "LineString", "coordinates": [ [ 479199.95237129542511, 9289403.438679670915008 ], [ 479066.726598894339986, 9289885.362837156280875 ] ] } },
{ "type": "Feature", "properties": { "begin": "1", "end": "90", "TR_FID": 0, "TR_ID": 73, "TR_SEGMENT": 74, "TR_ANGLE": 90.0, "TR_LENGTH": 500.0, "TR_ORIENT": 2 }, "geometry": { "type": "LineString", "coordinates": [ [ 479344.867661147378385, 9289463.383813621476293 ], [ 479151.180249774130061, 9289924.34496889822185 ] ] } },
{ "type": "Feature", "properties": { "begin": "1", "end": "90", "TR_FID": 0, "TR_ID": 74, "TR_SEGMENT": 75, "TR_ANGLE": 90.0, "TR_LENGTH": 500.0, "TR_ORIENT": 2 }, "geometry": { "type": "LineString", "coordinates": [ [ 479441.431396624306217, 9289503.558801259845495 ], [ 479285.334661148488522, 9289978.568073984235525 ] ] } },
{ "type": "Feature", "properties": { "begin": "1", "end": "90", "TR_FID": 0, "TR_ID": 75, "TR_SEGMENT": 76, "TR_ANGLE": 90.0, "TR_LENGTH": 500.0, "TR_ORIENT": 2 }, "geometry": { "type": "LineString", "coordinates": [ [ 479562.306002968165558, 9289533.967087984085083 ], [ 479406.813194371352438, 9290009.174396928399801 ] ] } },
{ "type": "Feature", "properties": { "begin": "1", "end": "90", "TR_FID": 0, "TR_ID": 76, "TR_SEGMENT": 77, "TR_ANGLE": 90.0, "TR_LENGTH": 500.0, "TR_ORIENT": 2 }, "geometry": { "type": "LineString", "coordinates": [ [ 479698.503843963611871, 9289588.676946388557553 ], [ 479502.228788359789178, 9290048.542255526408553 ] ] } },
{ "type": "Feature", "properties": { "begin": "1", "end": "90", "TR_FID": 0, "TR_ID": 77, "TR_SEGMENT": 78, "TR_ANGLE": 90.0, "TR_LENGTH": 500.0, "TR_ORIENT": 2 }, "geometry": { "type": "LineString", "coordinates": [ [ 479826.482545704231597, 9289646.199830355122685 ], [ 479602.356446398771368, 9290093.153397975489497 ] ] } },
{ "type": "Feature", "properties": { "begin": "1", "end": "90", "TR_FID": 0, "TR_ID": 78, "TR_SEGMENT": 79, "TR_ANGLE": 90.0, "TR_LENGTH": 500.0, "TR_ORIENT": 2 }, "geometry": { "type": "LineString", "coordinates": [ [ 479954.870276031026151, 9289717.805549504235387 ], [ 479691.80444176873425, 9290143.007109759375453 ] ] } },
{ "type": "Feature", "properties": { "begin": "1", "end": "90", "TR_FID": 0, "TR_ID": 79, "TR_SEGMENT": 80, "TR_ANGLE": 90.0, "TR_LENGTH": 500.0, "TR_ORIENT": 2 }, "geometry": { "type": "LineString", "coordinates": [ [ 480066.857432265474927, 9289794.0197390075773 ], [ 479786.223830302653369, 9290207.837067605927587 ] ] } },
{ "type": "Feature", "properties": { "begin": "1", "end": "90", "TR_FID": 0, "TR_ID": 80, "TR_SEGMENT": 81, "TR_ANGLE": 90.0, "TR_LENGTH": 500.0, "TR_ORIENT": 2 }, "geometry": { "type": "LineString", "coordinates": [ [ 480170.917860166111495, 9289864.055679269134998 ], [ 479889.566768298915122, 9290277.385527096688747 ] ] } },
{ "type": "Feature", "properties": { "begin": "1", "end": "90", "TR_FID": 0, "TR_ID": 81, "TR_SEGMENT": 82, "TR_ANGLE": 90.0, "TR_LENGTH": 500.0, "TR_ORIENT": 2 }, "geometry": { "type": "LineString", "coordinates": [ [ 480282.77199179737363, 9289941.282037377357483 ], [ 479983.55326772632543, 9290341.866803895682096 ] ] } },
{ "type": "Feature", "properties": { "begin": "1", "end": "90", "TR_FID": 0, "TR_ID": 82, "TR_SEGMENT": 83, "TR_ANGLE": 90.0, "TR_LENGTH": 500.0, "TR_ORIENT": 2 }, "geometry": { "type": "LineString", "coordinates": [ [ 480382.659839630359784, 9290021.947608673945069 ], [ 480078.018694262369536, 9290418.424307296052575 ] ] } },
{ "type": "Feature", "properties": { "begin": "1", "end": "90", "TR_FID": 0, "TR_ID": 83, "TR_SEGMENT": 84, "TR_ANGLE": 90.0, "TR_LENGTH": 500.0, "TR_ORIENT": 2 }, "geometry": { "type": "LineString", "coordinates": [ [ 480478.902681226958521, 9290092.042921714484692 ], [ 480183.528223058325239, 9290495.470646917819977 ] ] } },
{ "type": "Feature", "properties": { "begin": "1", "end": "90", "TR_FID": 0, "TR_ID": 84, "TR_SEGMENT": 85, "TR_ANGLE": 90.0, "TR_LENGTH": 500.0, "TR_ORIENT": 2 }, "geometry": { "type": "LineString", "coordinates": [ [ 480585.862440180091653, 9290170.808420630171895 ], [ 480277.392519916116726, 9290564.313577258959413 ] ] } },
{ "type": "Feature", "properties": { "begin": "1", "end": "90", "TR_FID": 0, "TR_ID": 85, "TR_SEGMENT": 86, "TR_ANGLE": 90.0, "TR_LENGTH": 500.0, "TR_ORIENT": 2 }, "geometry": { "type": "LineString", "coordinates": [ [ 480668.59743576112669, 9290241.268228475004435 ], [ 480386.51865585683845, 9290654.101805027574301 ] ] } },
{ "type": "Feature", "properties": { "begin": "1", "end": "90", "TR_FID": 0, "TR_ID": 86, "TR_SEGMENT": 87, "TR_ANGLE": 90.0, "TR_LENGTH": 500.0, "TR_ORIENT": 2 }, "geometry": { "type": "LineString", "coordinates": [ [ 480790.786950591136701, 9290310.955337466672063 ], [ 480481.819764600717463, 9290704.070178171619773 ] ] } },
{ "type": "Feature", "properties": { "begin": "1", "end": "90", "TR_FID": 0, "TR_ID": 87, "TR_SEGMENT": 88, "TR_ANGLE": 90.0, "TR_LENGTH": 500.0, "TR_ORIENT": 2 }, "geometry": { "type": "LineString", "coordinates": [ [ 480884.9539419967914, 9290410.919095972552896 ], [ 480553.938108116039075, 9290785.657028025016189 ] ] } },
{ "type": "Feature", "properties": { "begin": "1", "end": "90", "TR_FID": 0, "TR_ID": 88, "TR_SEGMENT": 89, "TR_ANGLE": 90.0, "TR_LENGTH": 500.0, "TR_ORIENT": 2 }, "geometry": { "type": "LineString", "coordinates": [ [ 480974.397461614687927, 9290473.024849690496922 ], [ 480668.213823532452807, 9290868.311555474996567 ] ] } },
{ "type": "Feature", "properties": { "begin": "1", "end": "90", "TR_FID": 0, "TR_ID": 89, "TR_SEGMENT": 90, "TR_ANGLE": 90.0, "TR_LENGTH": 500.0, "TR_ORIENT": 2 }, "geometry": { "type": "LineString", "coordinates": [ [ 481077.951497588306665, 9290560.023346267640591 ], [ 480755.725329074426554, 9290942.345587741583586 ] ] } }
]
}
